{"type":"FeatureCollection","features":[{"type":"Feature","geometry":{"type":"Point","coordinates":[120.959497,23.48757]},"properties":{"@id":"node/625239452","alt_name":"北山;新高北山;斗六新高;天駝峰","ele":"3858","name":"玉山北峰","name:en":"Yushan North Peak","name:ja":"玉山北峰","name:zh":"玉山北峰","natural":"peak","ref":"百岳#4;八秀-1","wikidata":"Q15955007","wikipedia":"zh:玉山北峰"},"id":"node/625239452"},{"type":"Feature","geometry":{"type":"Point","coordinates":[120.958951,23.446594]},"properties":{"@id":"node/625242828","ele":"3844","name":"玉山南峰","name:en":"Yushan South Peak","name:ja":"玉山南峰","name:zh":"玉山南峰","natural":"peak","ref":"百岳#5;十峻-2","wikidata":"Q16058613","wikipedia":"zh:玉山南峰"},"id":"node/625242828"},{"type":"Feature","geometry":{"type":"Point","coordinates":[120.965193,23.470743]},"properties":{"@id":"node/625245738","alt_name":"天壘峰;東山;新高東山;台東新高;齊藤峰;齊藤岳","ele":"3869","name":"玉山東峰","name:en":"Yushan East Peak","name:ja":"玉山東峰","name:zh":"玉山東峰","natural":"peak","ref":"百岳#3;十峻-1","wikidata":"Q15930821","wikipedia":"zh:玉山東峰"},"id":"node/625245738"},{"type":"Feature","geometry":{"type":"Point","coordinates":[120.917663,23.475578]},"properties":{"@id":"node/625249201","ele":"3239","name":"玉山前峰","name:en":"Yushan Front Peak","name:ja":"玉山前峰","name:zh":"玉山前峰","natural":"peak","ref":"百岳#69;六易-5","source":"STRM/Wikipedia","wikidata":"Q16062390","wikipedia":"zh:玉山前峰","wikipedia:zh":"玉山前峰"},"id":"node/625249201"},{"type":"Feature","geometry":{"type":"Point","coordinates":[121.028665,23.297193]},"properties":{"@id":"node/660060600","ele":"3495","name":"三叉山","name:en":"Sanchashan","name:zh":"三叉山","name:zh-Bopo":"ㄙㄢㄔㄚㄕㄢ","name:zh-Hans":"三叉山","name:zh-Hant":"三叉山","name:zh-Latn-pinyin":"sānchāshān","natural":"peak","ref":"百岳#27;十崇-3","source":"NLSC","wikidata":"Q10865460","wikipedia":"zh:三叉山","wikipedia:zh":"三叉山"},"id":"node/660060600"},{"type":"Feature","geometry":{"type":"Point","coordinates":[121.091867,23.626807]},"properties":{"@id":"node/660060601","ele":"3617","name":"東郡大山","name:en":"Dongjudashan","name:en1":"Dongju Mountain","name:zh":"東郡大山","natural":"peak","ref":"百岳#15;十崇-1","wikidata":"Q5295951","wikipedia":"zh:東郡大山","wikipedia:zh":"東郡大山"},"id":"node/660060601"},{"type":"Feature","geometry":{"type":"Point","coordinates":[121.281594,24.181513]},"properties":{"@id":"node/800395557","alt_name":"北合歡山","ele":"3421.8","name":"合歡山北峰","name:en":"Hehuanshan North Peak","name:en1":"Hehuan Mountain North Peak","name:ja":"合歡山北峰","name:zh":"合歡山北峰","natural":"peak","ref":"百岳#34;十崇-6","source":"NLSC","wikidata":"Q714379","wikipedia":"en:Hehuanshan"},"id":"node/800395557"},{"type":"Feature","geometry":{"type":"Point","coordinates":[121.284546,24.152422]},"properties":{"@id":"node/800396801","ele":"3235.9","name":"石門山","name:en":"Shimenshan","name:zh":"石門山","natural":"peak","ref":"百岳#70;八小巒-2","source":"NLSC","wikidata":"Q16929152","wikipedia":"zh:石門山","wikipedia:zh":"石門山 (南投縣)"},"id":"node/800396801"},{"type":"Feature","geometry":{"type":"Point","coordinates":[121.170316,24.295492]},"properties":{"@id":"node/1529078480","ele":"3256","name":"劍山","name:en":"Jianshan","name:zh":"劍山","natural":"peak","ref":"百岳#64;九嶂-5","wikidata":"Q31605903"},"id":"node/1529078480"},{"type":"Feature","geometry":{"type":"Point","coordinates":[121.200501,24.340927]},"properties":{"@id":"node/1529078482","alt_name":"巴多瓦諾敏山","ele":"3593.3","name":"大劍山","name:en":"Dajianshan","name:zh":"大劍山","natural":"peak","ref":"百岳#18;十峻-6","source":"NLSC","wikidata":"Q5209875"},"id":"node/1529078482"},{"type":"Feature","geometry":{"type":"Point","coordinates":[121.187997,24.306629]},"properties":{"@id":"node/1529078940","ele":"3314","name":"佳陽山","name:en":"Jiayangshan","name:zh":"佳陽山","natural":"peak","ref":"百岳#50;八銳-4","wikidata":"Q10887052","wikipedia":"zh:佳陽山","wikipedia:zh":"佳陽山"},"id":"node/1529078940"},{"type":"Feature","geometry":{"type":"Point","coordinates":[121.243612,24.469981]},"properties":{"@id":"node/1529090959","alt_name":"江澤山","ele":"3296.3","name":"伊澤山","name:en":"Yizeshan","name:zh":"伊澤山","name:zh-Bopo":"ㄧㄗㄜˊㄕㄢ","name:zh-Hans":"伊泽山","name:zh-Hant":"伊澤山","name:zh-Latn-pinyin":"yīzéshān","natural":"peak","ref":"百岳#53;六易-2","source":"NLSC","wikidata":"Q10885048","wikipedia":"zh:伊澤山"},"id":"node/1529090959"},{"type":"Feature","geometry":{"type":"Point","coordinates":[121.288154,24.431098]},"properties":{"@id":"node/1529104910","alt_name":"玉羅府山;王羅府山","ele":"3300.2","name":"池有山","name:en":"Chryou Shan","name:zh":"池有山","natural":"peak","ref":"百岳#52;六易-1","source":"NLSC","wikidata":"Q11135731","wikipedia":"zh:池有山"},"id":"node/1529104910"},{"type":"Feature","geometry":{"type":"Point","coordinates":[121.252122,24.4556]},"properties":{"@id":"node/1529106726","ele":"3419","name":"小霸尖山","name:en":"Xiaobajianshan","name:zh":"小霸尖山","name:zh-Bopo":"ㄒㄧㄠˇㄅㄚˋㄐㄧㄢㄕㄢ","name:zh-Hans":"小霸尖山","name:zh-Hant":"小霸尖山","name:zh-Latn-pinyin":"xiǎobàjiānshān","natural":"peak","ref":"百岳#36;八銳-2","wikidata":"Q11035333","wikipedia":"zh:小霸尖山"},"id":"node/1529106726"},{"type":"Feature","geometry":{"type":"Point","coordinates":[121.2162,24.459477]},"properties":{"@id":"node/1529108306","ele":"3111.9","name":"加利山","name:en":"Jialishan","name:zh":"加利山","name:zh-Bopo":"ㄐㄧㄚㄌㄧˋㄕㄢ","name:zh-Hans":"加利山","name:zh-Hant":"加利山","name:zh-Latn-pinyin":"jiālìshān","natural":"peak","ref":"百岳#86;六肩稜-3","source":"NLSC","wikidata":"Q10900728","wikipedia":"zh:加利山"},"id":"node/1529108306"},{"type":"Feature","geometry":{"type":"Point","coordinates":[121.271195,24.142606]},"properties":{"@id":"node/1660542386","alt_name":"合歡主峰","ele":"3416.6","name":"合歡山","name:en":"Hehuanshan","name:en1":"Mount Hehuan","name:en2":"Joy Mountain","name:zh":"合歡山","natural":"peak","ref":"百岳#37;十潤-3","source":"NLSC"},"id":"node/1660542386"},{"type":"Feature","geometry":{"type":"Point","coordinates":[121.231797,24.383404]},"properties":{"@id":"node/2101224904","alt_name":"雪主","alt_name:en":"Xueshan Main Peak","ele":"3884.6","name":"雪山主峰","name:en":"Xueshan","name:en1":"Snow Mountain Main Peak","name:es":"Xueshan","name:zh":"雪山主峰","natural":"peak","prominence":"1938","ref":"百岳#2;五嶽-2","source":"NLSC","source:prominence":"3886-1948 (思源埡口)","wikidata":"Q707720","wikipedia":"zh:雪山 (台灣)"},"id":"node/2101224904"},{"type":"Feature","geometry":{"type":"Point","coordinates":[121.266766,24.4283]},"properties":{"@id":"node/2101226634","alt_name":"波秦西崙山","ele":"3524","name":"品田山","name:en":"Pintianshan","name:zh":"品田山","natural":"peak","ref":"百岳#24;十峻-7","wikidata":"Q3905324","wikipedia":"zh:品田山","wikipedia:zh":"品田山"},"id":"node/2101226634"},{"type":"Feature","geometry":{"type":"Point","coordinates":[121.416266,24.310224]},"properties":{"@id":"node/2268441042","ele":"3697.7","name":"中央尖山","name:en":"Zhongyangjianshan","name:en1":"Central Range Point","name:zh":"中央尖山","natural":"peak","ref":"百岳#10;三尖-1","source":"NLSC","wikidata":"Q5061754"},"id":"node/2268441042"},{"type":"Feature","geometry":{"type":"Point","coordinates":[120.874175,23.051145]},"properties":{"@id":"node/2268441043","ele":"3293.7","name":"卑南主山","name:en":"Beinanzhushan","name:zh":"卑南主山","name:zh-Bopo":"ㄅㄟㄋㄢˊㄓㄨˇㄕㄢ","name:zh-Hans":"卑南主山","name:zh-Hant":"卑南主山","name:zh-Latn-pinyin":"bēinánzhǔshān","natural":"peak","ref":"百岳#54;十崇-8","source":"NLSC","wikidata":"Q31598901"},"id":"node/2268441043"},{"type":"Feature","geometry":{"type":"Point","coordinates":[121.439377,24.361812]},"properties":{"@id":"node/2268441044","ele":"3740.9","name":"南湖大山","name:en":"Nanhudashan","name:en1":"Nanhu Mountain","name:zh":"南湖大山","natural":"peak","ref":"百岳#8;五嶽-4","source":"NLSC","wikidata":"Q3870130"},"id":"node/2268441044"},{"type":"Feature","geometry":{"type":"Point","coordinates":[121.121194,24.330775]},"properties":{"@id":"node/2268441046","ele":"3529.6","name":"大雪山","name:en":"Daxueshan","name:zh":"大雪山","name:zh-Bopo":"ㄉㄚˋㄒㄩㄝˇㄕㄢ","name:zh-Hans":"大雪山","name:zh-Hant":"大雪山","name:zh-Latn-pinyin":"dàxuěshān","natural":"peak","ref":"百岳#23;十崇-3","source":"NLSC","wikidata":"Q10938459","wikipedia":"zh:大雪山","wikipedia:zh":"大雪山 (台灣)"},"id":"node/2268441046"},{"type":"Feature","geometry":{"type":"Point","coordinates":[121.334546,24.118338]},"properties":{"@id":"node/2268441047","alt_name":"奇萊主山北峰","ele":"3605.6","name":"奇萊北峰","name:en":"Qilaishan North Peak","name:en1":"Qilai Mountain North Peak","name:ja":"奇萊北峰","name:zh":"奇萊北峰","natural":"peak","ref":"百岳#16;十峻-5","source":"NLSC","wikidata":"Q10942221"},"id":"node/2268441047"},{"type":"Feature","geometry":{"type":"Point","coordinates":[121.384707,24.255356]},"properties":{"@id":"node/2268441051","alt_name":"無名山","ele":"3449.2","name":"無明山","name:en":"Wumingshan","name:zh":"無明山","name:zh-Bopo":"ㄨˊㄇㄧㄥˊㄕㄢ","name:zh-Hans":"无明山","name:zh-Hant":"無明山","name:zh-Latn-pinyin":"wúmíngshān","natural":"peak","ref":"百岳#31;十峻-8","source":"NLSC","wikidata":"Q8039235"},"id":"node/2268441051"},{"type":"Feature","geometry":{"type":"Point","coordinates":[121.108957,24.202678]},"properties":{"@id":"node/2268441052","alt_name":"白狗大山","ele":"3341.3","name":"白姑大山","name:en":"Baigudashan","name:zh":"白姑大山","natural":"peak","ref":"百岳#45;十翠-6","source":"NLSC","wikidata":"Q4843216"},"id":"node/2268441052"},{"type":"Feature","geometry":{"type":"Point","coordinates":[120.947221,23.694012]},"properties":{"@id":"node/2268441053","ele":"3085","name":"西巒大山","name:en":"Xiluandashan","name:zh":"西巒大山","name:zh-Bopo":"ㄒㄧㄌㄨㄢˊㄉㄚˋㄕㄢ","name:zh-Hans":"西峦大山","name:zh-Hant":"西巒大山","name:zh-Latn-pinyin":"xīluándàshān","natural":"peak","ref":"百岳#91;七峭-7","wikidata":"Q17067002","wikipedia":"zh:西巒大山"},"id":"node/2268441053"},{"type":"Feature","geometry":{"type":"Point","coordinates":[120.911744,23.228183]},"properties":{"@id":"node/2268441054","ele":"3667.4","name":"關山","name:en":"Guanshan","name:en1":"Mount Guan","name:zh":"關山","natural":"peak","ref":"百岳#12;十峻-4","source":"NLSC","wikidata":"Q13650836","wikipedia":"zh:關山","wikipedia:zh":"關山"},"id":"node/2268441054"},{"type":"Feature","geometry":{"type":"Point","coordinates":[121.078061,24.336481]},"properties":{"@id":"node/2268473258","ele":"3172.4","name":"中雪山","name:en":"Zhongxueshan","name:zh":"中雪山","name:zh-Bopo":"ㄓㄨㄥㄒㄩㄝˇㄕㄢ","name:zh-Hans":"中雪山","name:zh-Hant":"中雪山","name:zh-Latn-pinyin":"zhōngxuěshān","natural":"peak","ref":"百岳#79;十翠-8","source":"NLSC","wikidata":"Q10876827","wikipedia":"zh:中雪山","wikipedia:zh":"中雪山"},"id":"node/2268473258"},{"type":"Feature","geometry":{"type":"Point","coordinates":[121.43476,24.347699]},"properties":{"@id":"node/2268473266","alt_name":"南湖南山","ele":"3505","name":"南湖大山南峰","name:en":"Nanhudashan South Peak","name:en1":"Nanhu Mountain South Peak","name:en2":"Nanhushan South Peak","name:zh":"南湖大山南峰","natural":"peak","ref":"百岳#29;十巖-5","wikidata":"Q31608542"},"id":"node/2268473266"},{"type":"Feature","geometry":{"type":"Point","coordinates":[121.285931,24.039345]},"properties":{"@id":"node/2268473272","alt_name":"能高山北峰","alt_name:en":"Nenggaoshan North Peak","alt_name:en1":"Nenggao North Peak","ele":"3181.6","name":"南華山","name:en":"Nanhuashan","name:en1":"Nanhua Mountain","name:zh":"南華山","natural":"peak","ref":"百岳#76;八瘦-6","source":"NLSC","wikidata":"Q10908921","wikipedia":"zh:南華山","wikipedia:zh":"南華山"},"id":"node/2268473272"},{"type":"Feature","geometry":{"type":"Point","coordinates":[120.992447,23.284361]},"properties":{"@id":"node/2268473278","alt_name":"紅葉山","ele":"3602","name":"向陽山","name:en":"Xiangyangshan","name:zh":"向陽山","name:zh-Bopo":"ㄒㄧㄤˋㄧㄤˊㄕㄢ","name:zh-Hans":"向阳山","name:zh-Hant":"向陽山","name:zh-Latn-pinyin":"xiàngyángshān","natural":"peak","ref":"百岳#17;八秀-2","wikidata":"Q7506819","wikipedia":"zh:向陽山","wikipedia:zh":"向陽山"},"id":"node/2268473278"},{"type":"Feature","geometry":{"type":"Point","coordinates":[120.941245,23.25194]},"properties":{"@id":"node/2268473286","alt_name":"大關山","ele":"3219","name":"塔關山","name:en":"Taguanshan","name:zh":"塔關山","name:zh-Bopo":"ㄊㄚˇㄍㄨㄢㄕㄢ","name:zh-Hans":"塔关山","name:zh-Hant":"塔關山","name:zh-Latn-pinyin":"tǎguānshān","natural":"peak","ref":"百岳#72;七峭-5","source":"NLSC","wikidata":"Q31621356"},"id":"node/2268473286"},{"type":"Feature","geometry":{"type":"Point","coordinates":[121.323263,24.086458]},"properties":{"@id":"node/2268473288","alt_name":"奇萊主峰","ele":"3561.7","name":"奇萊主山","name:en":"Qilaishan","name:en1":"Qilaishan Main Peak","name:en2":"Qilai Mountain","name:zh":"奇萊主山","natural":"peak","ref":"百岳#20;九峨-2","source":"NLSC","wikidata":"Q10942220","wikipedia":"zh:奇萊主山","wikipedia:zh":"奇萊主山"},"id":"node/2268473288"},{"type":"Feature","geometry":{"type":"Point","coordinates":[121.279975,24.061299]},"properties":{"@id":"node/2268473289","alt_name":"奇萊主山南峰","ele":"3357.3","name":"奇萊南峰","name:en":"Qilaishan South Peak","name:en1":"Qilai Mountain South Peak","name:zh":"奇萊南峰","natural":"peak","ref":"百岳#41;十崇-7","source":"NLSC"},"id":"node/2268473289"},{"type":"Feature","geometry":{"type":"Point","coordinates":[120.900024,23.262739]},"properties":{"@id":"node/2268473292","ele":"3114.0","name":"庫哈諾辛山","name:en":"Kuhanuoxinshan","name:zh":"庫哈諾辛山","name:zh-Bopo":"ㄎㄨˋㄏㄚㄋㄨㄛˋㄒㄧㄣㄕㄢ","name:zh-Hant":"庫哈諾辛山","name:zh-Latn-pinyin":"kùhānuòxīnshān","natural":"peak","ref":"百岳#85;九偏-8","source":"NLSC"},"id":"node/2268473292"},{"type":"Feature","geometry":{"type":"Point","coordinates":[121.127618,23.316585]},"properties":{"@id":"node/2268473295","ele":"3331","name":"新康山","name:en":"Xinkangshan","name:zh":"新康山","name:zh-Bopo":"ㄒㄧㄣㄎㄤㄕㄢ","name:zh-Hans":"新康山","name:zh-Hant":"新康山","name:zh-Latn-pinyin":"xīnkāngshān","natural":"peak","ref":"百岳#47;十峻-10","wikidata":"Q5491134","wikipedia":"zh:新康山","wikipedia:zh":"新康山"},"id":"node/2268473295"},{"type":"Feature","geometry":{"type":"Point","coordinates":[121.304893,24.432635]},"properties":{"@id":"node/2268473297","ele":"3323.5","name":"桃山","name:en":"Taoshan","name:zh":"桃山","natural":"peak","ref":"百岳#49;八秀-5","source":"NLSC","wikidata":"Q7684240"},"id":"node/2268473297"},{"type":"Feature","geometry":{"type":"Point","coordinates":[121.347187,24.213577]},"properties":{"@id":"node/2268473300","alt_name":"碧綠山","ele":"3369.9","name":"畢祿山","name:en":"Bilushan","name:zh":"畢祿山","name:zh-Bopo":"ㄅㄧˋㄌㄨˋㄕㄢ","name:zh-Hans":"毕禄山","name:zh-Hant":"畢祿山","name:zh-Latn-pinyin":"bìlùshān","natural":"peak","ref":"百岳#39;八瘦-3","source":"NLSC","wikidata":"Q16929134","wikipedia":"zh:畢祿山"},"id":"node/2268473300"},{"type":"Feature","geometry":{"type":"Point","coordinates":[121.37973,24.20869]},"properties":{"@id":"node/2268473306","ele":"3032.8","name":"羊頭山","name:en":"Yangtoushan","name:zh":"羊頭山","name:zh-Bopo":"ㄧㄤˊㄊㄡˊㄕㄢ","name:zh-Hans":"羊头山","name:zh-Hant":"羊頭山","name:zh-Latn-pinyin":"yángtóushān","natural":"peak","ref":"百岳#96;八瘦-8","source":"NLSC","wikidata":"Q31593623"},"id":"node/2268473306"},{"type":"Feature","geometry":{"type":"Point","coordinates":[121.260238,23.992321]},"properties":{"@id":"node/2268473312","ele":"3260.8","name":"能高山","name:en":"Nenggaoshan","name:en1":"Nenggao Mountain","name:zh":"能高山","natural":"peak","ref":"百岳#62;九峨-7","source":"NLSC","wikidata":"Q13652460","wikipedia":"zh:能高山","wikipedia:zh":"能高山"},"id":"node/2268473312"},{"type":"Feature","geometry":{"type":"Point","coordinates":[121.278112,23.965366]},"properties":{"@id":"node/2268473315","ele":"3348","name":"能高山南峰","name:en":"Nenggaoshan South Peak","name:zh":"能高山南峰","natural":"peak","ref":"百岳#43;十峻-9","source":"NLSC","wikidata":"Q15893981","wikipedia":"zh:能高南峰","wikipedia:zh":"能高南峰"},"id":"node/2268473315"},{"type":"Feature","geometry":{"type":"Point","coordinates":[121.24454,24.177644]},"properties":{"@id":"node/2268473318","alt_name":"西合歡山","ele":"3144.1","name":"合歡山西峰","name:en":"Hehuanshan West Peak","name:zh":"合歡山西峰","name:zh-Bopo":"ㄏㄜˊㄏㄨㄢㄕㄢㄒㄧㄈㄥ","name:zh-Hans":"合欢山西峰","name:zh-Hant":"合歡山西峰","name:zh-Latn-pinyin":"héhuānshānxīfēng","natural":"peak","ref":"百岳#82;十翠-9","source":"NLSC","wikidata":"Q17063478"},"id":"node/2268473318"},{"type":"Feature","geometry":{"type":"Point","coordinates":[121.309868,24.258704]},"properties":{"@id":"node/2268473322","alt_name":"捫山","ele":"3167.5","name":"閂山","name:en":"Shuanshan","name:zh":"閂山","name:zh-Bopo":"ㄕㄨㄢㄕㄢ","name:zh-Hans":"闩山","name:zh-Hant":"閂山","name:zh-Latn-pinyin":"shuānshān","natural":"peak","ref":"百岳#80;八秀-8","source":"NLSC","wikidata":"Q31600280"},"id":"node/2268473322"},{"type":"Feature","geometry":{"type":"Point","coordinates":[120.959483,23.270994]},"properties":{"@id":"node/2268473325","ele":"3176","name":"關山嶺山","name:en":"Guanshanlingshan","name:zh":"關山嶺山","name:zh-Bopo":"ㄍㄨㄢㄕㄢㄌㄧㄥˇㄕㄢ","name:zh-Hans":"关山岭山","name:zh-Hant":"關山嶺山","name:zh-Latn-pinyin":"guānshānlǐngshān","natural":"peak","ref":"百岳#77;八瘦-7","wikidata":"Q16324513","wikipedia":"zh:關山嶺山","wikipedia:zh":"關山嶺山"},"id":"node/2268473325"},{"type":"Feature","geometry":{"type":"Point","coordinates":[121.240404,24.414714]},"properties":{"@id":"node/2268473329","ele":"3703.0","name":"雪山北峰","name:en":"Xueshan North Peak","name:en1":"Snow Mountain North Peak","name:tya":"Babo Tarakusya","name:zh":"雪山北峰","natural":"peak","ref":"百岳#11;十潤-2","source":"NLSC","wikidata":"Q31607315"},"id":"node/2268473329"},{"type":"Feature","geometry":{"type":"Point","coordinates":[121.271962,24.388732]},"properties":{"@id":"node/2268473334","ele":"3199.0","name":"雪山東峰","name:en":"Xueshan East Peak","name:zh":"雪山東峰","natural":"peak","ref":"百岳#75;八小巒-3","source":"NLSC"},"id":"node/2268473334"},{"type":"Feature","geometry":{"type":"Point","coordinates":[121.140723,24.359628]},"properties":{"@id":"node/2268473337","ele":"3509.1","name":"頭鷹山","name:en":"Touyingshan","name:zh":"頭鷹山","name:zh-Bopo":"ㄊㄡˊㄧㄥㄕㄢ","name:zh-Hans":"头鹰山","name:zh-Hant":"頭鷹山","name:zh-Latn-pinyin":"tóuyīngshān","natural":"peak","ref":"百岳#26;九峨-3","source":"NLSC","wikidata":"Q31595503"},"id":"node/2268473337"},{"type":"Feature","geometry":{"type":"Point","coordinates":[120.962518,23.57733]},"properties":{"@id":"node/2287592222","alt_name":"西郡大山","ele":"3277.6","name":"郡大山","name:en":"Jundashan","name:zh":"郡大山","name:zh-Bopo":"ㄐㄩㄣˋㄉㄚˋㄕㄢ","name:zh-Hans":"郡大山","name:zh-Hant":"郡大山","name:zh-Latn-pinyin":"jùndàshān","natural":"peak","ref":"百岳#61;八秀-7","source":"NLSC","wikidata":"Q31604565"},"id":"node/2287592222"},{"type":"Feature","geometry":{"type":"Point","coordinates":[121.343015,24.149233]},"properties":{"@id":"node/2297213046","ele":"3247.5","name":"屏風山","name:en":"Pingfengshan","name:zh":"屏風山","name:zh-Bopo":"ㄆㄧㄥˊㄈㄥㄕㄢ","name:zh-Hans":"屏风山","name:zh-Hant":"屏風山","name:zh-Latn-pinyin":"píngfēngshān","natural":"peak","ref":"百岳#65;九嶂-6","source":"NLSC","wikidata":"Q11043029","wikipedia":"zh:屏風山","wikipedia:zh":"屏風山"},"id":"node/2297213046"},{"type":"Feature","geometry":{"type":"Point","coordinates":[120.761381,22.627061]},"properties":{"@id":"node/2299246284","ele":"3089.1","name":"北大武山","name:en":"Beidawushan","name:pwn":"kavulungan","name:zh":"北大武山","name:zh-Bopo":"ㄅㄟˇㄉㄚˋㄨˇㄕㄢ","name:zh-Hans":"北大武山","name:zh-Hant":"北大武山","name:zh-Latn-pinyin":"běidàwǔshān","natural":"peak","ref":"百岳#90;五嶽-5","source":"NLSC","wikidata":"Q10902726"},"id":"node/2299246284"},{"type":"Feature","geometry":{"type":"Point","coordinates":[121.239574,23.72451]},"properties":{"@id":"node/2341560544","ele":"3006","name":"六順山","name:en":"Liushunshan","name:zh":"六順山","name:zh-Bopo":"ㄌㄧㄡˋㄕㄨㄣˋㄕㄢ","name:zh-Hans":"六顺山","name:zh-Hant":"六順山","name:zh-Latn-pinyin":"liùshùnshān","natural":"peak","ref":"百岳#99;九平-9","source":"NLSC","wikidata":"Q10893508","wikipedia":"zh:六順山","wikipedia:zh":"六順山"},"id":"node/2341560544"},{"type":"Feature","geometry":{"type":"Point","coordinates":[121.321218,24.449776]},"properties":{"@id":"node/2449034020","alt_name":"加留平山;Karuhei;Babo Karaheye","ele":"3132.5","name":"喀拉業山","name:en":"Kalayeshan","name:zh":"喀拉業山","name:zh-Bopo":"ㄎㄚㄌㄚㄧㄝˋㄕㄢ","name:zh-Hans":"喀拉业山","name:zh-Hant":"喀拉業山","name:zh-Latn-pinyin":"kālāyèshān","natural":"peak","ref":"百岳#84;六肩稜-2","source":"NLSC","wikidata":"Q10923376","wikipedia":"zh:喀拉業山"},"id":"node/2449034020"},{"type":"Feature","geometry":{"type":"Point","coordinates":[121.266114,23.872707]},"properties":{"@id":"node/2482523770","ele":"3066.5","name":"安東軍山","name:en":"Andongjunshan","name:zh":"安東軍山","name:zh-Bopo":"ㄢㄉㄨㄥㄐㄩㄣㄕㄢ","name:zh-Hans":"安东军山","name:zh-Hant":"安東軍山","name:zh-Latn-pinyin":"āndōngjūnshān","natural":"peak","ref":"百岳#94;十潤-9","source":"NLSC","wikidata":"Q10946897","wikipedia":"zh:安東軍山","wikipedia:zh":"安東軍山"},"id":"node/2482523770"},{"type":"Feature","geometry":{"type":"Point","coordinates":[121.115853,23.834533]},"properties":{"@id":"node/2482534740","ele":"3368.0","name":"卓社大山","name:en":"Zhuoshedashan","name:zh":"卓社大山","name:zh-Bopo":"ㄓㄨㄛˊㄕㄜˋㄉㄚˋㄕㄢ","name:zh-Hans":"卓社大山","name:zh-Hant":"卓社大山","name:zh-Latn-pinyin":"zhuóshèdàshān","natural":"peak","ref":"百岳#40;九峨-5","source":"NLSC","wikidata":"Q10906098","wikipedia":"zh:卓社大山","wikipedia:zh":"卓社大山"},"id":"node/2482534740"},{"type":"Feature","geometry":{"type":"Point","coordinates":[121.13896,23.876045]},"properties":{"@id":"node/2482534753","ele":"3281.8","name":"干卓萬山","name:en":"Ganzhuowanshan","name:zh":"干卓萬山","name:zh-Bopo":"ㄍㄢˋㄓㄨㄛˊㄨㄢˋㄕㄢ","name:zh-Hans":"干卓万山","name:zh-Hant":"干卓萬山","name:zh-Latn-pinyin":"gànzhuówànshān","natural":"peak","ref":"百岳#55;八瘦-4","source":"NLSC","wikidata":"Q11060564","wikipedia":"zh:干卓萬山"},"id":"node/2482534753"},{"type":"Feature","geometry":{"type":"Point","coordinates":[121.421001,24.079071]},"properties":{"@id":"node/2482534754","ele":"3282.3","name":"太魯閣大山","name:en":"Tailugedashan","name:zh":"太魯閣大山","name:zh-Bopo":"ㄊㄞˋㄌㄨˇㄍㄜˊㄉㄚˋㄕㄢ","name:zh-Hans":"太鲁阁大山","name:zh-Hant":"太魯閣大山","name:zh-Latn-pinyin":"tàilǔgédàshān","natural":"peak","ref":"百岳#56;十崇-9","source":"NLSC","wikidata":"Q10941864","wikipedia":"zh:太魯閣大山","wikipedia:zh":"太魯閣大山"},"id":"node/2482534754"},{"type":"Feature","geometry":{"type":"Point","coordinates":[120.876124,23.151635]},"properties":{"@id":"node/2482535952","ele":"3248.1","name":"小關山","name:en":"Xiaoguanshan","name:zh":"小關山","name:zh-Bopo":"ㄒㄧㄠˇㄍㄨㄢㄕㄢ","name:zh-Hans":"小关山","name:zh-Hant":"小關山","name:zh-Latn-pinyin":"xiǎoguānshān","natural":"peak","ref":"百岳#66;九峨-8","source":"NLSC","wikidata":"Q31603373"},"id":"node/2482535952"},{"type":"Feature","geometry":{"type":"Point","coordinates":[120.924938,23.429236]},"properties":{"@id":"node/2482536166","ele":"3380.8","name":"南玉山","name:en":"Nanyushan","name:zh":"南玉山","name:zh-Bopo":"ㄋㄢˊㄩˋㄕㄢ","name:zh-Hans":"南玉山","name:zh-Hant":"南玉山","name:zh-Latn-pinyin":"nányùshān","natural":"peak","ref":"百岳#38;十潤-4","source":"NLSC","wikidata":"Q10908701","wikipedia":"zh:南玉山","wikipedia:zh":"南玉山"},"id":"node/2482536166"},{"type":"Feature","geometry":{"type":"Point","coordinates":[121.057457,23.49685]},"properties":{"@id":"node/2482536203","alt_name":"馬霍拉斯山","ele":"3829.2","name":"秀姑巒山","name:en":"Xiuguluanshan","name:en1":"Xiuguluan Mountain","name:zh":"秀姑巒山","natural":"peak","ref":"百岳#6;五嶽-3","source":"NLSC","wikidata":"Q1778890","wikipedia":"zh:秀姑巒山","wikipedia:zh":"秀姑巒山"},"id":"node/2482536203"},{"type":"Feature","geometry":{"type":"Point","coordinates":[121.274865,23.907481]},"properties":{"@id":"node/2482547866","ele":"3106.5","name":"白石山","name:en":"Baishishan","name:zh":"白石山","name:zh-Bopo":"ㄅㄞˊㄕˊㄕㄢ","name:zh-Hans":"白石山","name:zh-Hant":"白石山","name:zh-Latn-pinyin":"báishíshān","natural":"peak","ref":"百岳#87;七峭-6","source":"NLSC","wikidata":"Q31599320"},"id":"node/2482547866"},{"type":"Feature","geometry":{"type":"Point","coordinates":[121.185509,23.851882]},"properties":{"@id":"node/2482548350","alt_name":"萬東山西峰","ele":"3257","name":"火山","name:en":"Huoshan","name:zh":"火山","name:zh-Bopo":"ㄏㄨㄛˇㄕㄢ","name:zh-Hans":"火山","name:zh-Hant":"火山","name:zh-Latn-pinyin":"huǒshān","natural":"peak","ref":"百岳#63;九偏-5","source":"NLSC","wikidata":"Q31612731"},"id":"node/2482548350"},{"type":"Feature","geometry":{"type":"Point","coordinates":[121.160209,23.862902]},"properties":{"@id":"node/2482548487","alt_name":"南干卓萬山","ele":"3239.3","name":"牧山","name:en":"Mushan","name:zh":"牧山","name:zh-Bopo":"ㄇㄨˋㄕㄢ","name:zh-Hans":"牧山","name:zh-Hant":"牧山","name:zh-Latn-pinyin":"mùshān","natural":"peak","ref":"百岳#68;六易-4","source":"NLSC","wikidata":"Q16692951","wikipedia":"zh:牧山","wikipedia:zh":"牧山"},"id":"node/2482548487"},{"type":"Feature","geometry":{"type":"Point","coordinates":[121.445634,24.124796]},"properties":{"@id":"node/2482548914","ele":"3070.6","name":"立霧主山","name:en":"Liwuzhushan","name:zh":"立霧主山","name:zh-Bopo":"ㄌㄧˋㄨˋㄓㄨˇㄕㄢ","name:zh-Hans":"立雾主山","name:zh-Hant":"立霧主山","name:zh-Latn-pinyin":"lìwùzhǔshān","natural":"peak","ref":"百岳#93;十巖-9","source":"NLSC","wikidata":"Q15898457","wikipedia":"zh:立霧主山","wikipedia:zh":"立霧主山"},"id":"node/2482548914"},{"type":"Feature","geometry":{"type":"Point","coordinates":[121.466535,24.099458]},"properties":{"@id":"node/2482548965","ele":"3102.1","name":"帕托魯山","name:en":"Patuolushan","name:zh":"帕托魯山","name:zh-Bopo":"ㄆㄚˋㄊㄨㄛㄌㄨˇㄕㄢ","name:zh-Hans":"帕托鲁山","name:zh-Hant":"帕托魯山","name:zh-Latn-pinyin":"pàtuōlǔshān","natural":"peak","ref":"百岳#89;十潤-8","source":"NLSC","wikidata":"Q31599097"},"id":"node/2482548965"},{"type":"Feature","geometry":{"type":"Point","coordinates":[121.388268,24.10471]},"properties":{"@id":"node/2482548966","alt_name":"苫原山","ele":"3104.9","name":"磐石山","name:en":"Panshishan","name:zh":"磐石山","name:zh-Bopo":"ㄆㄢˊㄕˊㄕㄢ","name:zh-Hans":"磐石山","name:zh-Hant":"磐石山","name:zh-Latn-pinyin":"pánshíshān","natural":"peak","ref":"百岳#88;九偏-9","source":"NLSC","wikidata":"Q31610800"},"id":"node/2482548966"},{"type":"Feature","geometry":{"type":"Point","coordinates":[121.417492,24.380164]},"properties":{"@id":"node/2482550727","alt_name":"夜珍加羅穗山","ele":"3139.9","name":"審馬陣山","name:en":"Shenmazhenshan","name:zh":"審馬陣山","name:zh-Bopo":"ㄕㄣˇㄇㄚˇㄓㄣˋㄕㄢ","name:zh-Hans":"审马阵山","name:zh-Hant":"審馬陣山","name:zh-Latn-pinyin":"shěnmǎzhènshān","natural":"peak","ref":"百岳#83;六肩稜-1","source":"NLSC","wikidata":"Q10955807"},"id":"node/2482550727"},{"type":"Feature","geometry":{"type":"Point","coordinates":[121.437256,24.38367]},"properties":{"@id":"node/2482550800","ele":"3534.2","name":"南湖北山","name:en":"Nanhubeishan","name:zh":"南湖北山","name:zh-Bopo":"ㄋㄢˊㄏㄨˊㄅㄟˇㄕㄢ","name:zh-Hans":"南湖北山","name:zh-Hant":"南湖北山","name:zh-Latn-pinyin":"nánhúběishān","natural":"peak","ref":"百岳#22;十崇-2","source":"NLSC","wikidata":"Q21652247","wikipedia":"zh:南湖北山","wikipedia:zh":"南湖北山"},"id":"node/2482550800"},{"type":"Feature","geometry":{"type":"Point","coordinates":[121.485638,24.348225]},"properties":{"@id":"node/2482550838","alt_name":"麻眉山","ele":"3211.0","name":"馬比杉山","name:en":"Mabishanshan","name:zh":"馬比杉山","name:zh-Bopo":"ㄇㄚˇㄅㄧˇㄕㄢㄕㄢ","name:zh-Hans":"马比杉山","name:zh-Hant":"馬比杉山","name:zh-Latn-pinyin":"mǎbǐshānshān","natural":"peak","ref":"百岳#73;九平-7","source":"NLSC","wikidata":"Q31608725"},"id":"node/2482550838"},{"type":"Feature","geometry":{"type":"Point","coordinates":[121.437829,24.342391]},"properties":{"@id":"node/2482550844","alt_name":"南湖南山","ele":"3448.2","name":"巴巴山","name:en":"Babashan","name:zh":"巴巴山","name:zh-Bopo":"ㄅㄚㄅㄚㄕㄢ","name:zh-Hans":"巴巴山","name:zh-Hant":"巴巴山","name:zh-Latn-pinyin":"bābāshān","natural":"peak","ref":"百岳#32;八小巒-1","source":"NLSC","wikidata":"Q11058923","wikipedia":"zh:巴巴山","wikipedia:zh":"巴巴山"},"id":"node/2482550844"},{"type":"Feature","geometry":{"type":"Point","coordinates":[121.389858,24.290478]},"properties":{"@id":"node/2482550947","ele":"3157.1","name":"甘薯峰","name:en":"Ganshufeng","name:zh":"甘薯峰","name:zh-Bopo":"ㄍㄢㄕㄨˇㄈㄥ","name:zh-Hans":"甘薯峰","name:zh-Hant":"甘薯峰","name:zh-Latn-pinyin":"gānshǔfēng","natural":"peak","ref":"百岳#81;八小巒-6","source":"NLSC","wikidata":"Q31608655"},"id":"node/2482550947"},{"type":"Feature","geometry":{"type":"Point","coordinates":[121.351663,24.244372]},"properties":{"@id":"node/2482550973","ele":"3271.2","name":"鈴鳴山","name:en":"Lingmingshan","name:zh":"鈴鳴山","name:zh-Bopo":"ㄌㄧㄥˊㄇㄧㄥˊㄕㄢ","name:zh-Hans":"铃鸣山","name:zh-Hant":"鈴鳴山","name:zh-Latn-pinyin":"língmíngshān","natural":"peak","ref":"百岳#60;八秀-6","source":"NLSC","wikidata":"Q31601428"},"id":"node/2482550973"},{"type":"Feature","geometry":{"type":"Point","coordinates":[121.175115,24.38194]},"properties":{"@id":"node/2482551619","ele":"3308.9","name":"火石山","name:en":"Huoshishan","name:zh":"火石山","natural":"peak","ref":"百岳#51;八銳-5","source":"NLSC","wikidata":"Q16627904","wikipedia":"zh:火石山","wikipedia:zh":"火石山"},"id":"node/2482551619"},{"type":"Feature","geometry":{"type":"Point","coordinates":[120.911297,23.185528]},"properties":{"@id":"node/2482556810","ele":"3173.2","name":"海諾南山","name:en":"Hainuonanshan","name:zh":"海諾南山","name:zh-Bopo":"ㄏㄞˇㄋㄨㄛˋㄋㄢˊㄕㄢ","name:zh-Hans":"海诺南山","name:zh-Hant":"海諾南山","name:zh-Latn-pinyin":"hǎinuònánshān","natural":"peak","ref":"百岳#78;十潤-6","source":"NLSC","wikidata":"Q31603740"},"id":"node/2482556810"},{"type":"Feature","geometry":{"type":"Point","coordinates":[120.963353,23.439098]},"properties":{"@id":"node/2482557258","alt_name":"玉山東小南山","ele":"3707.9","name":"東小南山","name:en":"Dongxiaonanshan","name:en1":"Yushan Southeast Peak","name:zh":"東小南山","natural":"peak","ref":"百岳#9;九平-1","source":"NLSC","wikidata":"Q16929008","wikipedia":"zh:東小南山"},"id":"node/2482557258"},{"type":"Feature","geometry":{"type":"Point","coordinates":[120.988618,23.450631]},"properties":{"@id":"node/2482557259","ele":"2981.4","name":"鹿山","name:en":"Lushan","name:zh":"鹿山","name:zh-Bopo":"ㄌㄨˋㄕㄢ","name:zh-Hans":"鹿山","name:zh-Hant":"鹿山","name:zh-Latn-pinyin":"lùshān","natural":"peak","ref":"百岳#100;六肩稜-6","source":"NLSC","wikidata":"Q38242288"},"id":"node/2482557259"},{"type":"Feature","geometry":{"type":"Point","coordinates":[121.117173,23.521573]},"properties":{"@id":"node/2482563184","alt_name":"塔比拉山","ele":"3560.9","name":"馬利加南山","name:en":"Malijiananshan","name:zh":"馬利加南山","name:zh-Bopo":"ㄇㄚˇㄌㄧˋㄐㄧㄚㄋㄢˊㄕㄢ","name:zh-Hans":"马利加南山","name:zh-Hant":"馬利加南山","name:zh-Latn-pinyin":"mǎlìjiānánshān","natural":"peak","ref":"百岳#21;十巖-2","source":"NLSC","wikidata":"Q31623746"},"id":"node/2482563184"},{"type":"Feature","geometry":{"type":"Point","coordinates":[121.21344,23.600401]},"properties":{"@id":"node/2482563185","ele":"3329.0","name":"丹大山","name:en":"Dandashan","name:zh":"丹大山","name:zh-Bopo":"ㄉㄢㄉㄚˋㄕㄢ","name:zh-Hans":"丹大山","name:zh-Hant":"丹大山","name:zh-Latn-pinyin":"dāndàshān","natural":"peak","ref":"百岳#48;九嶂-3","source":"NLSC","wikidata":"Q10877283","wikipedia":"zh:丹大山","wikipedia:zh":"丹大山"},"id":"node/2482563185"},{"type":"Feature","geometry":{"type":"Point","coordinates":[121.009602,23.490197]},"properties":{"@id":"node/2482563411","ele":"3331.2","name":"八通關山","name:en":"Batongguanshan","name:zh":"八通關山","natural":"peak","ref":"百岳#46;八銳-3","source":"NLSC"},"id":"node/2482563411"},{"type":"Feature","geometry":{"type":"Point","coordinates":[121.057149,23.591011]},"properties":{"@id":"node/2482564149","ele":"3242.8","name":"無雙山基點峰","name:en":"Wushuangshan","natural":"peak","ref":"百岳#71;九嶂-7","source":"NLSC","wikidata":"Q31623981"},"id":"node/2482564149"},{"type":"Feature","geometry":{"type":"Point","coordinates":[121.450853,24.365594]},"properties":{"@id":"node/2486357959","alt_name":"南湖東山","ele":"3639","name":"南湖大山東峰","name:en":"Nanhudashan East Peak","name:en1":"Nanhu Mountain East Peak","name:en2":"Nanhushan East Peak","name:zh":"南湖大山東峰","natural":"peak","ref":"百岳#14;十巖-1","wikidata":"Q10908542"},"id":"node/2486357959"},{"type":"Feature","geometry":{"type":"Point","coordinates":[121.192609,23.463211]},"properties":{"@id":"node/2999412926","ele":"3276","name":"喀西帕南山","name:en":"Kaxipananshan","name:zh":"喀西帕南山","name:zh-Bopo":"ㄎㄚㄒㄧㄆㄚˋㄋㄢˊㄕㄢ","name:zh-Hans":"喀西帕南山","name:zh-Hant":"喀西帕南山","name:zh-Latn-pinyin":"kāxīpànánshān","natural":"peak","ref":"百岳#58;九偏-4","wikidata":"Q31602210"},"id":"node/2999412926"},{"type":"Feature","geometry":{"type":"Point","coordinates":[120.933729,23.471871]},"properties":{"@id":"node/3355904061","ele":"3518","name":"玉山西峰","name:en":"Yushan West Peak","name:ja":"玉山西峰","name:zh":"玉山西峰","natural":"peak","ref":"百岳#25;十翠-4","wikidata":"Q16058568","wikipedia":"zh:玉山西峰","wikipedia:zh":"玉山西峰"},"id":"node/3355904061"},{"type":"Feature","geometry":{"type":"Point","coordinates":[120.957274,23.469987]},"properties":{"@id":"node/3428095932","alt_name:en":"Jade Mountain;Mt. Morrison","ele":"3952","isolation":"1815","name":"玉山","name:bnn":"Tongku Saveq","name:en":"Yushan","name:ja":"玉山","name:pwn":"kanasi","name:tsu":"Patungkuonʉ","name:xnb":"Tanungu'incu","name:zh":"玉山","natural":"peak","prominence":"3952","ref":"百岳#1;五嶽-1","source":"NLSC","source:prominence":"Highest peak of Taiwan","wikidata":"Q500275","wikipedia":"zh:玉山"},"id":"node/3428095932"},{"type":"Feature","geometry":{"type":"Point","coordinates":[121.038477,23.473977]},"properties":{"@id":"node/4315785196","ele":"3643","name":"大水窟山","name:en":"Dashuikushan","name:en1":"Dashuiku Mountain","name:zh":"大水窟山","natural":"peak","ref":"百岳#13;十潤-1","wikidata":"Q31596034"},"id":"node/4315785196"},{"type":"Feature","geometry":{"type":"Point","coordinates":[121.081567,23.64865]},"properties":{"@id":"node/4380267221","ele":"3479","name":"東巒大山","name:en":"Dongluandashan","name:zh":"東巒大山","name:zh-Bopo":"ㄉㄨㄥㄌㄨㄢˊㄉㄚˋㄕㄢ","name:zh-Hans":"东峦大山","name:zh-Hant":"東巒大山","name:zh-Latn-pinyin":"dōngluándàshān","natural":"peak","ref":"百岳#30;八秀-3","wikidata":"Q31594843"},"id":"node/4380267221"},{"type":"Feature","geometry":{"type":"Point","coordinates":[121.196043,23.579278]},"properties":{"@id":"node/4380572864","ele":"3275","name":"內嶺爾山","name:en":"Neilingershan","name:zh":"內嶺爾山","name:zh-Bopo":"ㄋㄟˋㄌㄧㄥˇㄦˇㄕㄢ","name:zh-Hans":"内岭尔山","name:zh-Hant":"內嶺爾山","name:zh-Latn-pinyin":"nèilǐngěrshān","natural":"peak","ref":"百岳#59;十崇-10","wikidata":"Q31606970"},"id":"node/4380572864"},{"type":"Feature","geometry":{"type":"Point","coordinates":[121.153261,23.586717]},"properties":{"@id":"node/4380572865","ele":"3252","name":"義西請馬至山","name:en":"Yixiqingmazhishan","name:zh":"義西請馬至山","name:zh-Bopo":"ㄧˋㄒㄧㄑㄧㄥˇㄇㄚˇㄓˋㄕㄢ","name:zh-Hans":"义西请马至山","name:zh-Hant":"義西請馬至山","name:zh-Latn-pinyin":"yìxīqǐngmǎzhìshān","natural":"peak","ref":"百岳#67;七峭-4","wikidata":"Q31623832"},"id":"node/4380572865"},{"type":"Feature","geometry":{"type":"Point","coordinates":[121.273102,23.939083]},"properties":{"@id":"node/4380698727","ele":"3077","name":"光頭山","name:en":"Guangtoushan","natural":"peak","source":"NLSC"},"id":"node/4380698727"},{"type":"Feature","geometry":{"type":"Point","coordinates":[121.013203,23.432728]},"properties":{"@id":"node/4380698728","ele":"3208","name":"達芬尖山","name:en":"Dafenjianshan","name:zh":"達芬尖山","name:zh-Bopo":"ㄉㄚˊㄈㄣㄐㄧㄢㄕㄢ","name:zh-Hans":"达芬尖山","name:zh-Hant":"達芬尖山","name:zh-Latn-pinyin":"dáfēnjiānshān","natural":"peak","ref":"百岳#74;三尖-3","wikidata":"Q15927259","wikipedia":"zh:達芬尖山","wikipedia:zh":"達芬尖山"},"id":"node/4380698728"},{"type":"Feature","geometry":{"type":"Point","coordinates":[121.257999,24.457742]},"properties":{"@id":"node/4705115484","ele":"3489.8","name":"大霸尖山","name:en":"Dabajianshan","name:zh":"大霸尖山","name:zh-Bopo":"ㄉㄚˋㄅㄚˋㄐㄧㄢㄕㄢ","name:zh-Hans":"大霸尖山","name:zh-Hant":"大霸尖山","name:zh-Latn-pinyin":"dàbàjiānshān","natural":"peak","ref":"百岳#28;三尖-2","source":"NLSC","wikidata":"Q5207405","wikipedia":"zh:大霸尖山"},"id":"node/4705115484"},{"type":"Feature","geometry":{"type":"Point","coordinates":[121.01058,23.345886]},"properties":{"@id":"node/5582288238","ele":"3356","name":"南雙頭山","name:en":"Nanshuangtoushan","name:zh":"南雙頭山","name:zh-Bopo":"ㄋㄢˊㄕㄨㄤㄊㄡˊㄕㄢ","name:zh-Hans":"南双头山","name:zh-Hant":"南雙頭山","name:zh-Latn-pinyin":"nánshuāngtóushān","natural":"peak","ref":"百岳#42;九峨-6","wikidata":"Q31599778"},"id":"node/5582288238"},{"type":"Feature","geometry":{"type":"Point","coordinates":[120.975793,23.353789]},"properties":{"@id":"node/5582288243","ele":"3562","name":"雲峰","name:en":"Yunfeng","name:zh":"雲峰","name:zh-Bopo":"ㄩㄣˊㄈㄥ","name:zh-Hans":"云峰","name:zh-Hant":"雲峰","name:zh-Latn-pinyin":"yúnfēng","natural":"peak","ref":"百岳#19;九峨-1","source":"NLSC","wikidata":"Q16929439"},"id":"node/5582288243"},{"type":"Feature","geometry":{"type":"Point","coordinates":[121.026812,23.406011]},"properties":{"@id":"node/5582288244","alt_name":"達芬山","ele":"3068.8","name":"塔芬山","name:en":"Dafenshan","name:zh":"塔芬山","name:zh-Bopo":"ㄉㄚˊㄈㄣㄕㄢ","name:zh-Hans":"达芬山","name:zh-Hant":"塔芬山","name:zh-Latn-pinyin":"dáfēnshān","natural":"peak","ref":"百岳#92;八銳-8","source":"NLSC"},"id":"node/5582288244"},{"type":"Feature","geometry":{"type":"Point","coordinates":[121.067108,23.520401]},"properties":{"@id":"node/5582288246","alt_name":"烏拉孟山","ele":"3776.3","name":"馬博拉斯山","name:bnn":"Ulamong","name:en":"Mabolasishan","name:en1":"Mabolasi Mountain","name:zh":"馬博拉斯山","natural":"peak","ref":"百岳#7;十峻-3","source":"NLSC","wikidata":"Q15946852","wikipedia":"zh:馬博拉斯山","wikipedia:zh":"馬博拉斯山"},"id":"node/5582288246"},{"type":"Feature","geometry":{"type":"Point","coordinates":[121.032493,23.548379]},"properties":{"@id":"node/5582288247","alt_name":"駒盆山","ele":"3030","name":"盆駒山","name:en":"Penjushan","name:zh":"盆駒山","name:zh-Bopo":"ㄆㄣˊㄐㄩㄕㄢ","name:zh-Hans":"盆驹山","name:zh-Hant":"盆駒山","name:zh-Latn-pinyin":"pénjūshān","natural":"peak","ref":"百岳#98;六肩稜-4","wikidata":"Q15897986","wikipedia":"zh:駒盆山","wikipedia:zh":"駒盆山"},"id":"node/5582288247"},{"type":"Feature","geometry":{"type":"Point","coordinates":[121.078713,23.233122]},"properties":{"@id":"node/5582288251","ele":"3021","name":"布拉克桑山","name:en":"Bulakesangshan","name:zh":"布拉克桑山","name:zh-Bopo":"ㄅㄨˋㄌㄚㄎㄜˋㄙㄤㄕㄢ","name:zh-Hans":"布拉克桑山","name:zh-Hant":"布拉克桑山","name:zh-Latn-pinyin":"bùlākèsāngshān","natural":"peak","ref":"百岳#97;九嶂-9","source":"NLSC","wikidata":"Q11059604","wikipedia":"zh:布拉克桑山","wikipedia:zh":"布拉克桑山"},"id":"node/5582288251"},{"type":"Feature","geometry":{"type":"Point","coordinates":[121.17397,23.483735]},"properties":{"@id":"node/5582288252","alt_name":"柏南山","ele":"3442.9","name":"馬西山","name:en":"Maxishan","name:zh":"馬西山","name:zh-Bopo":"ㄇㄚˇㄒㄧㄕㄢ","name:zh-Hans":"马西山","name:zh-Hant":"馬西山","name:zh-Latn-pinyin":"mǎxīshān","natural":"peak","ref":"百岳#33;十崇-5","source":"NLSC","wikidata":"Q15897147","wikipedia":"zh:馬西山"},"id":"node/5582288252"},{"type":"Feature","geometry":{"type":"Point","coordinates":[120.99808,23.391358]},"properties":{"@id":"node/5591528506","alt_name":"馬江子山","ele":"3279.46","name":"轆轆山","name:en":"Lulushan","name:zh":"轆轆山","name:zh-Bopo":"ㄌㄨˋㄌㄨˋㄕㄢ","name:zh-Hans":"辘辘山","name:zh-Hant":"轆轆山","name:zh-Latn-pinyin":"lùlùshān","natural":"peak","ref":"百岳#57;八銳-7","wikidata":"Q15896894","wikipedia":"zh:轆轆山","wikipedia:zh":"轆轆山"},"id":"node/5591528506"},{"type":"Feature","geometry":{"type":"Point","coordinates":[121.281113,24.135667]},"properties":{"@id":"node/10839210243","ele":"3419","name":"合歡山東峰","name:en":"Hehuanshan East Peak","name:en1":"Mount Hehuan East Peak","name:zh":"合歡山東峰","natural":"peak","old_operator":"行政院農委會林務局東勢林區管理處","operator":"農業部林業及自然保育署臺中分署","ref":"百岳#35;九峨-4","wikidata":"Q31603629"},"id":"node/10839210243"},{"type":"Feature","geometry":{"type":"Point","coordinates":[121.248151,24.359968]},"properties":{"@id":"node/12031256402","ele":"3346","name":"志佳陽大山","name:en":"Zhijiayangdashan","name:zh":"志佳陽大山","natural":"peak"},"id":"node/12031256402"}]}