{
  "type": "FeatureCollection",
  "generator": "overpass-turbo",
  "copyright": "The data included in this document is from www.openstreetmap.org. The data is made available under ODbL.",
  "timestamp": "2026-07-07T09:47:39Z",
  "features": [
    {
      "type": "Feature",
      "properties": {
        "@id": "way/114444173",
        "building": "yes",
        "man_made": "lighthouse",
        "name": "蘭嶼燈塔",
        "name:en": "Lanyu Lighthouse",
        "name:zh": "蘭嶼燈塔",
        "seamark:information": "Obscured by high land of island.",
        "seamark:light:character": "Fl",
        "seamark:light:colour": "white",
        "seamark:light:group": "4",
        "seamark:light:height": "216",
        "seamark:light:period": "24",
        "seamark:light:range": "26",
        "seamark:light:reference": "F 4725",
        "seamark:light:sequence": "0.3+(3.7)+0.3+(3.7)+0.3+(3.7)+0.3+(11.7)",
        "seamark:name": "Lan Yu",
        "seamark:type": "light_major",
        "source": "US NGA Pub. 112. 2009-11-12.",
        "wikidata": "Q17036349",
        "wikipedia": "zh:蘭嶼燈塔"
      },
      "geometry": {
        "type": "Polygon",
        "coordinates": [
          [
            [
              121.5029856,
              22.0809083
            ],
            [
              121.5029912,
              22.0808692
            ],
            [
              121.5029961,
              22.0808345
            ],
            [
              121.5030811,
              22.0808448
            ],
            [
              121.5030706,
              22.0809187
            ],
            [
              121.503026,
              22.0809132
            ],
            [
              121.5029856,
              22.0809083
            ]
          ]
        ]
      },
      "id": "way/114444173"
    },
    {
      "type": "Feature",
      "properties": {
        "@id": "way/310320724",
        "building": "yes",
        "ele": "56.4",
        "man_made": "lighthouse",
        "name": "鵝鑾鼻燈塔",
        "name:en": "Eluanbi Lighthouse",
        "name:sv": "Eluanbi fyr",
        "name:zh": "鵝鑾鼻燈塔",
        "seamark:type": "light_major",
        "source": "US NGA Pub. 112. 2009-11-12.",
        "wikidata": "Q5367908",
        "wikipedia": "zh:鵝鑾鼻燈塔",
        "wikipedia:en": "Eluanbi Lighthouse",
        "wikipedia:zh": "鵝鑾鼻燈塔"
      },
      "geometry": {
        "type": "Polygon",
        "coordinates": [
          [
            [
              120.8526933,
              21.9022428
            ],
            [
              120.852689,
              21.902253
            ],
            [
              120.8526813,
              21.9022612
            ],
            [
              120.8526716,
              21.9022665
            ],
            [
              120.8526606,
              21.9022686
            ],
            [
              120.8526495,
              21.9022675
            ],
            [
              120.8526393,
              21.9022631
            ],
            [
              120.8526311,
              21.902256
            ],
            [
              120.8526258,
              21.9022469
            ],
            [
              120.8526238,
              21.9022367
            ],
            [
              120.8526255,
              21.9022259
            ],
            [
              120.852631,
              21.9022162
            ],
            [
              120.8526397,
              21.9022088
            ],
            [
              120.8526505,
              21.9022044
            ],
            [
              120.8526622,
              21.9022036
            ],
            [
              120.8526736,
              21.9022065
            ],
            [
              120.8526833,
              21.9022126
            ],
            [
              120.8526903,
              21.9022214
            ],
            [
              120.8526937,
              21.9022319
            ],
            [
              120.8526933,
              21.9022428
            ]
          ]
        ]
      },
      "id": "way/310320724"
    },
    {
      "type": "Feature",
      "properties": {
        "@id": "way/368549147",
        "alt_name": "萬人堆鼻燈塔",
        "building": "yes",
        "man_made": "lighthouse",
        "name": "基隆燈塔",
        "name:en": "Keelung Lighthouse",
        "name:zh": "基隆燈塔",
        "seamark:light:1:character": "Mo",
        "seamark:light:1:colour": "white",
        "seamark:light:1:group": "A",
        "seamark:light:1:period": "7",
        "seamark:light:1:sector_end": "347",
        "seamark:light:1:sector_start": "151",
        "seamark:light:1:sequence": "0.5+(1.5),1+(4)",
        "seamark:light:reference": "F 4674",
        "seamark:name": "基隆燈塔(Wan-Jentui Pi.)",
        "seamark:type": "light_major",
        "source": "US NGA Pub. 112. 2009-11-12.",
        "wikidata": "Q101096640"
      },
      "geometry": {
        "type": "Polygon",
        "coordinates": [
          [
            [
              121.747656,
              25.1555407
            ],
            [
              121.7473982,
              25.1552344
            ],
            [
              121.7476035,
              25.1550928
            ],
            [
              121.7477247,
              25.1552414
            ],
            [
              121.7478613,
              25.1553991
            ],
            [
              121.747656,
              25.1555407
            ]
          ]
        ]
      },
      "id": "way/368549147"
    },
    {
      "type": "Feature",
      "properties": {
        "@id": "way/528425376",
        "man_made": "lighthouse",
        "name": "彭佳嶼燈塔",
        "name:en": "Pengjia Lighthouse",
        "name:nan": "Phênn-ka-sū Teng-thah",
        "name:nan-Hant": "彭佳嶼燈塔",
        "name:nan-Latn-pehoeji": "Phênn-ka-sū Teng-thah",
        "name:nan-Latn-tailo": "Phênn-ka-sū Ting-thah",
        "name:zh": "彭佳嶼燈塔",
        "wikidata": "Q11069686",
        "wikipedia": "zh:彭佳嶼燈塔"
      },
      "geometry": {
        "type": "Polygon",
        "coordinates": [
          [
            [
              122.0806524,
              25.6299479
            ],
            [
              122.0806553,
              25.6299588
            ],
            [
              122.0806541,
              25.62997
            ],
            [
              122.0806492,
              25.6299804
            ],
            [
              122.0806409,
              25.6299888
            ],
            [
              122.0806291,
              25.6299949
            ],
            [
              122.0806157,
              25.6299969
            ],
            [
              122.0806023,
              25.6299948
            ],
            [
              122.0805905,
              25.6299887
            ],
            [
              122.0805817,
              25.6299793
            ],
            [
              122.0805769,
              25.6299678
            ],
            [
              122.0805768,
              25.6299555
            ],
            [
              122.0805812,
              25.6299439
            ],
            [
              122.0805898,
              25.6299344
            ],
            [
              122.0806004,
              25.6299284
            ],
            [
              122.0806125,
              25.6299257
            ],
            [
              122.080625,
              25.6299266
            ],
            [
              122.0806365,
              25.6299309
            ],
            [
              122.080646,
              25.6299382
            ],
            [
              122.0806524,
              25.6299479
            ]
          ]
        ]
      },
      "id": "way/528425376"
    },
    {
      "type": "Feature",
      "properties": {
        "@id": "way/531151254",
        "building": "yes",
        "man_made": "lighthouse",
        "name": "綠島燈塔"
      },
      "geometry": {
        "type": "Polygon",
        "coordinates": [
          [
            [
              121.4663007,
              22.6765175
            ],
            [
              121.4663034,
              22.6765093
            ],
            [
              121.4663088,
              22.6765024
            ],
            [
              121.4663164,
              22.6764975
            ],
            [
              121.4663253,
              22.6764951
            ],
            [
              121.4663345,
              22.6764955
            ],
            [
              121.4663431,
              22.6764986
            ],
            [
              121.4663501,
              22.6765042
            ],
            [
              121.4663548,
              22.6765115
            ],
            [
              121.4663567,
              22.6765199
            ],
            [
              121.4663555,
              22.6765283
            ],
            [
              121.4663514,
              22.676536
            ],
            [
              121.4663448,
              22.676542
            ],
            [
              121.4663365,
              22.6765457
            ],
            [
              121.4663273,
              22.6765467
            ],
            [
              121.4663182,
              22.6765449
            ],
            [
              121.4663103,
              22.6765405
            ],
            [
              121.4663044,
              22.676534
            ],
            [
              121.4663011,
              22.676526
            ],
            [
              121.4663007,
              22.6765175
            ]
          ]
        ]
      },
      "id": "way/531151254"
    },
    {
      "type": "Feature",
      "properties": {
        "@id": "way/680610765",
        "building": "yes",
        "man_made": "lighthouse",
        "name": "問道堂"
      },
      "geometry": {
        "type": "Polygon",
        "coordinates": [
          [
            [
              120.448032,
              22.7537685
            ],
            [
              120.4480618,
              22.7537479
            ],
            [
              120.4480972,
              22.7537369
            ],
            [
              120.4481364,
              22.7537372
            ],
            [
              120.4481733,
              22.7537495
            ],
            [
              120.4482037,
              22.7537723
            ],
            [
              120.4482242,
              22.7538032
            ],
            [
              120.4482323,
              22.7538386
            ],
            [
              120.4482273,
              22.7538745
            ],
            [
              120.4482096,
              22.7539068
            ],
            [
              120.4481813,
              22.7539318
            ],
            [
              120.4481455,
              22.7539467
            ],
            [
              120.4481065,
              22.7539499
            ],
            [
              120.4480702,
              22.7539416
            ],
            [
              120.4480387,
              22.7539232
            ],
            [
              120.4480151,
              22.7538965
            ],
            [
              120.4480019,
              22.7538643
            ],
            [
              120.4480004,
              22.7538299
            ],
            [
              120.4480108,
              22.7537969
            ],
            [
              120.448032,
              22.7537685
            ]
          ]
        ]
      },
      "id": "way/680610765"
    },
    {
      "type": "Feature",
      "properties": {
        "@id": "way/699477200",
        "attraction": "lighthouse",
        "building": "yes",
        "man_made": "lighthouse",
        "name": "奇萊鼻燈塔",
        "reference": "US NGA Pub. 112. 2023; https://hl.twport.com.tw/chinese/cp.aspx",
        "seamark:light:character": "Iso",
        "seamark:light:colour": "white",
        "seamark:light:height": "38",
        "seamark:light:period": "6",
        "seamark:light:range": "16.6",
        "seamark:light:reference": "NGA 13728",
        "seamark:light:visibility": "part_obscured",
        "seamark:name": "奇萊鼻燈塔",
        "seamark:type": "light_major",
        "wikidata": "Q5119929",
        "wikipedia": "zh:奇萊鼻燈塔",
        "wikipedia:zh": "奇萊鼻燈塔"
      },
      "geometry": {
        "type": "Polygon",
        "coordinates": [
          [
            [
              121.6438453,
              24.0159353
            ],
            [
              121.6438613,
              24.0159391
            ],
            [
              121.6438719,
              24.0159508
            ],
            [
              121.643873,
              24.0159659
            ],
            [
              121.6438641,
              24.0159788
            ],
            [
              121.6438486,
              24.0159843
            ],
            [
              121.6438325,
              24.0159806
            ],
            [
              121.6438219,
              24.0159689
            ],
            [
              121.6438215,
              24.0159627
            ],
            [
              121.6438209,
              24.0159537
            ],
            [
              121.6438298,
              24.0159409
            ],
            [
              121.6438453,
              24.0159353
            ]
          ]
        ]
      },
      "id": "way/699477200"
    },
    {
      "type": "Feature",
      "properties": {
        "@id": "way/708442772",
        "building": "service",
        "historic": "building",
        "man_made": "lighthouse",
        "name": "白沙岬燈塔",
        "name:en": "Baisha Cape Lighthouse",
        "name:id": "Mercusuar Titik Pasir Putih",
        "name:ja": "白沙岬灯台",
        "name:ko": "바이샤지아 등대",
        "name:th": "ประภาคารแหลมไป๋ซา",
        "name:vi": "Hải đăng Baishajia",
        "seamark:light:1:character": "Al.Fl",
        "seamark:light:1:colour": "white;red",
        "seamark:light:1:height": "37",
        "seamark:light:1:period": "20",
        "seamark:light:1:range": "26",
        "seamark:light:1:sector_end": "235",
        "seamark:light:1:sector_start": "55",
        "seamark:light:1:sequence": "[W.]0.2+(9.8),[R.]0.2+(9.8)",
        "seamark:light:reference": "F 4662",
        "seamark:name": "Pai-sha-Chia",
        "seamark:type": "light_major",
        "source": "US NGA Pub. 112. 2009-11-12.",
        "start_date": "1901-01",
        "wikidata": "Q15914308",
        "wikipedia": "zh:白沙岬燈塔",
        "wikipedia:zh": "白沙岬燈塔"
      },
      "geometry": {
        "type": "Polygon",
        "coordinates": [
          [
            [
              121.0763191,
              25.0413281
            ],
            [
              121.076311,
              25.0413357
            ],
            [
              121.0763007,
              25.0413405
            ],
            [
              121.0762892,
              25.0413421
            ],
            [
              121.0762778,
              25.0413403
            ],
            [
              121.0762676,
              25.0413352
            ],
            [
              121.0762596,
              25.0413272
            ],
            [
              121.0762549,
              25.0413173
            ],
            [
              121.0762541,
              25.0413066
            ],
            [
              121.0762572,
              25.0412961
            ],
            [
              121.0762639,
              25.0412872
            ],
            [
              121.0762735,
              25.0412808
            ],
            [
              121.0762849,
              25.0412776
            ],
            [
              121.0762968,
              25.041278
            ],
            [
              121.0763079,
              25.0412818
            ],
            [
              121.076317,
              25.0412888
            ],
            [
              121.0763229,
              25.0412979
            ],
            [
              121.0763254,
              25.0413081
            ],
            [
              121.0763241,
              25.0413186
            ],
            [
              121.0763191,
              25.0413281
            ]
          ]
        ]
      },
      "id": "way/708442772"
    },
    {
      "type": "Feature",
      "properties": {
        "@id": "way/765770921",
        "building": "service",
        "man_made": "lighthouse",
        "name": "球子山燈塔",
        "wikidata": "Q17060311",
        "wikipedia": "zh:球子山燈塔"
      },
      "geometry": {
        "type": "Polygon",
        "coordinates": [
          [
            [
              121.7438404,
              25.1462483
            ],
            [
              121.7438244,
              25.1462137
            ],
            [
              121.7438616,
              25.1461996
            ],
            [
              121.7438776,
              25.1462342
            ],
            [
              121.7438688,
              25.1462375
            ],
            [
              121.7438404,
              25.1462483
            ]
          ]
        ]
      },
      "id": "way/765770921"
    },
    {
      "type": "Feature",
      "properties": {
        "@id": "way/881020401",
        "building": "yes",
        "man_made": "lighthouse",
        "name": "目斗嶼燈塔",
        "name:zh": "目斗嶼燈塔",
        "name:zh-Hans": "目斗屿灯塔",
        "name:zh-Hant": "目斗嶼燈塔",
        "operator": "交通部航港局"
      },
      "geometry": {
        "type": "Polygon",
        "coordinates": [
          [
            [
              119.600453,
              23.7865601
            ],
            [
              119.6003016,
              23.7862126
            ],
            [
              119.6001969,
              23.7862487
            ],
            [
              119.6001483,
              23.7861314
            ],
            [
              119.6004192,
              23.7860349
            ],
            [
              119.6004252,
              23.7860127
            ],
            [
              119.6005724,
              23.7859953
            ],
            [
              119.6005808,
              23.7860446
            ],
            [
              119.600492,
              23.7860564
            ],
            [
              119.6005254,
              23.7861314
            ],
            [
              119.6005072,
              23.786139
            ],
            [
              119.6005603,
              23.7862754
            ],
            [
              119.6006462,
              23.786243
            ],
            [
              119.6006741,
              23.7863097
            ],
            [
              119.6005914,
              23.7863412
            ],
            [
              119.6006558,
              23.7864855
            ],
            [
              119.600453,
              23.7865601
            ]
          ]
        ]
      },
      "id": "way/881020401"
    },
    {
      "type": "Feature",
      "properties": {
        "@id": "way/954872181",
        "building": "service",
        "man_made": "lighthouse",
        "name": "七美嶼燈塔",
        "name:en": "Qimei Lighthouse",
        "name:zh": "七美嶼燈塔",
        "seamark:light:1:character": "Fl",
        "seamark:light:1:colour": "white",
        "seamark:light:1:group": "2",
        "seamark:light:1:height": "41",
        "seamark:light:1:period": "10",
        "seamark:light:1:range": "11",
        "seamark:light:1:sector_end": "158",
        "seamark:light:1:sector_start": "228",
        "seamark:light:1:sequence": "0.5+(1),0.5+(8)",
        "seamark:light:reference": "F 4642",
        "seamark:name": "Chi-mei Yu",
        "seamark:type": "light_minor",
        "source": "US NGA Pub. 112. 2009-11-12.",
        "wikidata": "Q10864721",
        "wikipedia": "zh:七美嶼燈塔"
      },
      "geometry": {
        "type": "Polygon",
        "coordinates": [
          [
            [
              119.4281119,
              23.1901921
            ],
            [
              119.4280984,
              23.1901476
            ],
            [
              119.428171,
              23.1901289
            ],
            [
              119.4281845,
              23.1901735
            ],
            [
              119.4281513,
              23.190182
            ],
            [
              119.4281119,
              23.1901921
            ]
          ]
        ]
      },
      "id": "way/954872181"
    },
    {
      "type": "Feature",
      "properties": {
        "@id": "way/1138106436",
        "addr:city": "連江縣",
        "addr:country": "TW",
        "addr:district": "莒光鄉",
        "addr:full": "連江縣莒光鄉福正村56之1號",
        "addr:housenumber": "56之1",
        "addr:place": "福正村",
        "addr:province": "福建省",
        "alt_name": "東犬燈塔;東莒燈塔",
        "building": "yes",
        "man_made": "lighthouse",
        "name": "東莒島燈塔",
        "name:en": "Dongquan Lighthouse",
        "name:nan": "Tong-khián teng-thah",
        "name:nan-Hant": "東犬燈塔",
        "name:nan-Latn-pehoeji": "Tong-khián teng-thah",
        "name:nan-Latn-tailo": "Tong-khián ting-thah",
        "name:zh": "東莒島燈塔",
        "operator": "交通部航港局",
        "seamark:type": "light_major",
        "tourism": "attraction",
        "wikidata": "Q17499085",
        "wikipedia": "zh:東莒島燈塔"
      },
      "geometry": {
        "type": "Polygon",
        "coordinates": [
          [
            [
              119.985758,
              25.9676622
            ],
            [
              119.985768,
              25.9676652
            ],
            [
              119.9857763,
              25.967671
            ],
            [
              119.9857819,
              25.967679
            ],
            [
              119.9857842,
              25.9676883
            ],
            [
              119.9857829,
              25.9676977
            ],
            [
              119.9857781,
              25.9677061
            ],
            [
              119.9857705,
              25.9677126
            ],
            [
              119.9857609,
              25.9677165
            ],
            [
              119.9857513,
              25.9677172
            ],
            [
              119.9857459,
              25.9677168
            ],
            [
              119.9857419,
              25.9677153
            ],
            [
              119.9857337,
              25.9677109
            ],
            [
              119.9857273,
              25.9677044
            ],
            [
              119.9857236,
              25.9676964
            ],
            [
              119.9857227,
              25.9676878
            ],
            [
              119.9857248,
              25.9676794
            ],
            [
              119.9857296,
              25.967672
            ],
            [
              119.9857376,
              25.9676658
            ],
            [
              119.9857475,
              25.9676624
            ],
            [
              119.985758,
              25.9676622
            ]
          ]
        ]
      },
      "id": "way/1138106436"
    },
    {
      "type": "Feature",
      "properties": {
        "@id": "way/1290373202",
        "building": "yes",
        "man_made": "lighthouse",
        "name": "三仙台燈塔",
        "seamark:type": "light_major"
      },
      "geometry": {
        "type": "Polygon",
        "coordinates": [
          [
            [
              121.4217271,
              23.1262957
            ],
            [
              121.4217237,
              23.1262914
            ],
            [
              121.4217246,
              23.1262862
            ],
            [
              121.4217292,
              23.126283
            ],
            [
              121.421735,
              23.1262838
            ],
            [
              121.4217384,
              23.1262881
            ],
            [
              121.4217375,
              23.1262934
            ],
            [
              121.4217329,
              23.1262966
            ],
            [
              121.4217271,
              23.1262957
            ]
          ]
        ]
      },
      "id": "way/1290373202"
    },
    {
      "type": "Feature",
      "properties": {
        "@id": "way/1500145869",
        "man_made": "lighthouse",
        "name": "富貴角燈塔",
        "name:en": "Fu-kuei Chiao Lighthouse",
        "name:zh": "富貴角燈塔",
        "seamark:fog_signal:category": "horn",
        "seamark:fog_signal:group": "1",
        "seamark:fog_signal:period": "30",
        "seamark:fog_signal:sequence": "3.0+(27.0)",
        "seamark:light:1:colour": "white",
        "seamark:light:1:range": "27",
        "seamark:light:1:sector_end": "272",
        "seamark:light:1:sector_start": "69",
        "seamark:light:character": "Fl",
        "seamark:light:group": "2",
        "seamark:light:height": "31",
        "seamark:light:information": "Visible 069°-272°.Horn: 1 bl. ev. 30s.",
        "seamark:light:period": "15",
        "seamark:light:reference": "P 4670",
        "seamark:name": "Fu-kuei Chiao",
        "seamark:type": "light_major",
        "source": "US NGA Pub. 112. 2009-11-12.",
        "wikidata": "Q10954780",
        "wikipedia": "zh:富貴角燈塔",
        "wikipedia:zh": "富貴角燈塔"
      },
      "geometry": {
        "type": "Polygon",
        "coordinates": [
          [
            [
              121.5367054,
              25.298557
            ],
            [
              121.5366906,
              25.298537
            ],
            [
              121.5366957,
              25.2985133
            ],
            [
              121.5367178,
              25.2984999
            ],
            [
              121.5367439,
              25.2985045
            ],
            [
              121.5367588,
              25.2985245
            ],
            [
              121.5367537,
              25.2985482
            ],
            [
              121.5367316,
              25.2985616
            ],
            [
              121.5367054,
              25.298557
            ]
          ]
        ]
      },
      "id": "way/1500145869"
    },
    {
      "type": "Feature",
      "properties": {
        "@id": "way/1515050579",
        "height": "40",
        "man_made": "lighthouse",
        "name": "東吉嶼燈塔",
        "name:en": "Dongjiyu Lighthouse",
        "name:zh": "東吉嶼燈塔",
        "name:zh-Hans": "东吉屿灯塔",
        "name:zh-Hant": "東吉嶼燈塔",
        "seamark:light:character": "LFl",
        "seamark:light:colour": "white",
        "seamark:light:height": "67.1",
        "seamark:light:period": "12",
        "seamark:light:range": "21.5"
      },
      "geometry": {
        "type": "Polygon",
        "coordinates": [
          [
            [
              119.6694667,
              23.261396
            ],
            [
              119.6694662,
              23.2613859
            ],
            [
              119.6694704,
              23.2613752
            ],
            [
              119.6694788,
              23.2613668
            ],
            [
              119.6694901,
              23.261362
            ],
            [
              119.6695025,
              23.2613615
            ],
            [
              119.6695141,
              23.2613654
            ],
            [
              119.6695233,
              23.2613731
            ],
            [
              119.6695285,
              23.2613835
            ],
            [
              119.66953,
              23.2613933
            ],
            [
              119.6695247,
              23.2614056
            ],
            [
              119.6695163,
              23.2614139
            ],
            [
              119.6695051,
              23.2614187
            ],
            [
              119.6694927,
              23.2614192
            ],
            [
              119.669481,
              23.2614153
            ],
            [
              119.6694719,
              23.2614076
            ],
            [
              119.6694667,
              23.261396
            ]
          ]
        ]
      },
      "id": "way/1515050579"
    },
    {
      "type": "Feature",
      "properties": {
        "@id": "node/476662470",
        "ele": "88.7m(自高潮面起算)",
        "man_made": "lighthouse",
        "name": "琉球嶼燈塔",
        "name:en": "Liuchiu Yu Lighthouse",
        "name:zh": "琉球嶼燈塔",
        "name:zh-Hans": "琉球屿灯塔",
        "name:zh-Hant": "琉球嶼燈塔",
        "seamark:information": "Visible 226°-217°",
        "seamark:light:character": "LFl",
        "seamark:light:colour": "white",
        "seamark:light:height": "89",
        "seamark:light:period": "8",
        "seamark:light:range": "14",
        "seamark:light:reference": "F 4612",
        "seamark:light:sequence": "2+(6)",
        "seamark:light:visibility": "part_obscured",
        "seamark:name": "Liu-ch'iu Hsu",
        "seamark:type": "light_minor",
        "source": "US NGA Pub. 112. 2009-11-12.",
        "wikidata": "Q15927776",
        "wikipedia": "zh:琉球嶼燈塔"
      },
      "geometry": {
        "type": "Point",
        "coordinates": [
          120.3665068,
          22.3288382
        ]
      },
      "id": "node/476662470"
    },
    {
      "type": "Feature",
      "properties": {
        "@id": "node/761954108",
        "alt_name": "漁翁島燈塔",
        "alt_name:en": "Yuwengdao Lighthouse",
        "alt_name:zh": "漁翁島燈塔",
        "alt_name:zh-Hans": "渔翁岛灯塔",
        "alt_name:zh-Hant": "漁翁島燈塔",
        "man_made": "lighthouse",
        "name": "西嶼燈塔",
        "name:en": "Xiyu Lighthouse",
        "name:zh": "西嶼燈塔",
        "name:zh-Hans": "西屿灯塔",
        "name:zh-Hant": "西嶼燈塔",
        "seamark:fog_signal:category": "horn",
        "seamark:fog_signal:group": "1",
        "seamark:fog_signal:period": "30",
        "seamark:fog_signal:range": "3",
        "seamark:fog_signal:sequence": "3+(27)",
        "seamark:information": "Partially obscured by islands",
        "seamark:light:character": "LFl",
        "seamark:light:colour": "white",
        "seamark:light:exhibition": "night",
        "seamark:light:group": "2",
        "seamark:light:height": "60.7",
        "seamark:light:period": "30",
        "seamark:light:range": "25.1",
        "seamark:light:reference": "F 4652",
        "seamark:light:sequence": "1+(7)+1+(21)",
        "seamark:name": "漁翁島燈塔",
        "seamark:type": "light_major",
        "source": "US NGA Pub. 112. 2009-11-12.",
        "wikidata": "Q15903722",
        "wikipedia": "zh:漁翁島燈塔"
      },
      "geometry": {
        "type": "Point",
        "coordinates": [
          119.4690827,
          23.5625548
        ]
      },
      "id": "node/761954108"
    },
    {
      "type": "Feature",
      "properties": {
        "@id": "node/861015560",
        "man_made": "lighthouse",
        "name": "鼻頭角燈塔",
        "seamark:light:1:character": "Oc",
        "seamark:light:1:colour": "white",
        "seamark:light:1:height": "65.3",
        "seamark:light:1:period": "11",
        "seamark:light:1:range": "16.6",
        "seamark:light:1:sector_end": "325",
        "seamark:light:1:sector_start": "90",
        "seamark:light:1:sequence": "6+(5)",
        "seamark:light:reference": "P 4693",
        "seamark:type": "light_major",
        "source": "https://navy.mnd.gov.tw/Files/Others/24-72(民)v.1.pdf"
      },
      "geometry": {
        "type": "Point",
        "coordinates": [
          121.9235278,
          25.12875
        ]
      },
      "id": "node/861015560"
    },
    {
      "type": "Feature",
      "properties": {
        "@id": "node/940950211",
        "man_made": "lighthouse",
        "name": "綠島燈塔",
        "seamark:light:character": "Fl",
        "seamark:light:colour": "white",
        "seamark:light:group": "2",
        "seamark:light:height": "48",
        "seamark:light:period": "20",
        "seamark:light:range": "26",
        "seamark:light:reference": "F 4724",
        "seamark:name": "Huo-shao Tao",
        "seamark:type": "light_major",
        "source": "US NGA Pub. 112. 2009-11-12."
      },
      "geometry": {
        "type": "Point",
        "coordinates": [
          121.4663471,
          22.6765213
        ]
      },
      "id": "node/940950211"
    },
    {
      "type": "Feature",
      "properties": {
        "@id": "node/1169738162",
        "man_made": "lighthouse",
        "name": "南堤頭燈塔",
        "seamark:information": "Auxiliary light F.R. 8m 5M on same structure.",
        "seamark:light:character": "Fl",
        "seamark:light:colour": "red",
        "seamark:light:height": "21",
        "seamark:light:period": "2",
        "seamark:light:range": "14",
        "seamark:light:reference": "P 4660.6",
        "seamark:light:sequence": "0.1+(1.9)",
        "seamark:radar_transponder:category": "racon",
        "seamark:radar_transponder:group": "F",
        "seamark:type": "light_minor",
        "source": "US NGA Pub. 112. 2009-11-12."
      },
      "geometry": {
        "type": "Point",
        "coordinates": [
          120.5006111,
          24.2901667
        ]
      },
      "id": "node/1169738162"
    },
    {
      "type": "Feature",
      "properties": {
        "@id": "node/1169738473",
        "man_made": "lighthouse",
        "name": "南內堤燈塔",
        "seamark:light:character": "Fl",
        "seamark:light:colour": "red",
        "seamark:light:height": "13",
        "seamark:light:period": "3",
        "seamark:light:range": "10",
        "seamark:light:reference": "F 4660.8",
        "seamark:light:sequence": "0.5+(2.5)",
        "seamark:type": "light_minor",
        "source": "US NGA Pub. 112. 2009-11-12."
      },
      "geometry": {
        "type": "Point",
        "coordinates": [
          120.5118075,
          24.2851223
        ]
      },
      "id": "node/1169738473"
    },
    {
      "type": "Feature",
      "properties": {
        "@id": "node/1271039115",
        "man_made": "lighthouse",
        "name": "蘇澳燈塔",
        "seamark:light:1:character": "Fl",
        "seamark:light:1:colour": "white",
        "seamark:light:1:height": "38",
        "seamark:light:1:period": "7",
        "seamark:light:1:range": "16",
        "seamark:light:1:sector_end": "210",
        "seamark:light:1:sector_start": "164",
        "seamark:light:1:sequence": "1+(6)",
        "seamark:light:2:character": "Fl",
        "seamark:light:2:colour": "red",
        "seamark:light:2:height": "38",
        "seamark:light:2:period": "7",
        "seamark:light:2:range": "12",
        "seamark:light:2:sector_end": "240",
        "seamark:light:2:sector_start": "210",
        "seamark:light:2:sequence": "1+(6)",
        "seamark:light:3:character": "Fl",
        "seamark:light:3:colour": "white",
        "seamark:light:3:height": "38",
        "seamark:light:3:period": "7",
        "seamark:light:3:range": "16",
        "seamark:light:3:sector_end": "268",
        "seamark:light:3:sector_start": "240",
        "seamark:light:3:sequence": "1+(6)",
        "seamark:light:4:character": "Fl",
        "seamark:light:4:colour": "red",
        "seamark:light:4:height": "38",
        "seamark:light:4:period": "7",
        "seamark:light:4:range": "12",
        "seamark:light:4:sector_end": "303",
        "seamark:light:4:sector_start": "268",
        "seamark:light:4:sequence": "1+(6)",
        "seamark:light:5:character": "Fl",
        "seamark:light:5:colour": "white",
        "seamark:light:5:height": "38",
        "seamark:light:5:period": "7",
        "seamark:light:5:range": "16",
        "seamark:light:5:sector_end": "73",
        "seamark:light:5:sector_start": "303",
        "seamark:light:5:sequence": "1+(6)",
        "seamark:light:reference": "P 4700",
        "seamark:name": "Pei Chiao",
        "seamark:radar_transponder:category": "racon",
        "seamark:radar_transponder:group": "G",
        "seamark:radar_transponder:period": "75",
        "seamark:type": "light_major",
        "source": "https://navy.mnd.gov.tw/Files/Others/24-72(民)v.1.pdf"
      },
      "geometry": {
        "type": "Point",
        "coordinates": [
          121.8847778,
          24.5998889
        ]
      },
      "id": "node/1271039115"
    },
    {
      "type": "Feature",
      "properties": {
        "@id": "node/1271039314",
        "man_made": "lighthouse",
        "name": "花蓮港紅燈塔",
        "official_name": "東防波堤突堤末端燈桿",
        "seamark:light:character": "Fl",
        "seamark:light:colour": "red",
        "seamark:light:height": "24",
        "seamark:light:period": "3",
        "seamark:light:range": "12",
        "seamark:light:reference": "NGA 13748",
        "seamark:light:sequence": "0.5+(2.5)",
        "seamark:type": "light_minor",
        "source": "https://hl.twport.com.tw/chinese/cp.aspx",
        "tourism": "attraction"
      },
      "geometry": {
        "type": "Point",
        "coordinates": [
          121.6280056,
          23.9696345
        ]
      },
      "id": "node/1271039314"
    },
    {
      "type": "Feature",
      "properties": {
        "@id": "node/1271039565",
        "man_made": "lighthouse",
        "name": "燈塔 (綠)",
        "seamark:light:character": "Iso",
        "seamark:light:colour": "green",
        "seamark:light:exhibition": "night",
        "seamark:light:height": "14.6",
        "seamark:light:period": "4",
        "seamark:light:range": "15.6",
        "seamark:light:reference": "P 4620",
        "seamark:light:sequence": "2+(2)",
        "seamark:name": "高雄港北防波堤燈杆",
        "seamark:radar_transponder:category": "racon",
        "seamark:radar_transponder:group": "G",
        "seamark:radar_transponder:range": "15",
        "seamark:type": "light_major",
        "source": "https://navy.mnd.gov.tw/Files/Others/21-41(民).pdf"
      },
      "geometry": {
        "type": "Point",
        "coordinates": [
          120.2568333,
          22.6209167
        ]
      },
      "id": "node/1271039565"
    },
    {
      "type": "Feature",
      "properties": {
        "@id": "node/1271039576",
        "man_made": "lighthouse",
        "name": "燈塔 (紅)",
        "seamark:information": "Radar reflector.",
        "seamark:light:character": "Fl",
        "seamark:light:colour": "red",
        "seamark:light:height": "14.7",
        "seamark:light:period": "6",
        "seamark:light:range": "11.6",
        "seamark:light:reference": "P 4621",
        "seamark:light:sequence": "0.6+(5.4)",
        "seamark:radar_reflector": "yes",
        "seamark:type": "light_minor",
        "source": "https://navy.mnd.gov.tw/Files/Others/21-41(民).pdf"
      },
      "geometry": {
        "type": "Point",
        "coordinates": [
          120.2562778,
          22.6177222
        ]
      },
      "id": "node/1271039576"
    },
    {
      "type": "Feature",
      "properties": {
        "@id": "node/1271039688",
        "man_made": "lighthouse",
        "name": "安平燈塔",
        "name:en": "Anping Lighthouse",
        "name:zh": "安平燈塔",
        "seamark:information": "Visible 305°-145°.",
        "seamark:light:character": "Fl",
        "seamark:light:colour": "white",
        "seamark:light:exhibition": "night",
        "seamark:light:group": "3",
        "seamark:light:height": "22.6",
        "seamark:light:period": "15",
        "seamark:light:range": "15.2",
        "seamark:light:reference": "F 4628",
        "seamark:light:sequence": "1.5+(1.5)+1.5+(1.5)+1.5+(7.5)",
        "seamark:light:visibility": "part_obscured",
        "seamark:name": "安平燈塔",
        "seamark:type": "light_minor",
        "source": "Bing",
        "website": "https://www.motcmpb.gov.tw/MOTCMPBWeb/wSite/ct?xItem=3482&ctNode=260&mp=1&idPath=220_226_260",
        "wikidata": "Q33128843"
      },
      "geometry": {
        "type": "Point",
        "coordinates": [
          120.1470566,
          22.9908343
        ]
      },
      "id": "node/1271039688"
    },
    {
      "type": "Feature",
      "properties": {
        "@id": "node/1271039793",
        "description": "是台灣的極西點",
        "man_made": "lighthouse",
        "name": "國聖港燈塔",
        "seamark:information": "Fl.W. 4s, Fl.R. 4s marks end of peninsula 1.3 miles NNE.",
        "seamark:light:character": "Fl",
        "seamark:light:colour": "white",
        "seamark:light:group": "2",
        "seamark:light:height": "34",
        "seamark:light:period": "15",
        "seamark:light:range": "16",
        "seamark:light:reference": "F 4630",
        "seamark:name": "國聖港燈塔",
        "seamark:type": "light_major",
        "source": "US NGA Pub. 112. 2009-11-12.",
        "wikidata": "Q101096639"
      },
      "geometry": {
        "type": "Point",
        "coordinates": [
          120.036,
          23.1007222
        ]
      },
      "id": "node/1271039793"
    },
    {
      "type": "Feature",
      "properties": {
        "@id": "node/1271039795",
        "man_made": "lighthouse",
        "name": "塭港堆燈塔",
        "seamark:light:character": "Fl",
        "seamark:light:colour": "white",
        "seamark:light:height": "58.3",
        "seamark:light:period": "4",
        "seamark:light:range": "11",
        "seamark:light:reference": "F 4658.4",
        "seamark:name": "Wai-san-ting Chou",
        "seamark:radar_reflector": "yes",
        "seamark:type": "light_minor",
        "source": "https://www.cga.gov.tw/GipOpen/wSite/public/Attachment/f1470204242375.pdf"
      },
      "geometry": {
        "type": "Point",
        "coordinates": [
          120.0409474,
          23.4458132
        ]
      },
      "id": "node/1271039795"
    },
    {
      "type": "Feature",
      "properties": {
        "@id": "node/1271039808",
        "man_made": "lighthouse",
        "name": "芳苑燈塔",
        "seamark:light:character": "Iso",
        "seamark:light:colour": "white",
        "seamark:light:height": "36",
        "seamark:light:period": "10",
        "seamark:light:range": "17",
        "seamark:light:reference": "F 4659.5",
        "seamark:name": "Fong-Yuan",
        "seamark:radar_transponder:category": "racon",
        "seamark:radar_transponder:group": "Q",
        "seamark:radar_transponder:period": "75",
        "seamark:type": "light_major",
        "source": "US NGA Pub. 112. 2009-11-12.",
        "wikidata": "Q15927547",
        "wikipedia": "zh:芳苑燈塔",
        "wikipedia:zh": "芳苑燈塔"
      },
      "geometry": {
        "type": "Point",
        "coordinates": [
          120.3241315,
          23.9711566
        ]
      },
      "id": "node/1271039808"
    },
    {
      "type": "Feature",
      "properties": {
        "@id": "node/1271039839",
        "man_made": "lighthouse",
        "name": "目斗嶼燈塔",
        "name:en": "Mudouyu Lighthouse",
        "name:zh": "目斗嶼燈塔",
        "name:zh-Hans": "目斗屿灯塔",
        "name:zh-Hant": "目斗嶼燈塔",
        "seamark:light:character": "Fl",
        "seamark:light:colour": "white",
        "seamark:light:height": "49",
        "seamark:light:period": "20",
        "seamark:light:range": "27",
        "seamark:light:reference": "P 4658",
        "seamark:name": "Mu-t'ou Hsu",
        "seamark:type": "light_major",
        "source": "US NGA Pub. 112. 2009-11-12.",
        "wikidata": "Q15920024",
        "wikipedia": "zh:目斗嶼燈塔"
      },
      "geometry": {
        "type": "Point",
        "coordinates": [
          119.6004247,
          23.78632
        ]
      },
      "id": "node/1271039839"
    },
    {
      "type": "Feature",
      "properties": {
        "@id": "node/1271039902",
        "man_made": "lighthouse",
        "name": "浮塭燈桿",
        "seamark:light:character": "Fl",
        "seamark:light:colour": "white",
        "seamark:light:height": "13.7",
        "seamark:light:period": "4",
        "seamark:light:range": "9",
        "seamark:light:reference": "P 4651",
        "seamark:light:sequence": "0.5+(3.5)",
        "seamark:name": "Fou-Wen",
        "seamark:type": "light_minor",
        "source": "US NGA Pub. 112. 2009-11-12."
      },
      "geometry": {
        "type": "Point",
        "coordinates": [
          119.5243333,
          23.5398333
        ]
      },
      "id": "node/1271039902"
    },
    {
      "type": "Feature",
      "properties": {
        "@id": "node/1271039921",
        "man_made": "lighthouse",
        "name": "查母嶼燈塔",
        "name:zh": "查母嶼燈塔",
        "name:zh-Hans": "查母屿灯塔",
        "name:zh-Hant": "查母嶼燈塔",
        "seamark:light:character": "Fl",
        "seamark:light:colour": "white",
        "seamark:light:height": "25",
        "seamark:light:period": "6",
        "seamark:light:range": "9",
        "seamark:light:reference": "P 4650",
        "seamark:light:sequence": "0.4+(5.6)",
        "seamark:name": "Ch'a-mou Hsu",
        "seamark:radar_reflector": "yes",
        "seamark:type": "light_minor",
        "source": "US NGA Pub. 112. 2009-11-12."
      },
      "geometry": {
        "type": "Point",
        "coordinates": [
          119.7251383,
          23.5353077
        ]
      },
      "id": "node/1271039921"
    },
    {
      "type": "Feature",
      "properties": {
        "@id": "node/1271039933",
        "man_made": "lighthouse",
        "name": "臺中港燈塔",
        "seamark:light:character": "Fl",
        "seamark:light:colour": "white",
        "seamark:light:group": "3",
        "seamark:light:height": "62",
        "seamark:light:period": "30",
        "seamark:light:range": "27",
        "seamark:light:reference": "P 4660.15",
        "seamark:name": "Taichung Kan",
        "seamark:type": "light_major",
        "source": "US NGA Pub. 112. 2009-11-12.",
        "wikidata": "Q109685045"
      },
      "geometry": {
        "type": "Point",
        "coordinates": [
          120.5229956,
          24.28799
        ]
      },
      "id": "node/1271039933"
    },
    {
      "type": "Feature",
      "properties": {
        "@id": "node/1271039934",
        "man_made": "lighthouse",
        "name": "北堤頭燈塔",
        "seamark:light:character": "Fl",
        "seamark:light:colour": "green",
        "seamark:light:height": "21.9",
        "seamark:light:period": "4",
        "seamark:light:range": "17.5",
        "seamark:light:reference": "P 4660.4",
        "seamark:light:sequence": "0.8+(3.2)",
        "seamark:name": "Taichung",
        "seamark:radar_transponder:category": "racon",
        "seamark:radar_transponder:group": "M",
        "seamark:type": "light_major",
        "source": "US NGA Pub. 112. 2009-11-12."
      },
      "geometry": {
        "type": "Point",
        "coordinates": [
          120.4865,
          24.2996944
        ]
      },
      "id": "node/1271039934"
    },
    {
      "type": "Feature",
      "properties": {
        "@id": "node/1271039936",
        "man_made": "lighthouse",
        "name": "北防波堤進港航道扇形指向燈",
        "name_1": "北防波堤進港航道扇形指向燈",
        "seamark:information": "G. 232°48´-237°12´, W.-",
        "seamark:light:1:character": "F",
        "seamark:light:1:colour": "green",
        "seamark:light:1:height": "13",
        "seamark:light:1:range": "11",
        "seamark:light:1:sector_end": "237.2",
        "seamark:light:1:sector_start": "232.8",
        "seamark:light:2:character": "F",
        "seamark:light:2:colour": "white",
        "seamark:light:2:height": "13",
        "seamark:light:2:range": "14",
        "seamark:light:3:character": "F",
        "seamark:light:3:colour": "red",
        "seamark:light:3:height": "13",
        "seamark:light:3:range": "11",
        "seamark:light:reference": "F 4660.45",
        "seamark:type": "light_minor",
        "source": "US NGA Pub. 112. 2009-11-12."
      },
      "geometry": {
        "type": "Point",
        "coordinates": [
          120.4983412,
          24.294876
        ]
      },
      "id": "node/1271039936"
    },
    {
      "type": "Feature",
      "properties": {
        "@id": "node/1271039937",
        "man_made": "lighthouse",
        "name": "主航道扇形指向燈暨前導標",
        "seamark:information": "White light visible on range line only.",
        "seamark:light:1:character": "F",
        "seamark:light:1:colour": "white",
        "seamark:light:1:height": "45",
        "seamark:light:1:range": "17",
        "seamark:light:2:character": "F",
        "seamark:light:2:colour": "red",
        "seamark:light:2:height": "45",
        "seamark:light:2:range": "17",
        "seamark:light:3:character": "F",
        "seamark:light:3:colour": "green",
        "seamark:light:3:height": "45",
        "seamark:light:3:range": "17",
        "seamark:light:reference": "F 4660.94",
        "seamark:type": "light_minor",
        "source": "US NGA Pub. 112. 2009-11-12."
      },
      "geometry": {
        "type": "Point",
        "coordinates": [
          120.523675,
          24.2826142
        ]
      },
      "id": "node/1271039937"
    },
    {
      "type": "Feature",
      "properties": {
        "@id": "node/1271039944",
        "man_made": "lighthouse",
        "name": "淺水船渠西連續壁綠色燈杆",
        "seamark:light:character": "Fl",
        "seamark:light:colour": "green",
        "seamark:light:height": "13",
        "seamark:light:period": "3",
        "seamark:light:range": "12",
        "seamark:light:reference": "F 4660.7",
        "seamark:type": "light_minor",
        "source": "US NGA Pub. 112. 2009-11-12."
      },
      "geometry": {
        "type": "Point",
        "coordinates": [
          120.5144898,
          24.2884598
        ]
      },
      "id": "node/1271039944"
    },
    {
      "type": "Feature",
      "properties": {
        "@id": "node/1271039946",
        "man_made": "lighthouse",
        "name": "淺水船渠東連續壁紅色燈杆",
        "seamark:light:character": "Fl",
        "seamark:light:colour": "white",
        "seamark:light:height": "8",
        "seamark:light:period": "5",
        "seamark:light:range": "10",
        "seamark:light:reference": "F 4660.92",
        "seamark:light:sequence": "0.5+(4.5)",
        "seamark:type": "light_minor",
        "source": "US NGA Pub. 112. 2009-11-12."
      },
      "geometry": {
        "type": "Point",
        "coordinates": [
          120.514945,
          24.288218
        ]
      },
      "id": "node/1271039946"
    },
    {
      "type": "Feature",
      "properties": {
        "@id": "node/1271039954",
        "man_made": "lighthouse",
        "name": "北內堤燈塔",
        "seamark:light:character": "Fl",
        "seamark:light:colour": "green",
        "seamark:light:period": "4",
        "seamark:type": "light_minor",
        "source": "US NGA Pub. 112. 2009-11-12."
      },
      "geometry": {
        "type": "Point",
        "coordinates": [
          120.5135459,
          24.2885145
        ]
      },
      "id": "node/1271039954"
    },
    {
      "type": "Feature",
      "properties": {
        "@id": "node/1271039971",
        "man_made": "lighthouse",
        "name": "第五組後導標",
        "seamark:light:category": "upper",
        "seamark:light:character": "F",
        "seamark:light:colour": "green",
        "seamark:light:height": "43",
        "seamark:light:range": "9",
        "seamark:light:reference": "F 4660.676",
        "seamark:type": "light_minor",
        "source": "US NGA Pub. 112. 2009-11-12."
      },
      "geometry": {
        "type": "Point",
        "coordinates": [
          120.5211446,
          24.2944097
        ]
      },
      "id": "node/1271039971"
    },
    {
      "type": "Feature",
      "properties": {
        "@id": "node/1271039990",
        "man_made": "lighthouse",
        "name": "第二組前導標",
        "seamark:light:category": "lower",
        "seamark:light:character": "F",
        "seamark:light:colour": "green",
        "seamark:type": "light_minor",
        "source": "US NGA Pub. 112. 2009-11-12."
      },
      "geometry": {
        "type": "Point",
        "coordinates": [
          120.4835561,
          24.2361434
        ]
      },
      "id": "node/1271039990"
    },
    {
      "type": "Feature",
      "properties": {
        "@id": "node/1271039994",
        "man_made": "lighthouse",
        "name": "第二組後導標",
        "seamark:light:category": "upper",
        "seamark:light:character": "F",
        "seamark:light:colour": "green",
        "seamark:type": "light_minor",
        "source": "US NGA Pub. 112. 2009-11-12."
      },
      "geometry": {
        "type": "Point",
        "coordinates": [
          120.4826519,
          24.2354916
        ]
      },
      "id": "node/1271039994"
    },
    {
      "type": "Feature",
      "properties": {
        "@id": "node/1294405437",
        "man_made": "lighthouse",
        "name": "主航道後導標",
        "seamark:light:category": "rear",
        "seamark:light:character": "Fl",
        "seamark:light:colour": "white",
        "seamark:light:height": "70",
        "seamark:light:range": "10",
        "seamark:light:reference": "F 4660.941",
        "seamark:type": "light_minor",
        "source": "US NGA Pub. 112. 2009-11-12."
      },
      "geometry": {
        "type": "Point",
        "coordinates": [
          120.5308492,
          24.279625
        ]
      },
      "id": "node/1294405437"
    },
    {
      "type": "Feature",
      "properties": {
        "@id": "node/2317210398",
        "man_made": "lighthouse",
        "name": "西洞尾燈塔",
        "name:yue-Hans": "西洞尾灯塔",
        "name:zh": "西洞尾燈塔",
        "name:zh-Hant": "西洞尾燈塔"
      },
      "geometry": {
        "type": "Point",
        "coordinates": [
          119.4924174,
          23.3935075
        ]
      },
      "id": "node/2317210398"
    },
    {
      "type": "Feature",
      "properties": {
        "@id": "node/2341676054",
        "alt_name": "基隆嶼燈塔",
        "ele": "189.3",
        "height": "12.3",
        "man_made": "lighthouse",
        "name": "基隆島燈塔",
        "seamark:light:character": "Fl",
        "seamark:light:colour": "white",
        "seamark:light:height": "190",
        "seamark:light:period": "5",
        "seamark:light:range": "12.8",
        "seamark:light:sequence": "0.5+(4.5)",
        "seamark:type": "light_minor",
        "start_date": "1980",
        "wikidata": "Q109606380"
      },
      "geometry": {
        "type": "Point",
        "coordinates": [
          121.786973,
          25.1927399
        ]
      },
      "id": "node/2341676054"
    },
    {
      "type": "Feature",
      "properties": {
        "@id": "node/2614541813",
        "man_made": "lighthouse",
        "name": "海墘岩燈桿"
      },
      "geometry": {
        "type": "Point",
        "coordinates": [
          119.5403877,
          23.5803587
        ]
      },
      "id": "node/2614541813"
    },
    {
      "type": "Feature",
      "properties": {
        "@id": "node/2614544526",
        "man_made": "lighthouse",
        "name": "花嶼燈塔",
        "name:zh": "花嶼燈塔",
        "name:zh-Hans": "花屿灯塔",
        "name:zh-Hant": "花嶼燈塔"
      },
      "geometry": {
        "type": "Point",
        "coordinates": [
          119.3164311,
          23.4026519
        ]
      },
      "id": "node/2614544526"
    },
    {
      "type": "Feature",
      "properties": {
        "@id": "node/2614560544",
        "man_made": "lighthouse",
        "name": "高美燈塔(停用)"
      },
      "geometry": {
        "type": "Point",
        "coordinates": [
          120.5511361,
          24.3126305
        ]
      },
      "id": "node/2614560544"
    },
    {
      "type": "Feature",
      "properties": {
        "@id": "node/3250130923",
        "alt_name": "旗津燈塔",
        "alt_name:en": "Cijin Lighthouse",
        "alt_name:nan": "Kî-tin Teng-thah",
        "alt_name:nan-Hant": "旗津燈塔",
        "alt_name:nan-Latn-pehoeji": "Kî-tin Teng-thah",
        "alt_name:nan-Latn-tailo": "Kî-tin Ting-thah",
        "alt_name:zh": "旗津燈塔",
        "man_made": "lighthouse",
        "name": "高雄燈塔",
        "name:en": "Kaohsiung Lighthouse",
        "name:nan": "Ko-hiông Teng-thah",
        "name:nan-Hant": "高雄燈塔",
        "name:nan-Latn-pehoeji": "Ko-hiông Teng-thah",
        "name:nan-Latn-tailo": "Ko-hiông Ting-thah",
        "name:zh": "高雄燈塔",
        "name:zh-Hans": "高雄灯塔",
        "name:zh-Hant": "高雄燈塔",
        "seamark:information": "Traffic signals. Signal station.",
        "seamark:landmark:height": "50",
        "seamark:light:1:character": "Fl",
        "seamark:light:1:colour": "white",
        "seamark:light:1:exhibition": "night",
        "seamark:light:1:group": "4",
        "seamark:light:1:height": "58.2",
        "seamark:light:1:period": "30",
        "seamark:light:1:range": "25.2",
        "seamark:light:1:sector_end": "158",
        "seamark:light:1:sector_start": "320",
        "seamark:light:1:sequence": "0.4+(4.6)+0.4+(4.6)+0.4+(4.6)+0.4+(14.6)",
        "seamark:light:1:visibility": "part_obscured",
        "seamark:light:reference": "P 4618",
        "seamark:name": "Cijin",
        "seamark:national_name": "高雄燈塔",
        "seamark:type": "light_minor",
        "source": "https://navy.mnd.gov.tw/Files/Others/21-41(民).pdf",
        "tourism": "attraction",
        "wikidata": "Q3847130",
        "wikipedia": "zh:高雄燈塔"
      },
      "geometry": {
        "type": "Point",
        "coordinates": [
          120.2649722,
          22.6151667
        ]
      },
      "id": "node/3250130923"
    },
    {
      "type": "Feature",
      "properties": {
        "@id": "node/3605023719",
        "man_made": "lighthouse",
        "name": "日月潭土亭仔燈塔"
      },
      "geometry": {
        "type": "Point",
        "coordinates": [
          120.9228302,
          23.8546883
        ]
      },
      "id": "node/3605023719"
    },
    {
      "type": "Feature",
      "properties": {
        "@id": "node/3650946225",
        "man_made": "lighthouse",
        "name": "福寶燈塔"
      },
      "geometry": {
        "type": "Point",
        "coordinates": [
          120.3810609,
          24.0443517
        ]
      },
      "id": "node/3650946225"
    },
    {
      "type": "Feature",
      "properties": {
        "@id": "node/3701482370",
        "man_made": "lighthouse",
        "name": "北碇燈塔"
      },
      "geometry": {
        "type": "Point",
        "coordinates": [
          118.5045657,
          24.4271463
        ]
      },
      "id": "node/3701482370"
    },
    {
      "type": "Feature",
      "properties": {
        "@id": "node/3701496921",
        "man_made": "lighthouse",
        "name": "東碇燈塔",
        "name:en": "Dongding Lighthouse",
        "name:nan": "Tang-tēng Teng-thah",
        "name:nan-Hant": "東碇燈燈塔",
        "name:nan-Latn-pehoeji": "Tang-tēng Teng-thah",
        "name:nan-Latn-tailo": "Tang-tīng Ting-thah",
        "name:vi": "Hải đăng Đông Đĩnh Đảo",
        "name:zh": "東碇燈塔",
        "name:zh-Hans": "东碇岛灯塔",
        "name:zh-Hant": "東碇燈塔",
        "seamark:information": "Gun: 1 report in answer to vessel´s fog signal, 2 reports 5 minutes later, repeated while vessel´s fog fog signal continues to be heard",
        "seamark:light:character": "Fl",
        "seamark:light:colour": "white",
        "seamark:light:height": "69",
        "seamark:light:period": "10",
        "seamark:light:range": "11",
        "seamark:light:reference": "F 3606",
        "seamark:name": "Tung-ting Tao",
        "seamark:type": "light_minor",
        "source": "US NGA Pub. 112. 2009-11-12.",
        "wikidata": "Q109772022",
        "wikipedia": "zh:東椗島燈塔"
      },
      "geometry": {
        "type": "Point",
        "coordinates": [
          118.2336523,
          24.1619214
        ]
      },
      "id": "node/3701496921"
    },
    {
      "type": "Feature",
      "properties": {
        "@id": "node/4161521225",
        "man_made": "lighthouse",
        "name": "西鼻嶼燈塔",
        "name:zh": "西鼻嶼燈塔",
        "name:zh-Hans": "西鼻屿灯塔",
        "name:zh-Hant": "西鼻嶼燈塔"
      },
      "geometry": {
        "type": "Point",
        "coordinates": [
          119.4111859,
          23.214968
        ]
      },
      "id": "node/4161521225"
    },
    {
      "type": "Feature",
      "properties": {
        "@id": "node/4741525333",
        "man_made": "lighthouse",
        "name": "燈塔",
        "name:en": "Lighthouse",
        "name:zh": "燈塔",
        "tourism": "attraction"
      },
      "geometry": {
        "type": "Point",
        "coordinates": [
          120.4386261,
          22.4636148
        ]
      },
      "id": "node/4741525333"
    },
    {
      "type": "Feature",
      "properties": {
        "@id": "node/5146186234",
        "alt_name": "東引島燈塔",
        "man_made": "lighthouse",
        "name": "東湧燈塔",
        "name:en": "Dongyong Lighthouse",
        "name:zh": "東湧燈塔",
        "wikidata": "Q11103346",
        "wikipedia": "zh:東引島燈塔"
      },
      "geometry": {
        "type": "Point",
        "coordinates": [
          120.5103445,
          26.3657582
        ]
      },
      "id": "node/5146186234"
    },
    {
      "type": "Feature",
      "properties": {
        "@id": "node/6025041585",
        "man_made": "lighthouse",
        "name": "淡水燈塔",
        "seamark:light:character": "LFl",
        "seamark:light:colour": "white",
        "seamark:light:height": "35.2",
        "seamark:light:period": "8",
        "seamark:light:range": "16.6",
        "seamark:light:reference": "P 4664",
        "seamark:light:sequence": "2+(6)",
        "seamark:name": "Tan-Shui Kang.",
        "seamark:type": "light_major",
        "source": "US NGA Pub. 112. 2021.",
        "wikidata": "Q86671946",
        "wikipedia": "zh:淡水港燈塔"
      },
      "geometry": {
        "type": "Point",
        "coordinates": [
          121.4200931,
          25.1771703
        ]
      },
      "id": "node/6025041585"
    },
    {
      "type": "Feature",
      "properties": {
        "@id": "node/6045018944",
        "man_made": "lighthouse",
        "name": "工作船渠西連續壁綠色燈杆"
      },
      "geometry": {
        "type": "Point",
        "coordinates": [
          120.5174462,
          24.2870539
        ]
      },
      "id": "node/6045018944"
    },
    {
      "type": "Feature",
      "properties": {
        "@id": "node/6045018945",
        "man_made": "lighthouse",
        "name": "工作船渠東連續壁紅色燈杆"
      },
      "geometry": {
        "type": "Point",
        "coordinates": [
          120.5184239,
          24.2869093
        ]
      },
      "id": "node/6045018945"
    },
    {
      "type": "Feature",
      "properties": {
        "@id": "node/6045018946",
        "man_made": "lighthouse",
        "name": "北防波堤進港航道前導標"
      },
      "geometry": {
        "type": "Point",
        "coordinates": [
          120.4984044,
          24.2948756
        ]
      },
      "id": "node/6045018946"
    },
    {
      "type": "Feature",
      "properties": {
        "@id": "node/6045018947",
        "man_made": "lighthouse",
        "name": "北防波堤進港航道後導標"
      },
      "geometry": {
        "type": "Point",
        "coordinates": [
          120.5028098,
          24.2967926
        ]
      },
      "id": "node/6045018947"
    },
    {
      "type": "Feature",
      "properties": {
        "@id": "node/6045018948",
        "man_made": "lighthouse",
        "name": "第一組前導標"
      },
      "geometry": {
        "type": "Point",
        "coordinates": [
          120.4968576,
          24.2370052
        ]
      },
      "id": "node/6045018948"
    },
    {
      "type": "Feature",
      "properties": {
        "@id": "node/6045018949",
        "man_made": "lighthouse",
        "name": "第三組前導標"
      },
      "geometry": {
        "type": "Point",
        "coordinates": [
          120.4934865,
          24.2514371
        ]
      },
      "id": "node/6045018949"
    },
    {
      "type": "Feature",
      "properties": {
        "@id": "node/6045018950",
        "man_made": "lighthouse",
        "name": "第三組後導標"
      },
      "geometry": {
        "type": "Point",
        "coordinates": [
          120.4938901,
          24.2524006
        ]
      },
      "id": "node/6045018950"
    },
    {
      "type": "Feature",
      "properties": {
        "@id": "node/6045018951",
        "man_made": "lighthouse",
        "name": "第四組前導標",
        "seamark:type": "light_minor"
      },
      "geometry": {
        "type": "Point",
        "coordinates": [
          120.5140047,
          24.2586095
        ]
      },
      "id": "node/6045018951"
    },
    {
      "type": "Feature",
      "properties": {
        "@id": "node/6045018952",
        "man_made": "lighthouse",
        "name": "第四組後導標"
      },
      "geometry": {
        "type": "Point",
        "coordinates": [
          120.515634,
          24.2597978
        ]
      },
      "id": "node/6045018952"
    },
    {
      "type": "Feature",
      "properties": {
        "@id": "node/6045018953",
        "man_made": "lighthouse",
        "name": "第五組前導標"
      },
      "geometry": {
        "type": "Point",
        "coordinates": [
          120.518988,
          24.2893677
        ]
      },
      "id": "node/6045018953"
    },
    {
      "type": "Feature",
      "properties": {
        "@id": "node/8281138593",
        "height": "13.8",
        "man_made": "lighthouse",
        "name": "太平島燈塔",
        "name:en": "Taiping Island Lighthouse",
        "name:nan": "Thài-pêng-tó Teng-thah",
        "name:nan-Hant": "太平島燈塔",
        "name:nan-Latn-pehoeji": "Thài-pêng-tó Teng-thah",
        "name:nan-Latn-tailo": "Thài-pîng-tó Ting-thah",
        "name:zh": "太平島燈塔",
        "name:zh-Hans": "太平岛灯塔",
        "name:zh-Hant": "太平島燈塔",
        "operator": "交通部航港局",
        "seamark:landmark:height": "13.8",
        "seamark:light:1:character": "Fl",
        "seamark:light:1:colour": "white",
        "seamark:light:1:group": "3",
        "seamark:light:1:period": "10",
        "seamark:light:1:range": "10",
        "seamark:light:1:sequence": "1+(1)+1+(1)+1+(5)",
        "seamark:light:exhibition": "night",
        "seamark:type": "light_major",
        "start_date": "2015-12-12",
        "wikidata": "Q101096642"
      },
      "geometry": {
        "type": "Point",
        "coordinates": [
          114.3633493,
          10.3749291
        ]
      },
      "id": "node/8281138593"
    },
    {
      "type": "Feature",
      "properties": {
        "@id": "node/9889709537",
        "man_made": "lighthouse",
        "name": "嵵板頭山頂導航標誌燈 (長髮公主)",
        "name:zh": "嵵板頭山頂導航標誌燈 (長髮公主)",
        "name:zh-Hans": "嵵板头山顶导航标志灯 (长发公主)",
        "name:zh-Hant": "嵵板頭山頂導航標誌燈 (長髮公主)",
        "seamark:light:character": "Fl",
        "seamark:light:colour": "red",
        "seamark:light:height": "46",
        "seamark:light:period": "5",
        "seamark:light:reference": "P 4657.2",
        "seamark:light:sequence": "0.5+(4.5)",
        "seamark:type": "light_minor",
        "source": "https://navy.mnd.gov.tw/Files/Others/24-114(民).pdf"
      },
      "geometry": {
        "type": "Point",
        "coordinates": [
          119.6098056,
          23.6349444
        ]
      },
      "id": "node/9889709537"
    },
    {
      "type": "Feature",
      "properties": {
        "@id": "node/9890282596",
        "man_made": "lighthouse",
        "name": "小門嶼燈塔"
      },
      "geometry": {
        "type": "Point",
        "coordinates": [
          119.5144352,
          23.6539604
        ]
      },
      "id": "node/9890282596"
    },
    {
      "type": "Feature",
      "properties": {
        "@id": "node/10228669194",
        "ele": "45.1",
        "ele:note": "燈高：45.1m(自高潮面起算)；塔高28.4m",
        "height": "28.4",
        "man_made": "lighthouse",
        "name": "花蓮港燈塔",
        "seamark:conspicuity": "conspicuous",
        "seamark:construction": "metal",
        "seamark:information": "https://hl.twport.com.tw/chinese/cp.aspx",
        "seamark:light:character": "Fl",
        "seamark:light:colour": "green",
        "seamark:light:group": "3",
        "seamark:light:height": "45",
        "seamark:light:period": "12",
        "seamark:light:range": "9.8",
        "seamark:light:reference": "NGA 13732",
        "seamark:light:sequence": "1+(1)+1+(1)+1+(7)",
        "seamark:name": "花蓮港燈塔",
        "seamark:reflectivity": "not_conspicuous",
        "seamark:status": "public",
        "seamark:type": "light_major",
        "source": "https://hl.twport.com.tw/chinese/cp.aspx",
        "tourism": "attraction"
      },
      "geometry": {
        "type": "Point",
        "coordinates": [
          121.6135476,
          23.9747328
        ]
      },
      "id": "node/10228669194"
    },
    {
      "type": "Feature",
      "properties": {
        "@id": "node/10859523157",
        "man_made": "lighthouse",
        "name": "七美嶼燈塔",
        "name:zh": "七美嶼燈塔",
        "name:zh-Hans": "七美屿灯塔",
        "name:zh-Hant": "七美嶼燈塔"
      },
      "geometry": {
        "type": "Point",
        "coordinates": [
          119.4281593,
          23.1901491
        ]
      },
      "id": "node/10859523157"
    },
    {
      "type": "Feature",
      "properties": {
        "@id": "node/11792437856",
        "man_made": "lighthouse",
        "name": "Chilaibi Lighthouse"
      },
      "geometry": {
        "type": "Point",
        "coordinates": [
          121.643846,
          24.0159585
        ]
      },
      "id": "node/11792437856"
    }
  ]
}