{"type":"FeatureCollection","features":[{"type":"Feature","geometry":{"type":"Point","coordinates":[121.36841,24.976486]},"properties":{"@id":"node/2172252000","alt_name":"百年大榕樹","description":"號稱千年榕樹，實際樹齡約350年","ele":"342","leaf_type":"broadleaved","name":"鶯歌山林1號大榕樹","natural":"tree"},"id":"node/2172252000"},{"type":"Feature","geometry":{"type":"Point","coordinates":[121.537679,24.956644]},"properties":{"@id":"node/2203268857","name":"碧潭老榕樹","natural":"tree"},"id":"node/2203268857"},{"type":"Feature","geometry":{"type":"Point","coordinates":[120.267973,22.652234]},"properties":{"@id":"node/2512993804","ele":"153","leaf_cycle":"evergreen","leaf_type":"broadleaved","name":"四棵榕","name:en":"Si'kerong","name:zh":"四棵榕","natural":"tree"},"id":"node/2512993804"},{"type":"Feature","geometry":{"type":"Point","coordinates":[120.276793,22.638075]},"properties":{"@id":"node/2567483325","ele":"120.0","name":"綠榕園","name:en":"Lurongyuan","name:zh":"綠榕園","natural":"tree"},"id":"node/2567483325"},{"type":"Feature","geometry":{"type":"Point","coordinates":[120.74088,24.319097]},"properties":{"@id":"node/2692313297","name":"大榕樹","natural":"tree"},"id":"node/2692313297"},{"type":"Feature","geometry":{"type":"Point","coordinates":[120.733065,24.309674]},"properties":{"@id":"node/2908724640","name":"大榕樹","natural":"tree"},"id":"node/2908724640"},{"type":"Feature","geometry":{"type":"Point","coordinates":[120.775327,24.276048]},"properties":{"@id":"node/2935263816","name":"榕樹","natural":"tree"},"id":"node/2935263816"},{"type":"Feature","geometry":{"type":"Point","coordinates":[121.497541,24.984242]},"properties":{"@id":"node/2950976521","name":"榕園","natural":"tree"},"id":"node/2950976521"},{"type":"Feature","geometry":{"type":"Point","coordinates":[120.894459,23.957538]},"properties":{"@id":"node/2959540233","description":"廣福宮旁大榕樹","name":"榕樹","natural":"tree","source":"survey"},"id":"node/2959540233"},{"type":"Feature","geometry":{"type":"Point","coordinates":[120.78093,24.276092]},"properties":{"@id":"node/2963708885","name":"榕樹","natural":"tree"},"id":"node/2963708885"},{"type":"Feature","geometry":{"type":"Point","coordinates":[120.781174,24.276129]},"properties":{"@id":"node/2963708888","name":"榕樹","natural":"tree"},"id":"node/2963708888"},{"type":"Feature","geometry":{"type":"Point","coordinates":[120.741526,23.777643]},"properties":{"@id":"node/3062359695","name":"百年榕樹","natural":"tree"},"id":"node/3062359695"},{"type":"Feature","geometry":{"type":"Point","coordinates":[120.791058,24.272876]},"properties":{"@id":"node/3146914664","denotation":"avenue","leaf_type":"broadleaved","name":"榕樹","natural":"tree"},"id":"node/3146914664"},{"type":"Feature","geometry":{"type":"Point","coordinates":[120.797193,24.270206]},"properties":{"@id":"node/3163980495","denotation":"avenue","leaf_type":"broadleaved","name":"榕樹","natural":"tree"},"id":"node/3163980495"},{"type":"Feature","geometry":{"type":"Point","coordinates":[120.797278,24.270172]},"properties":{"@id":"node/3163980496","denotation":"avenue","leaf_type":"broadleaved","name":"榕樹","natural":"tree"},"id":"node/3163980496"},{"type":"Feature","geometry":{"type":"Point","coordinates":[120.812984,24.26257]},"properties":{"@id":"node/3231043516","denotation":"avenue","leaf_type":"broadleaved","name":"榕樹","natural":"tree"},"id":"node/3231043516"},{"type":"Feature","geometry":{"type":"Point","coordinates":[120.638411,24.125579]},"properties":{"@id":"node/3437732786","denotation":"landmark","leaf_cycle":"evergreen","leaf_type":"broadleaved","name":"臺中金城武樹(老榕樹)","natural":"tree","note":"臺中市珍貴老樹","species":"榕樹","species:wikidata":"Q714180","species:wikipedia":"zh:正榕"},"id":"node/3437732786"},{"type":"Feature","geometry":{"type":"Point","coordinates":[121.434494,24.909174]},"properties":{"@id":"node/3439256683","genus":"Ficus","genus:zh":"榕屬","name":"榕樹","natural":"tree"},"id":"node/3439256683"},{"type":"Feature","geometry":{"type":"Point","coordinates":[121.534567,25.041501]},"properties":{"@id":"node/3944644388","name":"榕樹","natural":"tree"},"id":"node/3944644388"},{"type":"Feature","geometry":{"type":"Point","coordinates":[121.58898,25.031791]},"properties":{"@id":"node/3999392711","name":"榕樹王","natural":"tree"},"id":"node/3999392711"},{"type":"Feature","geometry":{"type":"Point","coordinates":[120.335668,22.957469]},"properties":{"@id":"node/4057149543","name":"松腳老榕樹","name:en":"Loose foot old banyan tree","name:zh":"松腳老榕樹","natural":"tree","tourism":"attraction"},"id":"node/4057149543"},{"type":"Feature","geometry":{"type":"Point","coordinates":[120.648513,24.178544]},"properties":{"@id":"node/4083223745","name":"榕樹","natural":"tree"},"id":"node/4083223745"},{"type":"Feature","geometry":{"type":"Point","coordinates":[121.292431,23.181263]},"properties":{"@id":"node/4094887259","name":"大榕樹","natural":"tree"},"id":"node/4094887259"},{"type":"Feature","geometry":{"type":"Point","coordinates":[118.314656,24.433221]},"properties":{"@id":"node/4686958626","natural":"tree","species":"Ficus microcarpa"},"id":"node/4686958626"},{"type":"Feature","geometry":{"type":"Point","coordinates":[118.314509,24.433067]},"properties":{"@id":"node/4686963053","natural":"tree","species":"Ficus microcarpa"},"id":"node/4686963053"},{"type":"Feature","geometry":{"type":"Point","coordinates":[120.239693,22.879499]},"properties":{"@id":"node/4794350122","name":"百年老榕","natural":"tree"},"id":"node/4794350122"},{"type":"Feature","geometry":{"type":"Point","coordinates":[120.239529,22.879378]},"properties":{"@id":"node/4794350123","name":"百年老榕","natural":"tree"},"id":"node/4794350123"},{"type":"Feature","geometry":{"type":"Point","coordinates":[121.604273,25.003904]},"properties":{"@id":"node/4820634520","name":"榕樹下","natural":"tree"},"id":"node/4820634520"},{"type":"Feature","geometry":{"type":"Point","coordinates":[120.346902,23.381741]},"properties":{"@id":"node/4854838916","natural":"tree","species":"Ficus microcarpa","species:wikidata":"Q714180","species:wikipedia":"zh:正榕","species:zh":"榕樹"},"id":"node/4854838916"},{"type":"Feature","geometry":{"type":"Point","coordinates":[120.212049,23.004067]},"properties":{"@id":"node/5273153302","name":"大榕樹(集合地)","natural":"tree"},"id":"node/5273153302"},{"type":"Feature","geometry":{"type":"Point","coordinates":[120.215913,23.00019]},"properties":{"@id":"node/5361759658","genus":"Ficus","leaf_type":"broadleaved","natural":"tree","species":"Ficus microcarpa"},"id":"node/5361759658"},{"type":"Feature","geometry":{"type":"Point","coordinates":[120.21619,23.000141]},"properties":{"@id":"node/5361759659","alt_name":"國泰大榕","circumference":"7.19 m","denotation":"natural_monument","description":"This banyan was personally planted by Crown Prince Hirohito (later Emperor Shōwa) on April 21, 1923 (Taishō 12) during an inspection tour of Tainan.\n裕仁皇太子（即後來的昭和天皇）於1923年（大正12年）4月21日行啟（訪查）臺南時，親手栽植。","diameter":"2.29 m","diameter_crown":"30 m","genus":"Ficus","height":"20","leaf_cycle":"evergreen","leaf_type":"broadleaved","mapillary":"1535258103665777","name":"成大榕樹","natural":"tree","species":"Ficus microcarpa","species:wikidata":"Q714180","species:wikipedia":"en:Ficus microcarpa","start_date":"1923-04-21","website":"https://nckutree.ncku.edu.tw/nckuTree/#RwdApp.TreeInfoActivity&co=A0759","wikidata":"Q130054179","wikimedia_commons":"Category:Cathay Life banyan","wikipedia":"zh:國泰大榕"},"id":"node/5361759659"},{"type":"Feature","geometry":{"type":"Point","coordinates":[120.216575,23.000112]},"properties":{"@id":"node/5361759660","denotation":"natural_monument","genus":"Ficus","leaf_type":"broadleaved","mapillary":"199472682923814","natural":"tree","species":"Ficus microcarpa"},"id":"node/5361759660"},{"type":"Feature","geometry":{"type":"Point","coordinates":[120.216424,23.000544]},"properties":{"@id":"node/5361759665","name":"榕樹","natural":"tree"},"id":"node/5361759665"},{"type":"Feature","geometry":{"type":"Point","coordinates":[120.216238,23.000577]},"properties":{"@id":"node/5361759666","name":"榕樹","natural":"tree"},"id":"node/5361759666"},{"type":"Feature","geometry":{"type":"Point","coordinates":[120.215845,23.00064]},"properties":{"@id":"node/5361759667","name":"榕樹","natural":"tree"},"id":"node/5361759667"},{"type":"Feature","geometry":{"type":"Point","coordinates":[121.553873,25.110857]},"properties":{"@id":"node/5365762062","name":"大榕樹","natural":"tree"},"id":"node/5365762062"},{"type":"Feature","geometry":{"type":"Point","coordinates":[120.967748,24.790758]},"properties":{"@id":"node/5411520317","description":"榕樹","leaf_type":"broadleaved","natural":"tree","species":"Ficus microcarpa L. f."},"id":"node/5411520317"},{"type":"Feature","geometry":{"type":"Point","coordinates":[121.49912,25.186644]},"properties":{"@id":"node/5442705306","name":"榕樹休憩點","name:en":"Banyan Tree Rest Stop","name:zh":"榕樹休憩點","natural":"tree"},"id":"node/5442705306"},{"type":"Feature","geometry":{"type":"Point","coordinates":[121.514162,25.019294]},"properties":{"@id":"node/5573884528","name":"大榕樹","natural":"tree"},"id":"node/5573884528"},{"type":"Feature","geometry":{"type":"Point","coordinates":[121.661137,25.070493]},"properties":{"@id":"node/5652732615","name":"老榕樹","natural":"tree"},"id":"node/5652732615"},{"type":"Feature","geometry":{"type":"Point","coordinates":[120.418489,23.26726]},"properties":{"@id":"node/5873430050","name":"大榕樹","natural":"tree"},"id":"node/5873430050"},{"type":"Feature","geometry":{"type":"Point","coordinates":[120.365125,22.327326]},"properties":{"@id":"node/5954863430","name":"百年榕樹","name:zh":"百年榕樹","name:zh-Hans":"百年榕树","name:zh-Hant":"百年榕樹","natural":"tree"},"id":"node/5954863430"},{"type":"Feature","geometry":{"type":"Point","coordinates":[120.219501,22.994295]},"properties":{"@id":"node/6359792634","denotation":"street","leaf_cycle":"evergreen","leaf_type":"broadleaved","name":"榕樹","natural":"tree"},"id":"node/6359792634"},{"type":"Feature","geometry":{"type":"Point","coordinates":[121.42858,25.128256]},"properties":{"@id":"node/6562721276","name":"榕樹(氣根如盤絲)","natural":"tree"},"id":"node/6562721276"},{"type":"Feature","geometry":{"type":"Point","coordinates":[121.505541,25.154941]},"properties":{"@id":"node/7276640020","name":"百年九丁榕","natural":"tree"},"id":"node/7276640020"},{"type":"Feature","geometry":{"type":"Point","coordinates":[121.627636,23.987827]},"properties":{"@id":"node/7456344574","denotation":"garden","leaf_cycle":"deciduous","leaf_type":"leafless","name":"榕樹","natural":"tree"},"id":"node/7456344574"},{"type":"Feature","geometry":{"type":"Point","coordinates":[120.559407,24.043369]},"properties":{"@id":"node/7574335669","name":"古榕","natural":"tree"},"id":"node/7574335669"},{"type":"Feature","geometry":{"type":"Point","coordinates":[119.557134,23.656665]},"properties":{"@id":"node/7614192924","name":"通樑大榕樹","natural":"tree","tourism":"attraction"},"id":"node/7614192924"},{"type":"Feature","geometry":{"type":"Point","coordinates":[120.460233,23.603101]},"properties":{"@id":"node/7679385743","leaf_cycle":"evergreen","leaf_type":"leafless","name":"榕樹","natural":"tree"},"id":"node/7679385743"},{"type":"Feature","geometry":{"type":"Point","coordinates":[121.494329,23.563927]},"properties":{"@id":"node/8073419569","description":"大榕樹","name":"大榕樹","natural":"tree"},"id":"node/8073419569"},{"type":"Feature","geometry":{"type":"Point","coordinates":[121.822876,24.858983]},"properties":{"@id":"node/8175711076","name":"榕樹","natural":"tree","note":"台鐵005 宜蘭縣列管保護樹木"},"id":"node/8175711076"},{"type":"Feature","geometry":{"type":"Point","coordinates":[121.822896,24.85855]},"properties":{"@id":"node/8175711078","name":"榕樹","natural":"tree","note":"台鐵009 宜蘭縣列管保護樹木"},"id":"node/8175711078"},{"type":"Feature","geometry":{"type":"Point","coordinates":[121.822681,24.859046]},"properties":{"@id":"node/8175711079","addr:street":"復興路三段","leaf_cycle":"evergreen","leaf_type":"broadleaved","name":"榕樹","natural":"tree","note":"台鐵006 宜蘭縣列管保護樹木"},"id":"node/8175711079"},{"type":"Feature","geometry":{"type":"Point","coordinates":[121.823046,24.85893]},"properties":{"@id":"node/8175711080","name":"榕樹","natural":"tree","note":"台鐵004 宜蘭縣列管保護樹木"},"id":"node/8175711080"},{"type":"Feature","geometry":{"type":"Point","coordinates":[121.822841,24.858558]},"properties":{"@id":"node/8175711081","name":"榕樹","natural":"tree","note":"台鐵008 宜蘭縣列管保護樹木"},"id":"node/8175711081"},{"type":"Feature","geometry":{"type":"Point","coordinates":[121.484438,25.186512]},"properties":{"@id":"node/8380454647","denotation":"landmark","leaf_type":"broadleaved","natural":"tree","species":"Ficus religiosa"},"id":"node/8380454647"},{"type":"Feature","geometry":{"type":"Point","coordinates":[120.217064,22.993873]},"properties":{"@id":"node/8905062298","leaf_cycle":"evergreen","leaf_type":"broadleaved","name":"大榕樹","name:en":"Big Banyan","natural":"tree"},"id":"node/8905062298"},{"type":"Feature","geometry":{"type":"Point","coordinates":[120.270499,22.649615]},"properties":{"@id":"node/9225808686","leaf_cycle":"evergreen","leaf_type":"broadleaved","name":"二棵榕","natural":"tree"},"id":"node/9225808686"},{"type":"Feature","geometry":{"type":"Point","coordinates":[120.250567,22.651425]},"properties":{"@id":"node/9239268533","name":"大榕樹","natural":"tree","tourism":"attraction"},"id":"node/9239268533"},{"type":"Feature","geometry":{"type":"Point","coordinates":[120.305024,22.694517]},"properties":{"@id":"node/9439190432","name":"大榕樹","natural":"tree"},"id":"node/9439190432"},{"type":"Feature","geometry":{"type":"Point","coordinates":[119.502454,23.57128]},"properties":{"@id":"node/9889126353","denotation":"landmark","leaf_cycle":"evergreen","leaf_type":"broadleaved","name":"內垵老榕","name:zh":"內垵老榕","name:zh-Hans":"内垵老榕","name:zh-Hant":"內垵老榕","natural":"tree"},"id":"node/9889126353"},{"type":"Feature","geometry":{"type":"Point","coordinates":[119.502388,23.571263]},"properties":{"@id":"node/9889126354","denotation":"landmark","leaf_cycle":"evergreen","leaf_type":"broadleaved","name":"內垵老榕","name:zh":"內垵老榕","name:zh-Hans":"内垵老榕","name:zh-Hant":"內垵老榕","natural":"tree"},"id":"node/9889126354"},{"type":"Feature","geometry":{"type":"Point","coordinates":[120.415139,23.27916]},"properties":{"@id":"node/9932718112","name":"大榕樹","natural":"tree"},"id":"node/9932718112"},{"type":"Feature","geometry":{"type":"Point","coordinates":[121.574444,25.026895]},"properties":{"@id":"node/10017923754","name":"雀榕","natural":"tree"},"id":"node/10017923754"},{"type":"Feature","geometry":{"type":"Point","coordinates":[120.274794,22.644229]},"properties":{"@id":"node/10052631809","denotation":"natural_monument","name":"菩提樹","natural":"tree","species":"Ficus religiosa"},"id":"node/10052631809"},{"type":"Feature","geometry":{"type":"Point","coordinates":[120.803604,22.106832]},"properties":{"@id":"node/10114448782","leaf_cycle":"evergreen","leaf_type":"broadleaved","name":"榕樹叢","natural":"tree"},"id":"node/10114448782"},{"type":"Feature","geometry":{"type":"Point","coordinates":[120.523816,22.914129]},"properties":{"@id":"node/10268872883","leaf_cycle":"evergreen","leaf_type":"broadleaved","name":"很盤的榕樹","natural":"tree","species":"Ficus microcarpa"},"id":"node/10268872883"},{"type":"Feature","geometry":{"type":"Point","coordinates":[120.292354,22.677001]},"properties":{"@id":"node/10771223103","genus":"Ficus","natural":"tree","species:zh":"榕樹"},"id":"node/10771223103"},{"type":"Feature","geometry":{"type":"Point","coordinates":[120.292328,22.676936]},"properties":{"@id":"node/10771223104","genus":"Ficus","natural":"tree","species:zh":"榕樹"},"id":"node/10771223104"},{"type":"Feature","geometry":{"type":"Point","coordinates":[120.292429,22.677306]},"properties":{"@id":"node/10772045559","genus":"Ficus","natural":"tree","species:zh":"榕樹"},"id":"node/10772045559"},{"type":"Feature","geometry":{"type":"Point","coordinates":[120.29045,22.676496]},"properties":{"@id":"node/10796147690","name":"老榕叢","natural":"tree"},"id":"node/10796147690"},{"type":"Feature","geometry":{"type":"Point","coordinates":[120.272934,22.640475]},"properties":{"@id":"node/10844227030","leaf_type":"broadleaved","name":"榕叢","natural":"tree"},"id":"node/10844227030"},{"type":"Feature","geometry":{"type":"Point","coordinates":[120.430848,23.287043]},"properties":{"@id":"node/10924809190","name":"榕樹","natural":"tree"},"id":"node/10924809190"},{"type":"Feature","geometry":{"type":"Point","coordinates":[121.84636,25.107661]},"properties":{"@id":"node/11012235263","name":"榕樹","natural":"tree"},"id":"node/11012235263"},{"type":"Feature","geometry":{"type":"Point","coordinates":[120.329451,22.883431]},"properties":{"@id":"node/11048955568","name":"百年老榕","natural":"tree"},"id":"node/11048955568"},{"type":"Feature","geometry":{"type":"Point","coordinates":[121.42498,25.130037]},"properties":{"@id":"node/11153541783","denotation":"landmark","leaf_cycle":"deciduous","leaf_type":"broadleaved","name":"大榕樹","natural":"tree"},"id":"node/11153541783"},{"type":"Feature","geometry":{"type":"Point","coordinates":[120.965191,24.793432]},"properties":{"@id":"node/11189254697","name":"榕樹","natural":"tree"},"id":"node/11189254697"},{"type":"Feature","geometry":{"type":"Point","coordinates":[120.267045,22.639945]},"properties":{"@id":"node/11506099672","name":"榕叢","natural":"tree"},"id":"node/11506099672"},{"type":"Feature","geometry":{"type":"Point","coordinates":[121.965883,25.005178]},"properties":{"@id":"node/11528059812","name":"百年大榕樹","natural":"tree"},"id":"node/11528059812"},{"type":"Feature","geometry":{"type":"Point","coordinates":[120.756722,22.114001]},"properties":{"@id":"node/11672950902","name":"榕叢","natural":"tree"},"id":"node/11672950902"},{"type":"Feature","geometry":{"type":"Point","coordinates":[120.570959,23.187285]},"properties":{"@id":"node/11757619266","leaf_type":"broadleaved","name":"雀榕巨木","natural":"tree"},"id":"node/11757619266"},{"type":"Feature","geometry":{"type":"Point","coordinates":[121.749588,24.755535]},"properties":{"@id":"node/11775669291","leaf_type":"broadleaved","name":"榕樹","natural":"tree","note":"Ficus microcarpa"},"id":"node/11775669291"},{"type":"Feature","geometry":{"type":"Point","coordinates":[121.625355,23.98477]},"properties":{"@id":"node/12053041260","name":"大榕樹","natural":"tree"},"id":"node/12053041260"},{"type":"Feature","geometry":{"type":"Point","coordinates":[120.709653,24.094246]},"properties":{"@id":"node/12717411783","leaf_cycle":"evergreen","leaf_type":"broadleaved","name":"老榕樹","natural":"tree","species":"榕樹","species:wikidata":"Q714180","species:wikipedia":"zh:正榕"},"id":"node/12717411783"},{"type":"Feature","geometry":{"type":"Point","coordinates":[120.226642,22.983337]},"properties":{"@id":"node/12827854281","name":"東城神榕","natural":"tree"},"id":"node/12827854281"},{"type":"Feature","geometry":{"type":"Point","coordinates":[120.518827,23.872343]},"properties":{"@id":"node/12839243822","name":"北斗大榕樹","natural":"tree"},"id":"node/12839243822"},{"type":"Feature","geometry":{"type":"Point","coordinates":[120.95503,24.800783]},"properties":{"@id":"node/12866084687","name":"大榕樹下","natural":"tree"},"id":"node/12866084687"},{"type":"Feature","geometry":{"type":"Point","coordinates":[121.79947,24.98584]},"properties":{"@id":"node/13040539122","name":"九丁榕大板根","natural":"tree","species:wikidata":"Q10878637"},"id":"node/13040539122"},{"type":"Feature","geometry":{"type":"Point","coordinates":[121.927615,24.992266]},"properties":{"@id":"node/13245083309","name":"百年巨榕","natural":"tree"},"id":"node/13245083309"},{"type":"Feature","geometry":{"type":"Point","coordinates":[121.571852,25.10527]},"properties":{"@id":"node/13415908229","name":"老榕樹","natural":"tree","species:wikidata":"Q714180","species:zh":"榕樹"},"id":"node/13415908229"},{"type":"Feature","geometry":{"type":"Point","coordinates":[120.300145,22.626185]},"properties":{"@id":"node/13463536220","alt_name":"千手觀音榕","denotation":"urban","genus":"Ficus","leaf_cycle":"evergreen","leaf_type":"broadleaved","loc_name":"躺椅樹","name":"朴寶劍樹","name:en":"Bogeom Tree","name:zh":"朴寶劍樹","natural":"tree","species":"Ficus microcarpa","wikidata":"Q137772166","wikipedia":"zh:朴寶劍樹"},"id":"node/13463536220"},{"type":"Feature","geometry":{"type":"Point","coordinates":[120.654252,24.129676]},"properties":{"@id":"node/13628857341","circumference":"5","name":"正榕","natural":"tree"},"id":"node/13628857341"},{"type":"Feature","geometry":{"type":"Point","coordinates":[121.636785,25.225381]},"properties":{"@id":"node/13649058064","circumference":"8.5 m","count":"3","denotation":"landmark、memorial","height":"9 m","leaf_cycle":"deciduous","leaf_type":"broadleaved","name":"金山高中校樹雀榕","name:en":"The school tree of New Taipei Municipal Jin-Shan High School  is the Twiggy Fig","natural":"tree","short_name":"雀榕","species":"Ficus superba"},"id":"node/13649058064"},{"type":"Feature","geometry":{"type":"Point","coordinates":[121.495427,25.074479]},"properties":{"@id":"node/13686200301","genus":"Ficus","natural":"tree"},"id":"node/13686200301"},{"type":"Feature","geometry":{"type":"Point","coordinates":[121.495399,25.074516]},"properties":{"@id":"node/13686200302","genus":"Ficus","natural":"tree"},"id":"node/13686200302"},{"type":"Feature","geometry":{"type":"Point","coordinates":[121.554387,25.016998]},"properties":{"@id":"node/13745250184","name":"大榕樹","natural":"tree"},"id":"node/13745250184"},{"type":"Feature","geometry":{"type":"Point","coordinates":[120.798617,23.66077]},"properties":{"@id":"node/1613461985","disused:name":"神木","disused:natural":"tree","name":"溪頭臥神木","natural":"tree","tourism":"attraction","wheelchair":"yes"},"id":"node/1613461985"},{"type":"Feature","geometry":{"type":"Point","coordinates":[121.030364,24.280043]},"properties":{"@id":"node/1817505543","height":"49","name":"雪山神木","name:en":"Sacred Tree","name:zh":"神木","natural":"tree","place_of_worship":"sacred_tree","tourism":"attraction","type":"Red Cypress"},"id":"node/1817505543"},{"type":"Feature","geometry":{"type":"Point","coordinates":[121.066743,24.68196]},"properties":{"@id":"node/1975077836","name":"二寮神木","name:en":"Erliao Sacred Tree","name:zh":"二寮神木","natural":"tree","tourism":"attraction"},"id":"node/1975077836"},{"type":"Feature","geometry":{"type":"Point","coordinates":[121.29467,24.539477]},"properties":{"@id":"node/2091177853","denotation":"landmark","name":"#1神木","natural":"tree","species":"Chamaecyparis formosensis"},"id":"node/2091177853"},{"type":"Feature","geometry":{"type":"Point","coordinates":[121.021001,24.64506]},"properties":{"@id":"node/2289242529","name":"七星神木","name:en":"Seven Stars","name:zh":"七星神木","natural":"tree","tourism":"attraction"},"id":"node/2289242529"},{"type":"Feature","geometry":{"type":"Point","coordinates":[120.747862,22.614253]},"properties":{"@id":"node/2299246698","description":"紅檜巨木","name":"大武神木","natural":"tree"},"id":"node/2299246698"},{"type":"Feature","geometry":{"type":"Point","coordinates":[120.81169,23.583334]},"properties":{"@id":"node/2316012049","leaf_type":"needleleaved","name":"眠月神木","natural":"tree"},"id":"node/2316012049"},{"type":"Feature","geometry":{"type":"Point","coordinates":[120.786468,24.263825]},"properties":{"@id":"node/2379177113","denotation":"natural_monument","description":"In 2016, the tree (Cinnamomum camphora) was about 20 meters high, 2.5 meters in diameter, 1,300 square meters in crown, and about 350 years old.","leaf_type":"broadleaved","name":"五福臨門神木","name:en":"Wufulinmen Sacred Tree","name:zh":"五福臨門神木","natural":"tree","tourism":"attraction","wikidata":"Q28922793","wikipedia":"zh:五福臨門神木","wikipedia:en":"Cinnamomum_camphora"},"id":"node/2379177113"},{"type":"Feature","geometry":{"type":"Point","coordinates":[121.439222,24.79017]},"properties":{"@id":"node/2647419839","name":"八仙神木","natural":"tree"},"id":"node/2647419839"},{"type":"Feature","geometry":{"type":"Point","coordinates":[121.437425,24.790928]},"properties":{"@id":"node/2647419848","name":"卜派神木","natural":"tree","ref":"1"},"id":"node/2647419848"},{"type":"Feature","geometry":{"type":"Point","coordinates":[121.441573,24.791172]},"properties":{"@id":"node/2647419852","name":"塔開神木","natural":"tree"},"id":"node/2647419852"},{"type":"Feature","geometry":{"type":"Point","coordinates":[121.437603,24.790349]},"properties":{"@id":"node/2647420623","name":"赫威神木","natural":"tree"},"id":"node/2647420623"},{"type":"Feature","geometry":{"type":"Point","coordinates":[120.952703,24.160752]},"properties":{"@id":"node/2694562934","name":"四壯士神木","natural":"tree"},"id":"node/2694562934"},{"type":"Feature","geometry":{"type":"Point","coordinates":[121.29052,24.734199]},"properties":{"@id":"node/2697336611","name":"2號神木","natural":"tree"},"id":"node/2697336611"},{"type":"Feature","geometry":{"type":"Point","coordinates":[121.29032,24.734752]},"properties":{"@id":"node/2697336616","name":"3號神木","natural":"tree"},"id":"node/2697336616"},{"type":"Feature","geometry":{"type":"Point","coordinates":[121.292048,24.735248]},"properties":{"@id":"node/2697336619","name":"1號神木","natural":"tree"},"id":"node/2697336619"},{"type":"Feature","geometry":{"type":"Point","coordinates":[121.2857,24.5361]},"properties":{"@id":"node/2708080886","name":"扁神木","natural":"tree"},"id":"node/2708080886"},{"type":"Feature","geometry":{"type":"Point","coordinates":[121.294652,24.540212]},"properties":{"@id":"node/2708089011","name":"亞當神木","natural":"tree"},"id":"node/2708089011"},{"type":"Feature","geometry":{"type":"Point","coordinates":[121.29497,24.5403]},"properties":{"@id":"node/2708089012","name":"夏娃神木","natural":"tree"},"id":"node/2708089012"},{"type":"Feature","geometry":{"type":"Point","coordinates":[121.471074,24.520083]},"properties":{"@id":"node/3168583786","name":"神代神木","natural":"tree"},"id":"node/3168583786"},{"type":"Feature","geometry":{"type":"Point","coordinates":[121.403133,24.1808]},"properties":{"@id":"node/3379562846","circumference":"3.5","genus":"Cunninghamia","height":"50","name":"碧綠神木","name:zh":"碧綠神木","natural":"tree","species":"Cunninghamia lanceolata","wikidata":"Q34899072"},"id":"node/3379562846"},{"type":"Feature","geometry":{"type":"Point","coordinates":[121.471793,24.653616]},"properties":{"@id":"node/3511680150","circumference":"11.62","height":"31.6","leaf_cycle":"evergreen","leaf_type":"needleleaved","name":"明池神木","natural":"tree","species":"Chamaecyparis formosensis"},"id":"node/3511680150"},{"type":"Feature","geometry":{"type":"Point","coordinates":[121.357643,24.447453]},"properties":{"@id":"node/4113344040","name":"南山神木","natural":"tree"},"id":"node/4113344040"},{"type":"Feature","geometry":{"type":"Point","coordinates":[120.803274,23.505036]},"properties":{"@id":"node/4188727496","alt_name:en":"Shuishan Giant Tree","diameter":"5.2m","height":"54","leaf_cycle":"evergreen","leaf_type":"needleleaved","name":"水山神木","name:en":"Giant Tree of Shuishan Mt","name:zh":"水山神木","natural":"tree","note":"紅檜 Chamaecyparis formosensis","source":"survey","tourism":"attraction"},"id":"node/4188727496"},{"type":"Feature","geometry":{"type":"Point","coordinates":[121.437568,24.710153]},"properties":{"@id":"node/4216621273","name":"1號神木","natural":"tree"},"id":"node/4216621273"},{"type":"Feature","geometry":{"type":"Point","coordinates":[121.438629,24.710217]},"properties":{"@id":"node/4216621274","name":"2號神木","natural":"tree","ref":"2"},"id":"node/4216621274"},{"type":"Feature","geometry":{"type":"Point","coordinates":[121.44015,24.711575]},"properties":{"@id":"node/4216621275","name":"19號神木","natural":"tree"},"id":"node/4216621275"},{"type":"Feature","geometry":{"type":"Point","coordinates":[120.720785,23.61399]},"properties":{"@id":"node/4396349637","alt_name:en":"Jiu-xiong Sacred tree","denotation":"natural_monument","leaf_cycle":"deciduous","leaf_type":"broadleaved","name":"九穹神木","name:en":"Jiougong Holy wood","name:zh":"九穹神木","name:zh-Hant":"九穹神木","natural":"tree","tourism":"attraction"},"id":"node/4396349637"},{"type":"Feature","geometry":{"type":"Point","coordinates":[120.808046,23.517317]},"properties":{"@id":"node/4414801217","diameter":"4.1m","height":"45","leaf_cycle":"evergreen","leaf_type":"needleleaved","name":"香林神木","name:en":"Xianglin Sacred Tree","name:zh":"香林神木","natural":"tree","note":"紅檜 Chamaecyparis formosensis","tourism":"attraction"},"id":"node/4414801217"},{"type":"Feature","geometry":{"type":"Point","coordinates":[121.452881,23.770149]},"properties":{"@id":"node/4693550509","name":"茄苳神木","natural":"tree","tourism":"attraction"},"id":"node/4693550509"},{"type":"Feature","geometry":{"type":"Point","coordinates":[121.323088,24.377418]},"properties":{"@id":"node/4759497476","ele":"2366","name":"羅馬神木","natural":"tree"},"id":"node/4759497476"},{"type":"Feature","geometry":{"type":"Point","coordinates":[120.791884,23.666035]},"properties":{"@id":"node/5134426304","name":"神木標本","natural":"tree"},"id":"node/5134426304"},{"type":"Feature","geometry":{"type":"Point","coordinates":[120.792065,23.665918]},"properties":{"@id":"node/5134426305","name":"神木標本","natural":"tree"},"id":"node/5134426305"},{"type":"Feature","geometry":{"type":"Point","coordinates":[121.103771,24.367926]},"properties":{"@id":"node/5292683864","description":"大雪山神木（台灣巨無霸）　樹種：紅檜，樹高：55公尺，胸圍：20.80公尺，樹齡：2500年以上（約東周時期）。","name":"大雪山神木","natural":"tree"},"id":"node/5292683864"},{"type":"Feature","geometry":{"type":"Point","coordinates":[120.855497,23.481859]},"properties":{"@id":"node/5311418421","circumference":"20","diameter_crown":"6.4","height":"43","name":"鹿林神木","natural":"tree","tourism":"attraction"},"id":"node/5311418421"},{"type":"Feature","geometry":{"type":"Point","coordinates":[121.284913,24.535934]},"properties":{"@id":"node/5353784420","name":"神木1","natural":"tree"},"id":"node/5353784420"},{"type":"Feature","geometry":{"type":"Point","coordinates":[121.285337,24.536177]},"properties":{"@id":"node/5353784721","name":"神木2","natural":"tree"},"id":"node/5353784721"},{"type":"Feature","geometry":{"type":"Point","coordinates":[121.289204,24.540397]},"properties":{"@id":"node/5353784759","name":"A神木1","natural":"tree"},"id":"node/5353784759"},{"type":"Feature","geometry":{"type":"Point","coordinates":[121.289383,24.540297]},"properties":{"@id":"node/5353784760","name":"A神木2","natural":"tree"},"id":"node/5353784760"},{"type":"Feature","geometry":{"type":"Point","coordinates":[121.289912,24.540403]},"properties":{"@id":"node/5353784761","name":"A神木3","natural":"tree"},"id":"node/5353784761"},{"type":"Feature","geometry":{"type":"Point","coordinates":[121.289877,24.540875]},"properties":{"@id":"node/5353784762","name":"A神木4","natural":"tree"},"id":"node/5353784762"},{"type":"Feature","geometry":{"type":"Point","coordinates":[121.290002,24.540946]},"properties":{"@id":"node/5353784763","name":"阿扁神木","natural":"tree"},"id":"node/5353784763"},{"type":"Feature","geometry":{"type":"Point","coordinates":[121.293914,24.539946]},"properties":{"@id":"node/5353784768","name":"神木","natural":"tree"},"id":"node/5353784768"},{"type":"Feature","geometry":{"type":"Point","coordinates":[121.294617,24.539717]},"properties":{"@id":"node/5353784771","name":"#2神木","natural":"tree"},"id":"node/5353784771"},{"type":"Feature","geometry":{"type":"Point","coordinates":[121.295036,24.540577]},"properties":{"@id":"node/5353784772","name":"#3神木","natural":"tree"},"id":"node/5353784772"},{"type":"Feature","geometry":{"type":"Point","coordinates":[121.296085,24.540612]},"properties":{"@id":"node/5353784773","name":"#4神木","natural":"tree"},"id":"node/5353784773"},{"type":"Feature","geometry":{"type":"Point","coordinates":[121.296425,24.540434]},"properties":{"@id":"node/5353784774","name":"#5神木","natural":"tree"},"id":"node/5353784774"},{"type":"Feature","geometry":{"type":"Point","coordinates":[121.297048,24.54114]},"properties":{"@id":"node/5353784775","name":"#6神木","natural":"tree"},"id":"node/5353784775"},{"type":"Feature","geometry":{"type":"Point","coordinates":[121.297466,24.541395]},"properties":{"@id":"node/5353784776","name":"#7神木","natural":"tree"},"id":"node/5353784776"},{"type":"Feature","geometry":{"type":"Point","coordinates":[121.297743,24.541496]},"properties":{"@id":"node/5353784777","name":"國王神木","natural":"tree"},"id":"node/5353784777"},{"type":"Feature","geometry":{"type":"Point","coordinates":[121.297937,24.541142]},"properties":{"@id":"node/5353784778","name":"#8神木","natural":"tree"},"id":"node/5353784778"},{"type":"Feature","geometry":{"type":"Point","coordinates":[121.298048,24.540861]},"properties":{"@id":"node/5353784779","name":"#9神木","natural":"tree"},"id":"node/5353784779"},{"type":"Feature","geometry":{"type":"Point","coordinates":[121.297653,24.539645]},"properties":{"@id":"node/5353784781","name":"#11神木","natural":"tree"},"id":"node/5353784781"},{"type":"Feature","geometry":{"type":"Point","coordinates":[121.298073,24.540743]},"properties":{"@id":"node/5353784782","name":"#10神木","natural":"tree"},"id":"node/5353784782"},{"type":"Feature","geometry":{"type":"Point","coordinates":[121.297569,24.539085]},"properties":{"@id":"node/5353784783","name":"#12神木","natural":"tree"},"id":"node/5353784783"},{"type":"Feature","geometry":{"type":"Point","coordinates":[121.297671,24.53883]},"properties":{"@id":"node/5353784784","name":"#13神木","natural":"tree"},"id":"node/5353784784"},{"type":"Feature","geometry":{"type":"Point","coordinates":[121.297728,24.538503]},"properties":{"@id":"node/5353784785","name":"#14神木","natural":"tree"},"id":"node/5353784785"},{"type":"Feature","geometry":{"type":"Point","coordinates":[121.296907,24.538562]},"properties":{"@id":"node/5353784786","name":"#15神木","natural":"tree"},"id":"node/5353784786"},{"type":"Feature","geometry":{"type":"Point","coordinates":[121.296697,24.538764]},"properties":{"@id":"node/5353784787","name":"#16神木","natural":"tree"},"id":"node/5353784787"},{"type":"Feature","geometry":{"type":"Point","coordinates":[121.296441,24.539124]},"properties":{"@id":"node/5353784788","name":"#17神木","natural":"tree"},"id":"node/5353784788"},{"type":"Feature","geometry":{"type":"Point","coordinates":[121.296167,24.539356]},"properties":{"@id":"node/5353784789","name":"#18神木","natural":"tree"},"id":"node/5353784789"},{"type":"Feature","geometry":{"type":"Point","coordinates":[121.296191,24.53953]},"properties":{"@id":"node/5353784790","name":"五福神木","natural":"tree"},"id":"node/5353784790"},{"type":"Feature","geometry":{"type":"Point","coordinates":[121.295545,24.539121]},"properties":{"@id":"node/5353784791","name":"#19神木","natural":"tree"},"id":"node/5353784791"},{"type":"Feature","geometry":{"type":"Point","coordinates":[121.367891,24.576474]},"properties":{"@id":"node/5446906302","circumference":"19.1","height":"45","name":"大老爺神木","natural":"tree"},"id":"node/5446906302"},{"type":"Feature","geometry":{"type":"Point","coordinates":[121.472433,24.662003]},"properties":{"@id":"node/5589622867","name":"神木","natural":"tree"},"id":"node/5589622867"},{"type":"Feature","geometry":{"type":"Point","coordinates":[120.794496,24.226144]},"properties":{"@id":"node/6604210693","genus":"Cinnamomum","name":"水頭神木","natural":"tree","protected":"yes","species":"Cinnamomum camphora","tourism":"attraction"},"id":"node/6604210693"},{"type":"Feature","geometry":{"type":"Point","coordinates":[121.094326,24.504399]},"properties":{"@id":"node/6795796607","circumference":"17.2m","diameter":"5.48m","height":"34m","leaf_cycle":"evergreen","leaf_type":"needleleaved","name":"二號巨木","natural":"tree","species":"Chamaecyparis formosensis"},"id":"node/6795796607"},{"type":"Feature","geometry":{"type":"Point","coordinates":[121.093557,24.504265]},"properties":{"@id":"node/6795796608","circumference":"16.3m","diameter":"5.19m","height":"47.1m","leaf_type":"needleleaved","name":"一號巨木","name:en":"#1 Giant Tree","name:zh":"一號巨木","natural":"tree","species":"Chamaecyparis formosensis"},"id":"node/6795796608"},{"type":"Feature","geometry":{"type":"Point","coordinates":[121.093408,24.50518]},"properties":{"@id":"node/6795796609","circumference":"8.2m","diameter":"2.61m","height":"30m","leaf_type":"needleleaved","name":"五號巨木","name:en":"#5 Giant Tree","name:zh":"五號巨木","natural":"tree","species":"Chamaecyparis formosensis"},"id":"node/6795796609"},{"type":"Feature","geometry":{"type":"Point","coordinates":[121.093697,24.505319]},"properties":{"@id":"node/6795796610","circumference":"9.2m","diameter":"2.93m","height":"33m","leaf_cycle":"evergreen","leaf_type":"needleleaved","name":"四號巨木","name:en":"#4 Giant Tree","name:zh":"四號巨木","natural":"tree","species":"Chamaecyparis formosensis"},"id":"node/6795796610"},{"type":"Feature","geometry":{"type":"Point","coordinates":[121.093758,24.505158]},"properties":{"@id":"node/6795796611","circumference":"5.5m","diameter":"1.75m","height":"26m","leaf_cycle":"evergreen","leaf_type":"needleleaved","name":"三號巨木","name:en":"#3 Giant Tree","name:zh":"三號巨木","natural":"tree","species":"Chamaecyparis formosensis"},"id":"node/6795796611"},{"type":"Feature","geometry":{"type":"Point","coordinates":[121.00774,24.259929]},"properties":{"@id":"node/6917993112","name":"小雪山神木","natural":"tree"},"id":"node/6917993112"},{"type":"Feature","geometry":{"type":"Point","coordinates":[121.441063,24.711793]},"properties":{"@id":"node/7066171960","name":"16號神木","natural":"tree","ref":"16"},"id":"node/7066171960"},{"type":"Feature","geometry":{"type":"Point","coordinates":[121.440438,24.710758]},"properties":{"@id":"node/7066171961","name":"13號神木","natural":"tree","ref":"13"},"id":"node/7066171961"},{"type":"Feature","geometry":{"type":"Point","coordinates":[121.440351,24.710643]},"properties":{"@id":"node/7066171962","name":"20號神木","natural":"tree","ref":"20"},"id":"node/7066171962"},{"type":"Feature","geometry":{"type":"Point","coordinates":[121.44022,24.710744]},"properties":{"@id":"node/7066171963","name":"21號神木","natural":"tree","ref":"21"},"id":"node/7066171963"},{"type":"Feature","geometry":{"type":"Point","coordinates":[121.440071,24.709767]},"properties":{"@id":"node/7066171964","name":"4號神木","natural":"tree","ref":"4"},"id":"node/7066171964"},{"type":"Feature","geometry":{"type":"Point","coordinates":[121.440012,24.709907]},"properties":{"@id":"node/7066171965","name":"3號神木","natural":"tree","ref":"3"},"id":"node/7066171965"},{"type":"Feature","geometry":{"type":"Point","coordinates":[121.440752,24.711199]},"properties":{"@id":"node/7077952397","name":"15號神木","natural":"tree","ref":"15"},"id":"node/7077952397"},{"type":"Feature","geometry":{"type":"Point","coordinates":[121.441042,24.710809]},"properties":{"@id":"node/7077952398","name":"13號神木","natural":"tree","ref":"13"},"id":"node/7077952398"},{"type":"Feature","geometry":{"type":"Point","coordinates":[121.440849,24.710568]},"properties":{"@id":"node/7077952399","name":"14號神木","natural":"tree","ref":"14"},"id":"node/7077952399"},{"type":"Feature","geometry":{"type":"Point","coordinates":[121.441739,24.710112]},"properties":{"@id":"node/7077952400","name":"12號神木","natural":"tree","ref":"12"},"id":"node/7077952400"},{"type":"Feature","geometry":{"type":"Point","coordinates":[121.440334,24.709152]},"properties":{"@id":"node/7077952401","name":"8號神木","natural":"tree","ref":"8"},"id":"node/7077952401"},{"type":"Feature","geometry":{"type":"Point","coordinates":[121.440012,24.708636]},"properties":{"@id":"node/7077952402","name":"7號神木","natural":"tree","ref":"7"},"id":"node/7077952402"},{"type":"Feature","geometry":{"type":"Point","coordinates":[121.439808,24.708582]},"properties":{"@id":"node/7077952403","name":"6號神木","natural":"tree","ref":"6"},"id":"node/7077952403"},{"type":"Feature","geometry":{"type":"Point","coordinates":[121.439374,24.708592]},"properties":{"@id":"node/7077952404","name":"5號神木","natural":"tree","ref":"5"},"id":"node/7077952404"},{"type":"Feature","geometry":{"type":"Point","coordinates":[121.102978,24.834691]},"properties":{"@id":"node/7241178766","name":"巨楓神木","natural":"tree"},"id":"node/7241178766"},{"type":"Feature","geometry":{"type":"Point","coordinates":[121.469918,24.654991]},"properties":{"@id":"node/7419225101","name":"明池神木","natural":"tree"},"id":"node/7419225101"},{"type":"Feature","geometry":{"type":"Point","coordinates":[120.805045,23.463398]},"properties":{"@id":"node/7419314845","name":"拉拉喀斯神木","natural":"tree"},"id":"node/7419314845"},{"type":"Feature","geometry":{"type":"Point","coordinates":[120.729172,23.963757]},"properties":{"@id":"node/8050861333","name":"坪頂神木","natural":"tree","wikidata":"Q92275718","wikipedia":"zh:坪頂七股神木"},"id":"node/8050861333"},{"type":"Feature","geometry":{"type":"Point","coordinates":[121.087885,24.606695]},"properties":{"@id":"node/9695036604","name":"神木1號","natural":"tree"},"id":"node/9695036604"},{"type":"Feature","geometry":{"type":"Point","coordinates":[121.088458,24.606761]},"properties":{"@id":"node/9695036605","name":"神木3號","natural":"tree"},"id":"node/9695036605"},{"type":"Feature","geometry":{"type":"Point","coordinates":[121.087927,24.607037]},"properties":{"@id":"node/9695036606","name":"神木2號","natural":"tree"},"id":"node/9695036606"},{"type":"Feature","geometry":{"type":"Point","coordinates":[121.134458,24.741369]},"properties":{"@id":"node/9707523816","leaf_cycle":"semi_deciduous","leaf_type":"broadleaved","name":"三百年茄苳神木","natural":"tree","source":"survey"},"id":"node/9707523816"},{"type":"Feature","geometry":{"type":"Point","coordinates":[120.59883,22.902827]},"properties":{"@id":"node/9901850070","name":"茄苳神木","natural":"tree"},"id":"node/9901850070"},{"type":"Feature","geometry":{"type":"Point","coordinates":[120.863882,23.521038]},"properties":{"@id":"node/10178272386","circumference":"16m","denotation":"landmark","diameter":"5.1m","height":"46.4","leaf_cycle":"evergreen","leaf_type":"broadleaved","name":"樟樹神木 - 世界最高樟樹","natural":"tree","species":"Cinnamomum camphora"},"id":"node/10178272386"},{"type":"Feature","geometry":{"type":"Point","coordinates":[120.584868,22.948427]},"properties":{"@id":"node/10608036584","name":"黑板樹神木","natural":"tree"},"id":"node/10608036584"},{"type":"Feature","geometry":{"type":"Point","coordinates":[120.587859,22.947532]},"properties":{"@id":"node/10608036585","name":"茄苳樹神木","natural":"tree"},"id":"node/10608036585"},{"type":"Feature","geometry":{"type":"Point","coordinates":[120.795219,23.511789]},"properties":{"@id":"node/10968481771","name":"樹抱石神木","natural":"tree"},"id":"node/10968481771"},{"type":"Feature","geometry":{"type":"Point","coordinates":[121.394276,25.073391]},"properties":{"@id":"node/11214912774","leaf_cycle":"deciduous","leaf_type":"broadleaved","name":"板根神木","natural":"tree","tourism":"attraction"},"id":"node/11214912774"},{"type":"Feature","geometry":{"type":"Point","coordinates":[121.435104,24.587637]},"properties":{"@id":"node/11236630739","circumference":"11.1 m","denotation":"natural_monument","height":"48.4","leaf_cycle":"evergreen","leaf_type":"needleleaved","name":"4號神木 歐陽修","natural":"tree","species":"Chamaecyparis formosensis"},"id":"node/11236630739"},{"type":"Feature","geometry":{"type":"Point","coordinates":[121.435778,24.587819]},"properties":{"@id":"node/11236630756","circumference":"10 m","denotation":"natural_monument","height":"40.8","leaf_cycle":"evergreen","leaf_type":"needleleaved","name":"6號神木 孔子","natural":"tree","species":"Chamaecyparis formosensis"},"id":"node/11236630756"},{"type":"Feature","geometry":{"type":"Point","coordinates":[121.435241,24.587441]},"properties":{"@id":"node/11236630758","circumference":"15.2 m","denotation":"natural_monument","height":"41.1","leaf_cycle":"evergreen","leaf_type":"needleleaved","name":"5號神木 司馬遷","natural":"tree","species":"Chamaecyparis formosensis"},"id":"node/11236630758"},{"type":"Feature","geometry":{"type":"Point","coordinates":[121.435529,24.587397]},"properties":{"@id":"node/11236630759","circumference":"12.8 m","denotation":"natural_monument","height":"36.8","leaf_cycle":"evergreen","leaf_type":"needleleaved","name":"8號神木 顏真卿","natural":"tree","species":"Chamaecyparis formosensis"},"id":"node/11236630759"},{"type":"Feature","geometry":{"type":"Point","coordinates":[121.435054,24.586902]},"properties":{"@id":"node/11236630760","circumference":"11.4 m","denotation":"natural_monument","height":"38.9","leaf_cycle":"evergreen","leaf_type":"needleleaved","name":"9號神木 文天祥","natural":"tree","species":"Chamaecyparis formosensis"},"id":"node/11236630760"},{"type":"Feature","geometry":{"type":"Point","coordinates":[121.434684,24.586553]},"properties":{"@id":"node/11236630761","circumference":"7 m","denotation":"natural_monument","height":"36.3","leaf_cycle":"evergreen","leaf_type":"needleleaved","name":"10號神木 韓世忠","natural":"tree","species":"Chamaecyparis formosensis"},"id":"node/11236630761"},{"type":"Feature","geometry":{"type":"Point","coordinates":[121.28924,24.54066]},"properties":{"@id":"node/2708080885","name":"三巨木","natural":"tree"},"id":"node/2708080885"},{"type":"Feature","geometry":{"type":"Point","coordinates":[121.46495,24.4778]},"properties":{"@id":"node/2835156396","name":"巨木","name:en":"Giant Tree","name:zh":"巨木","natural":"tree"},"id":"node/2835156396"},{"type":"Feature","geometry":{"type":"Point","coordinates":[120.80031,23.625089]},"properties":{"@id":"node/3508495055","diameter":"5.3m","height":"35.2","leaf_cycle":"evergreen","name":"杉林溪巨木","natural":"tree"},"id":"node/3508495055"},{"type":"Feature","geometry":{"type":"Point","coordinates":[120.812039,21.961758]},"properties":{"@id":"node/3948073576","name":"茄苳巨木","name:en":"Giant Autumn Maple","name:zh":"茄苳巨木","natural":"tree","tourism":"attraction"},"id":"node/3948073576"},{"type":"Feature","geometry":{"type":"Point","coordinates":[121.352632,24.347865]},"properties":{"@id":"node/4096553272","name":"鐵衫巨木","natural":"tree"},"id":"node/4096553272"},{"type":"Feature","geometry":{"type":"Point","coordinates":[121.357407,24.448361]},"properties":{"@id":"node/4113344039","name":"巨木6","natural":"tree"},"id":"node/4113344039"},{"type":"Feature","geometry":{"type":"Point","coordinates":[121.359257,24.450915]},"properties":{"@id":"node/4227652214","name":"巨木1","natural":"tree"},"id":"node/4227652214"},{"type":"Feature","geometry":{"type":"Point","coordinates":[121.362981,24.436609]},"properties":{"@id":"node/4227652215","name":"巨木休息空地","natural":"tree"},"id":"node/4227652215"},{"type":"Feature","geometry":{"type":"Point","coordinates":[120.696804,23.507666]},"properties":{"@id":"node/4397688466","name":"鹿鼎巨木","natural":"tree","tourism":"viewpoint"},"id":"node/4397688466"},{"type":"Feature","geometry":{"type":"Point","coordinates":[120.699696,23.504047]},"properties":{"@id":"node/4413130578","name":"奮起湖巨木","name:en":"Fenqihu Giant Tree","name:sv":"Jättelika trädet i Fenqihu","name:zh":"奮起湖巨木","natural":"tree","tourism":"attraction"},"id":"node/4413130578"},{"type":"Feature","geometry":{"type":"Point","coordinates":[121.253436,24.166233]},"properties":{"@id":"node/5556451438","name":"鐵杉巨木","natural":"tree"},"id":"node/5556451438"},{"type":"Feature","geometry":{"type":"Point","coordinates":[121.438703,24.640742]},"properties":{"@id":"node/5662808484","name":"受難巨木","natural":"tree"},"id":"node/5662808484"},{"type":"Feature","geometry":{"type":"Point","coordinates":[121.438347,24.631317]},"properties":{"@id":"node/5662808485","name":"受難巨木","natural":"tree"},"id":"node/5662808485"},{"type":"Feature","geometry":{"type":"Point","coordinates":[121.518711,24.530907]},"properties":{"@id":"node/6017706591","circumference":"9.4","genus":"Chamaecyparis","height":"30","name":"白嶺巨木","natural":"tree","species":"C. taiwanensis","tourism":"attraction"},"id":"node/6017706591"},{"type":"Feature","geometry":{"type":"Point","coordinates":[121.463341,24.480897]},"properties":{"@id":"node/6034200373","denotation":"landmark","leaf_cycle":"evergreen","leaf_type":"needleleaved","name":"紅檜巨木","natural":"tree"},"id":"node/6034200373"},{"type":"Feature","geometry":{"type":"Point","coordinates":[121.094326,24.504399]},"properties":{"@id":"node/6795796607","circumference":"17.2m","diameter":"5.48m","height":"34m","leaf_cycle":"evergreen","leaf_type":"needleleaved","name":"二號巨木","natural":"tree","species":"Chamaecyparis formosensis"},"id":"node/6795796607"},{"type":"Feature","geometry":{"type":"Point","coordinates":[121.093557,24.504265]},"properties":{"@id":"node/6795796608","circumference":"16.3m","diameter":"5.19m","height":"47.1m","leaf_type":"needleleaved","name":"一號巨木","name:en":"#1 Giant Tree","name:zh":"一號巨木","natural":"tree","species":"Chamaecyparis formosensis"},"id":"node/6795796608"},{"type":"Feature","geometry":{"type":"Point","coordinates":[121.093408,24.50518]},"properties":{"@id":"node/6795796609","circumference":"8.2m","diameter":"2.61m","height":"30m","leaf_type":"needleleaved","name":"五號巨木","name:en":"#5 Giant Tree","name:zh":"五號巨木","natural":"tree","species":"Chamaecyparis formosensis"},"id":"node/6795796609"},{"type":"Feature","geometry":{"type":"Point","coordinates":[121.093697,24.505319]},"properties":{"@id":"node/6795796610","circumference":"9.2m","diameter":"2.93m","height":"33m","leaf_cycle":"evergreen","leaf_type":"needleleaved","name":"四號巨木","name:en":"#4 Giant Tree","name:zh":"四號巨木","natural":"tree","species":"Chamaecyparis formosensis"},"id":"node/6795796610"},{"type":"Feature","geometry":{"type":"Point","coordinates":[121.093758,24.505158]},"properties":{"@id":"node/6795796611","circumference":"5.5m","diameter":"1.75m","height":"26m","leaf_cycle":"evergreen","leaf_type":"needleleaved","name":"三號巨木","name:en":"#3 Giant Tree","name:zh":"三號巨木","natural":"tree","species":"Chamaecyparis formosensis"},"id":"node/6795796611"},{"type":"Feature","geometry":{"type":"Point","coordinates":[121.466383,24.652912]},"properties":{"@id":"node/7419225100","name":"明池巨木","natural":"tree"},"id":"node/7419225100"},{"type":"Feature","geometry":{"type":"Point","coordinates":[120.801805,23.464612]},"properties":{"@id":"node/7419314842","name":"五號巨木","natural":"tree"},"id":"node/7419314842"},{"type":"Feature","geometry":{"type":"Point","coordinates":[120.802579,23.464552]},"properties":{"@id":"node/7419314843","name":"七號巨木","natural":"tree"},"id":"node/7419314843"},{"type":"Feature","geometry":{"type":"Point","coordinates":[120.80247,23.4643]},"properties":{"@id":"node/7419314844","name":"六號巨木","natural":"tree"},"id":"node/7419314844"},{"type":"Feature","geometry":{"type":"Point","coordinates":[120.805544,23.46298]},"properties":{"@id":"node/7419314846","name":"巨木","natural":"tree"},"id":"node/7419314846"},{"type":"Feature","geometry":{"type":"Point","coordinates":[120.804625,23.46115]},"properties":{"@id":"node/7419314847","name":"巨木","natural":"tree"},"id":"node/7419314847"},{"type":"Feature","geometry":{"type":"Point","coordinates":[120.802969,23.46237]},"properties":{"@id":"node/7419314848","name":"四號巨木","natural":"tree"},"id":"node/7419314848"},{"type":"Feature","geometry":{"type":"Point","coordinates":[120.806496,23.462194]},"properties":{"@id":"node/7432863409","leaf_type":"needleleaved","name":"19號巨木(已枯)","natural":"tree"},"id":"node/7432863409"},{"type":"Feature","geometry":{"type":"Point","coordinates":[121.357879,24.450431]},"properties":{"@id":"node/7624153647","name":"巨木2","natural":"tree"},"id":"node/7624153647"},{"type":"Feature","geometry":{"type":"Point","coordinates":[121.357815,24.450039]},"properties":{"@id":"node/7624153648","name":"巨木4","natural":"tree"},"id":"node/7624153648"},{"type":"Feature","geometry":{"type":"Point","coordinates":[121.357552,24.448723]},"properties":{"@id":"node/7624153649","name":"巨木5","natural":"tree"},"id":"node/7624153649"},{"type":"Feature","geometry":{"type":"Point","coordinates":[121.357432,24.447947]},"properties":{"@id":"node/7624153650","name":"巨木7","natural":"tree"},"id":"node/7624153650"},{"type":"Feature","geometry":{"type":"Point","coordinates":[121.355371,24.442901]},"properties":{"@id":"node/7624153651","name":"巨木9","natural":"tree"},"id":"node/7624153651"},{"type":"Feature","geometry":{"type":"Point","coordinates":[121.336046,24.477343]},"properties":{"@id":"node/7640724880","name":"錫祿巨木","natural":"tree"},"id":"node/7640724880"},{"type":"Feature","geometry":{"type":"Point","coordinates":[121.335989,24.477363]},"properties":{"@id":"node/7640743084","name":"世良巨木","natural":"tree"},"id":"node/7640743084"},{"type":"Feature","geometry":{"type":"Point","coordinates":[121.335885,24.477402]},"properties":{"@id":"node/7640790789","name":"思儀巨木","natural":"tree"},"id":"node/7640790789"},{"type":"Feature","geometry":{"type":"Point","coordinates":[121.3082,24.4692]},"properties":{"@id":"node/7668082280","leaf_type":"needleleaved","name":"巨木45","natural":"tree","note":"ID 45 編號 9621-1-013_1 TreeHeight（預測樹高） 71.74 fifty_slope（五十坡度） 31.41 twenty_slope（二十坡度） 27.40 DEM（海拔） 1,891.55"},"id":"node/7668082280"},{"type":"Feature","geometry":{"type":"Point","coordinates":[121.3039,24.4652]},"properties":{"@id":"node/7668169328","leaf_type":"needleleaved","name":"巨木37","natural":"tree","note":"ID 37 編號 9621-1-012_19 TreeHeight（預測樹高） 72.91 fifty_slope（五十坡度） 21.71 twenty_slope（二十坡度） 19.27 DEM（海拔） 1,957.60"},"id":"node/7668169328"},{"type":"Feature","geometry":{"type":"Point","coordinates":[121.3892,24.5049]},"properties":{"@id":"node/7668172360","name":"巨木151","natural":"tree","note":"E121.388 N24.504 ID 151 編號 9622-2-096_1 TreeHeight（預測樹高） 65.23fifty_slope（五十坡度） 29.78twenty_slope（二十坡度） 32.60DEM（海拔） 1,779.71"},"id":"node/7668172360"},{"type":"Feature","geometry":{"type":"Point","coordinates":[121.3069,24.4697]},"properties":{"@id":"node/7668173891","leaf_type":"needleleaved","name":"巨木44","natural":"tree","note":"ID 44 編號 9621-1-012_26 TreeHeight（預測樹高） 67.72 fifty_slope（五十坡度） 38.10 twenty_slope（二十坡度） 43.88 DEM（海拔） 1,868.22"},"id":"node/7668173891"},{"type":"Feature","geometry":{"type":"Point","coordinates":[121.3071,24.4698]},"properties":{"@id":"node/7668177494","leaf_type":"needleleaved","name":"巨木1","natural":"tree","note":"ID 1 編號 9621-1-012_27 TreeHeight（預測樹高） 66.42 TreeHeight（實測樹高） 67.50 DBH（胸徑） 2.40 fifty_slope（五十坡度） 40.66 twenty_slope（二十坡度） 41.34 DEM（海拔） 1,851.22 species（樹種） 臺灣杉"},"id":"node/7668177494"},{"type":"Feature","geometry":{"type":"Point","coordinates":[120.80859,23.517473]},"properties":{"@id":"node/8959628210","diameter":"1.8m","height":"32","leaf_cycle":"evergreen","leaf_type":"needleleaved","name":"巨木群no.2","name:en":"No. 2 Formosan red cypress","natural":"tree","note":"紅檜 Chamaecyparis formosensis","source":"林務局嘉義林區管理處"},"id":"node/8959628210"},{"type":"Feature","geometry":{"type":"Point","coordinates":[120.80812,23.518006]},"properties":{"@id":"node/8959659889","diameter":"3.87m","height":"36","leaf_cycle":"evergreen","leaf_type":"needleleaved","name":"巨木群no.12","name:en":"No. 12 Formosan red cypress","natural":"tree","note":"紅檜 Chamaecyparis formosensis","source":"林務局嘉義林區管理處"},"id":"node/8959659889"},{"type":"Feature","geometry":{"type":"Point","coordinates":[120.808207,23.518138]},"properties":{"@id":"node/8959659890","diameter":"1.62m","height":"39","leaf_cycle":"evergreen","leaf_type":"needleleaved","name":"巨木群no.13","name:en":"No. 13 Formosan red cypress","natural":"tree","note":"紅檜 Chamaecyparis formosensis","source":"林務局嘉義林區管理處"},"id":"node/8959659890"},{"type":"Feature","geometry":{"type":"Point","coordinates":[120.808341,23.517586]},"properties":{"@id":"node/8959668967","diameter":"1.64m","height":"35","leaf_cycle":"evergreen","leaf_type":"needleleaved","name":"巨木群no.4","name:en":"No. 4 Formosan red cypress","natural":"tree","note":"紅檜 Chamaecyparis formosensis","source":"林務局嘉義林區管理處"},"id":"node/8959668967"},{"type":"Feature","geometry":{"type":"Point","coordinates":[120.808751,23.517422]},"properties":{"@id":"node/8959671617","diameter":"3.2m","height":"38","leaf_cycle":"evergreen","leaf_type":"needleleaved","name":"巨木群no.1","name:en":"No. 1 Formosan red cypress","natural":"tree","note":"紅檜 Chamaecyparis formosensis","source":"林務局嘉義林區管理處"},"id":"node/8959671617"},{"type":"Feature","geometry":{"type":"Point","coordinates":[120.808069,23.517564]},"properties":{"@id":"node/8959671719","diameter":"1.84m","height":"32","leaf_cycle":"evergreen","leaf_type":"needleleaved","name":"巨木群no.6","name:en":"No. 6 Formosan red cypress","natural":"tree","note":"紅檜 Chamaecyparis formosensis","source":"林務局嘉義林區管理處"},"id":"node/8959671719"},{"type":"Feature","geometry":{"type":"Point","coordinates":[120.808559,23.517704]},"properties":{"@id":"node/8959671720","diameter":"1.85m","height":"45","leaf_cycle":"evergreen","leaf_type":"needleleaved","name":"巨木群no.8","natural":"tree","note":"紅檜 Chamaecyparis formosensis","source":"林務局嘉義林區管理處"},"id":"node/8959671720"},{"type":"Feature","geometry":{"type":"Point","coordinates":[120.808178,23.518394]},"properties":{"@id":"node/8959672674","diameter":"1.98m","height":"26","leaf_cycle":"evergreen","leaf_type":"needleleaved","name":"巨木群no.21","natural":"tree","note":"紅檜 Chamaecyparis formosensis","source":"林務局嘉義林區管理處"},"id":"node/8959672674"},{"type":"Feature","geometry":{"type":"Point","coordinates":[120.80845,23.517948]},"properties":{"@id":"node/8959673545","diameter":"2.65m","height":"32","leaf_cycle":"evergreen","leaf_type":"needleleaved","name":"巨木群no.9","name:en":"No. 9 Formosan red cypress","natural":"tree","note":"紅檜 Chamaecyparis formosensis","source":"林務局嘉義林區管理處"},"id":"node/8959673545"},{"type":"Feature","geometry":{"type":"Point","coordinates":[120.808521,23.517321]},"properties":{"@id":"node/8959674086","diameter":"1.7m","height":"33","leaf_cycle":"evergreen","leaf_type":"needleleaved","name":"巨木群no.3","name:en":"No. 3 Formosan red cypress","natural":"tree","note":"紅檜 Chamaecyparis formosensis","source":"林務局嘉義林區管理處"},"id":"node/8959674086"},{"type":"Feature","geometry":{"type":"Point","coordinates":[120.808278,23.517909]},"properties":{"@id":"node/8959674338","diameter":"1.9m","height":"34","leaf_cycle":"evergreen","leaf_type":"needleleaved","name":"巨木群no.10","name:en":"No. 10 Formosan red cypress","natural":"tree","note":"紅檜 Chamaecyparis formosensis","source":"林務局嘉義林區管理處"},"id":"node/8959674338"},{"type":"Feature","geometry":{"type":"Point","coordinates":[120.807936,23.517717]},"properties":{"@id":"node/8959676168","diameter":"2.4m","height":"33","leaf_cycle":"evergreen","leaf_type":"needleleaved","name":"巨木群no.7","name:en":"No. 7 Formosan red cypress","natural":"tree","note":"紅檜 Chamaecyparis formosensis","source":"林務局嘉義林區管理處"},"id":"node/8959676168"},{"type":"Feature","geometry":{"type":"Point","coordinates":[120.807711,23.51836]},"properties":{"@id":"node/8959676509","diameter":"3.05m","height":"38","leaf_cycle":"evergreen","leaf_type":"needleleaved","name":"巨木群no.18","name:en":"No. 18 Formosan red cypress","natural":"tree","note":"紅檜 Chamaecyparis formosensis","source":"林務局嘉義林區管理處"},"id":"node/8959676509"},{"type":"Feature","geometry":{"type":"Point","coordinates":[120.808148,23.517691]},"properties":{"@id":"node/8959677235","diameter":"2.6m","height":"40","leaf_cycle":"evergreen","leaf_type":"needleleaved","name":"巨木群no.5","name:en":"No. 5 Formosan red cypress","natural":"tree","note":"紅檜 Chamaecyparis formosensis","source":"林務局嘉義林區管理處"},"id":"node/8959677235"},{"type":"Feature","geometry":{"type":"Point","coordinates":[120.807925,23.51824]},"properties":{"@id":"node/8959677516","diameter":"2.1m","height":"53","leaf_cycle":"evergreen","leaf_type":"needleleaved","name":"巨木群no.15","name:en":"No. 15 Formosan red cypress","natural":"tree","note":"紅檜 Chamaecyparis formosensis","source":"林務局嘉義林區管理處"},"id":"node/8959677516"},{"type":"Feature","geometry":{"type":"Point","coordinates":[120.809501,23.518785]},"properties":{"@id":"node/8959678404","diameter":"1.8m","height":"25","leaf_cycle":"evergreen","leaf_type":"needleleaved","name":"巨木群no.29","name:en":"No. 29 Formosan red cypress","natural":"tree","note":"紅檜 Chamaecyparis formosensis","source":"林務局嘉義林區管理處"},"id":"node/8959678404"},{"type":"Feature","geometry":{"type":"Point","coordinates":[120.808308,23.517992]},"properties":{"@id":"node/8959680036","diameter":"1.85m","height":"38","leaf_cycle":"evergreen","leaf_type":"needleleaved","name":"巨木群no.11","name:en":"No. 11 Formosan red cypress","natural":"tree","note":"紅檜 Chamaecyparis formosensis","source":"林務局嘉義林區管理處"},"id":"node/8959680036"},{"type":"Feature","geometry":{"type":"Point","coordinates":[120.808083,23.518155]},"properties":{"@id":"node/8959680037","diameter":"1.9m","height":"38","leaf_cycle":"evergreen","leaf_type":"needleleaved","name":"巨木群no.14","name:en":"No. 14 Formosan red cypress","natural":"tree","note":"紅檜 Chamaecyparis formosensis","source":"林務局嘉義林區管理處"},"id":"node/8959680037"},{"type":"Feature","geometry":{"type":"Point","coordinates":[120.809176,23.519063]},"properties":{"@id":"node/8959688853","diameter":"2.85m","height":"28","leaf_cycle":"evergreen","leaf_type":"needleleaved","name":"巨木群no.27","name:en":"No. 27 Formosan red cypress","natural":"tree","note":"紅檜 Chamaecyparis formosensis","source":"林務局嘉義林區管理處"},"id":"node/8959688853"},{"type":"Feature","geometry":{"type":"Point","coordinates":[120.809788,23.518177]},"properties":{"@id":"node/8959690059","diameter":"1.65m","height":"25.7","leaf_cycle":"evergreen","leaf_type":"needleleaved","name":"巨木群no.34","natural":"tree","note":"紅檜 Chamaecyparis formosensis","source":"林務局嘉義林區管理處"},"id":"node/8959690059"},{"type":"Feature","geometry":{"type":"Point","coordinates":[120.807779,23.518145]},"properties":{"@id":"node/8959691892","diameter":"3.18m","height":"42","leaf_cycle":"evergreen","leaf_type":"needleleaved","name":"巨木群no.16","name:en":"No. 16 Formosan red cypress","natural":"tree","note":"紅檜 Chamaecyparis formosensis","source":"林務局嘉義林區管理處"},"id":"node/8959691892"},{"type":"Feature","geometry":{"type":"Point","coordinates":[120.807261,23.518737]},"properties":{"@id":"node/8959691893","diameter":"2.56m","height":"38","leaf_cycle":"evergreen","leaf_type":"needleleaved","name":"巨木群no.20","name:en":"No. 20 Formosan red cypress","natural":"tree","note":"紅檜 Chamaecyparis formosensis","source":"林務局嘉義林區管理處"},"id":"node/8959691893"},{"type":"Feature","geometry":{"type":"Point","coordinates":[120.807674,23.518207]},"properties":{"@id":"node/8959693122","diameter":"3.25m","height":"38","leaf_cycle":"evergreen","leaf_type":"needleleaved","name":"巨木群no.17","name:en":"No. 17 Formosan red cypress","natural":"tree","note":"紅檜 Chamaecyparis formosensis","source":"林務局嘉義林區管理處"},"id":"node/8959693122"},{"type":"Feature","geometry":{"type":"Point","coordinates":[120.807198,23.518688]},"properties":{"@id":"node/8959693123","diameter":"1.9m","height":"42","leaf_cycle":"evergreen","leaf_type":"needleleaved","name":"巨木群no.19","name:en":"No. 19 Formosan red cypress","natural":"tree","note":"紅檜 Chamaecyparis formosensis","source":"林務局嘉義林區管理處"},"id":"node/8959693123"},{"type":"Feature","geometry":{"type":"Point","coordinates":[120.808119,23.518572]},"properties":{"@id":"node/8959697421","diameter":"2.1m","height":"23","leaf_cycle":"evergreen","leaf_type":"needleleaved","name":"巨木群no.22","natural":"tree","note":"紅檜 Chamaecyparis formosensis","source":"林務局嘉義林區管理處"},"id":"node/8959697421"},{"type":"Feature","geometry":{"type":"Point","coordinates":[120.809753,23.51808]},"properties":{"@id":"node/8959702627","diameter":"1.68m","height":"25.5","leaf_cycle":"evergreen","leaf_type":"needleleaved","name":"巨木群no.35","natural":"tree","note":"紅檜 Chamaecyparis formosensis","source":"林務局嘉義林區管理處"},"id":"node/8959702627"},{"type":"Feature","geometry":{"type":"Point","coordinates":[120.809605,23.518797]},"properties":{"@id":"node/8959705760","diameter":"1.8m","height":"24","leaf_cycle":"evergreen","leaf_type":"needleleaved","name":"巨木群no.30","name:en":"No. 30 Formosan red cypress","natural":"tree","note":"紅檜 Chamaecyparis formosensis","source":"林務局嘉義林區管理處"},"id":"node/8959705760"},{"type":"Feature","geometry":{"type":"Point","coordinates":[120.808527,23.518976]},"properties":{"@id":"node/8959708871","diameter":"1.83m","height":"26","leaf_cycle":"evergreen","leaf_type":"needleleaved","name":"巨木群no.24","name:en":"No. 24 Formosan red cypress","natural":"tree","note":"紅檜 Chamaecyparis formosensis","source":"林務局嘉義林區管理處"},"id":"node/8959708871"},{"type":"Feature","geometry":{"type":"Point","coordinates":[120.808912,23.518948]},"properties":{"@id":"node/8959708872","diameter":"1.65m","height":"29","leaf_cycle":"evergreen","leaf_type":"needleleaved","name":"巨木群no.26","name:en":"No. 26 Formosan red cypress","natural":"tree","note":"紅檜 Chamaecyparis formosensis","source":"林務局嘉義林區管理處"},"id":"node/8959708872"},{"type":"Feature","geometry":{"type":"Point","coordinates":[120.809576,23.519169]},"properties":{"@id":"node/8959709064","diameter":"4m","height":"43","leaf_cycle":"evergreen","leaf_type":"needleleaved","name":"巨木群no.28","name:en":"No. 28 Formosan red cypress","natural":"tree","note":"紅檜 Chamaecyparis formosensis","source":"林務局嘉義林區管理處"},"id":"node/8959709064"},{"type":"Feature","geometry":{"type":"Point","coordinates":[120.809778,23.5184]},"properties":{"@id":"node/8959710942","diameter":"1.9m","height":"28","leaf_cycle":"evergreen","leaf_type":"needleleaved","name":"巨木群no.31","natural":"tree","note":"紅檜 Chamaecyparis formosensis","source":"林務局嘉義林區管理處"},"id":"node/8959710942"},{"type":"Feature","geometry":{"type":"Point","coordinates":[120.809659,23.518419]},"properties":{"@id":"node/8959711077","diameter":"3.2m","height":"25.5","leaf_cycle":"evergreen","leaf_type":"needleleaved","name":"巨木群no.33","natural":"tree","note":"紅檜 Chamaecyparis formosensis","source":"林務局嘉義林區管理處"},"id":"node/8959711077"},{"type":"Feature","geometry":{"type":"Point","coordinates":[120.808645,23.519039]},"properties":{"@id":"node/8959713652","diameter":"1.98m","height":"25","leaf_cycle":"evergreen","leaf_type":"needleleaved","name":"巨木群no.25","name:en":"No. 25 Formosan red cypress","natural":"tree","note":"紅檜 Chamaecyparis formosensis","source":"林務局嘉義林區管理處"},"id":"node/8959713652"},{"type":"Feature","geometry":{"type":"Point","coordinates":[120.809566,23.518358]},"properties":{"@id":"node/8959721967","diameter":"2.38m","height":"27","leaf_cycle":"evergreen","leaf_type":"needleleaved","name":"巨木群no.32","natural":"tree","note":"紅檜 Chamaecyparis formosensis","source":"林務局嘉義林區管理處"},"id":"node/8959721967"},{"type":"Feature","geometry":{"type":"Point","coordinates":[120.809867,23.517963]},"properties":{"@id":"node/8959723999","diameter":"1.58m","height":"26","leaf_cycle":"evergreen","leaf_type":"needleleaved","name":"巨木群no.36","natural":"tree","note":"紅檜 Chamaecyparis formosensis","source":"林務局嘉義林區管理處"},"id":"node/8959723999"},{"type":"Feature","geometry":{"type":"Point","coordinates":[120.822066,22.126979]},"properties":{"@id":"node/9274370622","name":"茄苳大巨木","natural":"tree"},"id":"node/9274370622"},{"type":"Feature","geometry":{"type":"Point","coordinates":[120.938395,23.265266]},"properties":{"@id":"node/9831562939","name":"巨木","natural":"tree"},"id":"node/9831562939"},{"type":"Feature","geometry":{"type":"Point","coordinates":[121.540228,25.157925]},"properties":{"@id":"node/10003233431","name":"楓香巨木","natural":"tree","species":"Liquidambar formosana","species:wikidata":"Q986006"},"id":"node/10003233431"},{"type":"Feature","geometry":{"type":"Point","coordinates":[121.540227,25.159146]},"properties":{"@id":"node/10006824813","name":"無患子巨木","natural":"tree"},"id":"node/10006824813"},{"type":"Feature","geometry":{"type":"Point","coordinates":[120.570959,23.187285]},"properties":{"@id":"node/11757619266","leaf_type":"broadleaved","name":"雀榕巨木","natural":"tree"},"id":"node/11757619266"},{"type":"Feature","geometry":{"type":"Point","coordinates":[121.2151,23.7085]},"properties":{"@id":"node/12734097857","height":"82","name":"卡阿郎巨木","natural":"tree","species:wikidata":"Q390313"},"id":"node/12734097857"},{"type":"Feature","geometry":{"type":"Point","coordinates":[121.353564,24.56807]},"properties":{"@id":"node/13381244743","circumference":"4.3","height":"25","name":"台灣櫸巨木","natural":"tree"},"id":"node/13381244743"},{"type":"Feature","geometry":{"type":"Point","coordinates":[121.365551,24.572121]},"properties":{"@id":"node/13381244744","circumference":"4.8","genus":"Chamaecyparis","height":"32","leaf_type":"needleleaved","name":"1號巨木","natural":"tree"},"id":"node/13381244744"},{"type":"Feature","geometry":{"type":"Point","coordinates":[121.365659,24.572347]},"properties":{"@id":"node/13381244745","circumference":"6.1","height":"35","leaf_type":"needleleaved","name":"黃杉巨木","natural":"tree"},"id":"node/13381244745"},{"type":"Feature","geometry":{"type":"Point","coordinates":[121.367426,24.575082]},"properties":{"@id":"node/13381273573","circumference":"13","height":"40","leaf_type":"needleleaved","name":"8號巨木","natural":"tree"},"id":"node/13381273573"},{"type":"Feature","geometry":{"type":"Point","coordinates":[121.367744,24.575488]},"properties":{"@id":"node/13381273639","circumference":"10.7","height":"35","leaf_type":"needleleaved","name":"10號巨木","natural":"tree"},"id":"node/13381273639"},{"type":"Feature","geometry":{"type":"Point","coordinates":[121.36776,24.57559]},"properties":{"@id":"node/13381273642","circumference":"8","height":"35","leaf_type":"needleleaved","name":"11號巨木","natural":"tree"},"id":"node/13381273642"},{"type":"Feature","geometry":{"type":"Point","coordinates":[121.367973,24.575636]},"properties":{"@id":"node/13381273643","circumference":"8.9","height":"32","leaf_type":"needleleaved","name":"12號巨木","natural":"tree"},"id":"node/13381273643"},{"type":"Feature","geometry":{"type":"Point","coordinates":[121.367871,24.575805]},"properties":{"@id":"node/13381273644","circumference":"9.7","height":"33","leaf_type":"needleleaved","name":"13號巨木","natural":"tree"},"id":"node/13381273644"},{"type":"Feature","geometry":{"type":"Point","coordinates":[121.368083,24.575927]},"properties":{"@id":"node/13381273645","circumference":"9.2","height":"33","leaf_type":"needleleaved","name":"14號巨木","natural":"tree"},"id":"node/13381273645"},{"type":"Feature","geometry":{"type":"Point","coordinates":[121.367969,24.575976]},"properties":{"@id":"node/13381273647","circumference":"7.8","height":"22","leaf_type":"needleleaved","name":"16號巨木","natural":"tree"},"id":"node/13381273647"},{"type":"Feature","geometry":{"type":"Point","coordinates":[121.368264,24.576012]},"properties":{"@id":"node/13381273648","circumference":"7.6","height":"25","leaf_type":"needleleaved","name":"17號巨木","natural":"tree"},"id":"node/13381273648"},{"type":"Feature","geometry":{"type":"Point","coordinates":[121.368384,24.576202]},"properties":{"@id":"node/13381273649","circumference":"7.4","height":"28","leaf_type":"needleleaved","name":"18號巨木","natural":"tree"},"id":"node/13381273649"},{"type":"Feature","geometry":{"type":"Point","coordinates":[121.368378,24.57626]},"properties":{"@id":"node/13381273650","circumference":"12.2","height":"35","leaf_type":"needleleaved","name":"19號巨木","natural":"tree"},"id":"node/13381273650"},{"type":"Feature","geometry":{"type":"Point","coordinates":[121.368376,24.576491]},"properties":{"@id":"node/13381273651","circumference":"7.2","height":"32","leaf_type":"needleleaved","name":"20號巨木","natural":"tree"},"id":"node/13381273651"},{"type":"Feature","geometry":{"type":"Point","coordinates":[121.368317,24.576569]},"properties":{"@id":"node/13381273652","circumference":"13.9","height":"37","leaf_type":"needleleaved","name":"21號巨木","natural":"tree"},"id":"node/13381273652"},{"type":"Feature","geometry":{"type":"Point","coordinates":[121.367744,24.576618]},"properties":{"@id":"node/13381273653","circumference":"4.4","height":"32","leaf_type":"needleleaved","name":"24號巨木","natural":"tree"},"id":"node/13381273653"},{"type":"Feature","geometry":{"type":"Point","coordinates":[121.36774,24.576583]},"properties":{"@id":"node/13381273654","circumference":"7.1","height":"35","leaf_type":"needleleaved","name":"25號巨木","natural":"tree"},"id":"node/13381273654"},{"type":"Feature","geometry":{"type":"Point","coordinates":[121.368042,24.576507]},"properties":{"@id":"node/13381273655","circumference":"7.8","height":"28","leaf_type":"needleleaved","name":"22號巨木","natural":"tree"},"id":"node/13381273655"},{"type":"Feature","geometry":{"type":"Point","coordinates":[121.36805,24.576464]},"properties":{"@id":"node/13381273656","circumference":"6.16","height":"30","leaf_type":"needleleaved","name":"26號巨木","natural":"tree"},"id":"node/13381273656"},{"type":"Feature","geometry":{"type":"Point","coordinates":[121.368084,24.576273]},"properties":{"@id":"node/13381273657","circumference":"9.2","height":"31","leaf_type":"needleleaved","name":"27號巨木","natural":"tree"},"id":"node/13381273657"},{"type":"Feature","geometry":{"type":"Point","coordinates":[121.368066,24.57617]},"properties":{"@id":"node/13381273658","circumference":"6.8","height":"28","leaf_type":"needleleaved","name":"28號巨木","natural":"tree"},"id":"node/13381273658"},{"type":"Feature","geometry":{"type":"Point","coordinates":[121.367956,24.576189]},"properties":{"@id":"node/13381273659","circumference":"5.3","height":"30","leaf_type":"needleleaved","name":"29號巨木","natural":"tree"},"id":"node/13381273659"},{"type":"Feature","geometry":{"type":"Point","coordinates":[121.367873,24.576156]},"properties":{"@id":"node/13381273660","circumference":"6.1","height":"60","leaf_type":"needleleaved","name":"31號巨木","natural":"tree"},"id":"node/13381273660"},{"type":"Feature","geometry":{"type":"Point","coordinates":[121.36786,24.576292]},"properties":{"@id":"node/13381273661","circumference":"8.3","height":"28","leaf_type":"needleleaved","name":"30號巨木","natural":"tree"},"id":"node/13381273661"},{"type":"Feature","geometry":{"type":"Point","coordinates":[121.434423,24.585811]},"properties":{"@id":"node/11236630762","circumference":"9.6 m","denotation":"natural_monument","height":"38.4","leaf_cycle":"evergreen","leaf_type":"needleleaved","name":"12號神木 諸葛亮","natural":"tree","species":"Chamaecyparis formosensis"},"id":"node/11236630762"},{"type":"Feature","geometry":{"type":"Point","coordinates":[121.434533,24.585309]},"properties":{"@id":"node/11236630763","circumference":"9.6 m","denotation":"natural_monument","height":"35.2","leaf_cycle":"evergreen","leaf_type":"needleleaved","name":"13號神木 武則天","natural":"tree","species":"Chamaecyparis formosensis"},"id":"node/11236630763"},{"type":"Feature","geometry":{"type":"Point","coordinates":[121.434898,24.584821]},"properties":{"@id":"node/11236630764","circumference":"12.8 m","denotation":"natural_monument","height":"39.1","leaf_cycle":"evergreen","leaf_type":"needleleaved","name":"14號神木 法顯","natural":"tree","species":"Chamaecyparis formosensis"},"id":"node/11236630764"},{"type":"Feature","geometry":{"type":"Point","coordinates":[121.435169,24.584628]},"properties":{"@id":"node/11236630765","circumference":"10 m","denotation":"natural_monument","height":"24.4","leaf_cycle":"evergreen","leaf_type":"needleleaved","name":"17號神木 白居易","natural":"tree","species":"Chamaecyparis formosensis"},"id":"node/11236630765"},{"type":"Feature","geometry":{"type":"Point","coordinates":[121.434949,24.58566]},"properties":{"@id":"node/11236630766","circumference":"10.6 m","denotation":"natural_monument","height":"36.5","leaf_cycle":"evergreen","leaf_type":"needleleaved","name":"20號神木 秦始皇","natural":"tree","species":"Chamaecyparis formosensis"},"id":"node/11236630766"},{"type":"Feature","geometry":{"type":"Point","coordinates":[121.435188,24.586021]},"properties":{"@id":"node/11236630767","denotation":"natural_monument","leaf_cycle":"evergreen","leaf_type":"needleleaved","name":"22號神木 馮道","natural":"tree","species":"Chamaecyparis formosensis"},"id":"node/11236630767"},{"type":"Feature","geometry":{"type":"Point","coordinates":[121.436403,24.587063]},"properties":{"@id":"node/11236630768","circumference":"7.8 m","denotation":"natural_monument","height":"35.6","leaf_cycle":"evergreen","leaf_type":"needleleaved","name":"29號神木 光武帝","natural":"tree","species":"Chamaecyparis formosensis"},"id":"node/11236630768"},{"type":"Feature","geometry":{"type":"Point","coordinates":[121.435885,24.586843]},"properties":{"@id":"node/11236630769","circumference":"5.18 m","denotation":"natural_monument","height":"35","leaf_cycle":"evergreen","leaf_type":"needleleaved","name":"28號神木 韓愈","natural":"tree","species":"Chamaecyparis formosensis"},"id":"node/11236630769"},{"type":"Feature","geometry":{"type":"Point","coordinates":[121.435625,24.586924]},"properties":{"@id":"node/11236630770","circumference":"8.4 m","denotation":"natural_monument","height":"40.6","leaf_cycle":"evergreen","leaf_type":"needleleaved","name":"26號神木 包拯","natural":"tree","species":"Chamaecyparis formosensis"},"id":"node/11236630770"},{"type":"Feature","geometry":{"type":"Point","coordinates":[121.435907,24.587556]},"properties":{"@id":"node/11236630771","circumference":"6.4 m","denotation":"natural_monument","height":"36.5","leaf_cycle":"evergreen","leaf_type":"needleleaved","name":"30號神木 于謙","natural":"tree","species":"Chamaecyparis formosensis"},"id":"node/11236630771"},{"type":"Feature","geometry":{"type":"Point","coordinates":[121.435775,24.58757]},"properties":{"@id":"node/11236630772","circumference":"7.7 m","denotation":"natural_monument,dead","height":"31.5","leaf_cycle":"evergreen","leaf_type":"needleleaved","name":"7號神木 唐太宗","natural":"tree","species":"Chamaecyparis formosensis"},"id":"node/11236630772"},{"type":"Feature","geometry":{"type":"Point","coordinates":[121.437854,24.587653]},"properties":{"@id":"node/11236630774","circumference":"7.8 m","denotation":"natural_monument","height":"28.7","leaf_cycle":"evergreen","leaf_type":"needleleaved","name":"32號神木 鄭成功","natural":"tree","species":"Chamaecyparis obtusa var. formosana"},"id":"node/11236630774"},{"type":"Feature","geometry":{"type":"Point","coordinates":[121.43754,24.587644]},"properties":{"@id":"node/11236630775","circumference":"6.2 m","denotation":"natural_monument","height":"28.6","leaf_cycle":"evergreen","leaf_type":"needleleaved","name":"31號神木 司馬光","natural":"tree","species":"Chamaecyparis formosensis"},"id":"node/11236630775"},{"type":"Feature","geometry":{"type":"Point","coordinates":[121.437999,24.587587]},"properties":{"@id":"node/11236630776","denotation":"natural_monument","leaf_cycle":"evergreen","leaf_type":"needleleaved","name":"33號神木 華陀","natural":"tree","species":"Chamaecyparis obtusa var. formosana"},"id":"node/11236630776"},{"type":"Feature","geometry":{"type":"Point","coordinates":[121.437615,24.587856]},"properties":{"@id":"node/11236630781","circumference":"9.3 m","denotation":"natural_monument","height":"33.3","leaf_cycle":"evergreen","leaf_type":"needleleaved","name":"34號神木 朱熹","natural":"tree","species":"Chamaecyparis obtusa var. formosana"},"id":"node/11236630781"},{"type":"Feature","geometry":{"type":"Point","coordinates":[121.437492,24.588]},"properties":{"@id":"node/11236630782","circumference":"6.5 m","denotation":"natural_monument","height":"29.5","leaf_cycle":"evergreen","leaf_type":"needleleaved","name":"35神木 關羽","natural":"tree","species":"Chamaecyparis obtusa var. formosana"},"id":"node/11236630782"},{"type":"Feature","geometry":{"type":"Point","coordinates":[121.437283,24.588109]},"properties":{"@id":"node/11236630783","denotation":"natural_monument","leaf_cycle":"evergreen","leaf_type":"needleleaved","name":"36神木 岳飛","natural":"tree","species":"Chamaecyparis obtusa var. formosana"},"id":"node/11236630783"},{"type":"Feature","geometry":{"type":"Point","coordinates":[121.435158,24.584751]},"properties":{"@id":"node/11236630785","circumference":"5 m","denotation":"natural_monument","height":"34.6","leaf_cycle":"evergreen","leaf_type":"needleleaved","name":"18號神木 鄭和","natural":"tree","species":"Chamaecyparis formosensis"},"id":"node/11236630785"},{"type":"Feature","geometry":{"type":"Point","coordinates":[121.435854,24.586683]},"properties":{"@id":"node/11236630786","denotation":"natural_monument","leaf_cycle":"evergreen","leaf_type":"needleleaved","name":"25號神木 明太祖","natural":"tree","species":"Chamaecyparis formosensis"},"id":"node/11236630786"},{"type":"Feature","geometry":{"type":"Point","coordinates":[121.435744,24.586898]},"properties":{"@id":"node/11236630787","circumference":"9.4 m","denotation":"natural_monument","height":"40.1","leaf_cycle":"evergreen","leaf_type":"needleleaved","name":"27號神木 班昭","natural":"tree","species":"Chamaecyparis formosensis"},"id":"node/11236630787"},{"type":"Feature","geometry":{"type":"Point","coordinates":[121.434508,24.586342]},"properties":{"@id":"node/11236630788","circumference":"7.2 m","denotation":"natural_monument","height":"37.1","leaf_cycle":"evergreen","leaf_type":"needleleaved","name":"11號神木 王羲之","natural":"tree","species":"Chamaecyparis formosensis"},"id":"node/11236630788"},{"type":"Feature","geometry":{"type":"Point","coordinates":[121.435774,24.588098]},"properties":{"@id":"node/11236630789","denotation":"natural_monument","height":"28.1","leaf_cycle":"evergreen","leaf_type":"needleleaved","name":"2號神木 陸游","natural":"tree","species":"Chamaecyparis formosensis"},"id":"node/11236630789"},{"type":"Feature","geometry":{"type":"Point","coordinates":[121.434805,24.588076]},"properties":{"@id":"node/11236630790","circumference":"6.2 m","denotation":"natural_monument","height":"21.3","leaf_cycle":"evergreen","leaf_type":"needleleaved","name":"1號神木 柳宗元","natural":"tree","species":"Chamaecyparis formosensis"},"id":"node/11236630790"},{"type":"Feature","geometry":{"type":"Point","coordinates":[121.437365,24.589053]},"properties":{"@id":"node/11236630791","circumference":"5 m","denotation":"natural_monument","height":"27.8","leaf_cycle":"evergreen","leaf_type":"needleleaved","name":"37號神木 元世祖","natural":"tree","species":"Chamaecyparis formosensis"},"id":"node/11236630791"},{"type":"Feature","geometry":{"type":"Point","coordinates":[121.437705,24.589974]},"properties":{"@id":"node/11236630792","circumference":"6.1 m","denotation":"natural_monument","height":"34.3","leaf_cycle":"evergreen","leaf_type":"needleleaved","name":"40號神木 成吉思汗","natural":"tree","species":"Chamaecyparis formosensis"},"id":"node/11236630792"},{"type":"Feature","geometry":{"type":"Point","coordinates":[121.437716,24.589681]},"properties":{"@id":"node/11236630795","circumference":"5 m","denotation":"natural_monument","height":"35.6","leaf_cycle":"evergreen","leaf_type":"needleleaved","name":"38號神木 李清照","natural":"tree","species":"Chamaecyparis formosensis"},"id":"node/11236630795"},{"type":"Feature","geometry":{"type":"Point","coordinates":[121.437882,24.589739]},"properties":{"@id":"node/11236630796","circumference":"5.7 m","denotation":"natural_monument","height":"35.1","leaf_cycle":"evergreen","leaf_type":"needleleaved","name":"39號神木 張衡","natural":"tree","species":"Chamaecyparis formosensis"},"id":"node/11236630796"},{"type":"Feature","geometry":{"type":"Point","coordinates":[121.43814,24.589665]},"properties":{"@id":"node/11236630797","circumference":"9 m","denotation":"natural_monument","height":"31.8","leaf_cycle":"evergreen","leaf_type":"needleleaved","name":"45號神木 曹操","natural":"tree","species":"Chamaecyparis formosensis"},"id":"node/11236630797"},{"type":"Feature","geometry":{"type":"Point","coordinates":[121.438091,24.590287]},"properties":{"@id":"node/11236630800","circumference":"4 m","denotation":"natural_monument","height":"33.7","leaf_cycle":"evergreen","leaf_type":"needleleaved","name":"46號神木 王陽明","natural":"tree","species":"Chamaecyparis formosensis"},"id":"node/11236630800"},{"type":"Feature","geometry":{"type":"Point","coordinates":[121.437904,24.590421]},"properties":{"@id":"node/11236630801","circumference":"8.6 m","denotation":"natural_monument","height":"33.9","leaf_cycle":"evergreen","leaf_type":"needleleaved","name":"49號神木 李靖","natural":"tree","species":"Chamaecyparis formosensis"},"id":"node/11236630801"},{"type":"Feature","geometry":{"type":"Point","coordinates":[121.437673,24.590585]},"properties":{"@id":"node/11236630802","circumference":"5.4 m","denotation":"natural_monument","height":"32.6","leaf_cycle":"evergreen","leaf_type":"needleleaved","name":"51號神木 袁崇煥","natural":"tree","species":"Chamaecyparis formosensis"},"id":"node/11236630802"},{"type":"Feature","geometry":{"type":"Point","coordinates":[121.435155,24.586277]},"properties":{"@id":"node/11236630806","circumference":"4.2 m","denotation":"natural_monument","height":"39.5","leaf_cycle":"evergreen","leaf_type":"needleleaved","name":"24號神木 蘇武","natural":"tree","species":"Chamaecyparis formosensis"},"id":"node/11236630806"},{"type":"Feature","geometry":{"type":"Point","coordinates":[121.435141,24.586184]},"properties":{"@id":"node/11236630807","circumference":"6.1 m","denotation":"natural_monument","height":"29.8","leaf_cycle":"evergreen","leaf_type":"needleleaved","name":"21號神木 王安石","natural":"tree","species":"Chamaecyparis formosensis"},"id":"node/11236630807"},{"type":"Feature","geometry":{"type":"Point","coordinates":[121.081262,24.732345]},"properties":{"@id":"node/11352825107","name":"七里香神木","natural":"tree"},"id":"node/11352825107"},{"type":"Feature","geometry":{"type":"Point","coordinates":[120.642655,23.608104]},"properties":{"@id":"node/11586430087","denotation":"natural_monument","diameter":"1.9m","height":"25","leaf_type":"broadleaved","name":"樟湖村茄苳神木","natural":"tree","species":"Bischofia javanica","species:wikidata":"Q8248272","species:wikipedia":"zh:秋枫","wikidata":"Q137708580","wikimedia_commons":"Category:Zhanghu Bischofia javanica","wikipedia":"zh:樟湖神木"},"id":"node/11586430087"},{"type":"Feature","geometry":{"type":"Point","coordinates":[121.290289,24.734854]},"properties":{"@id":"node/11741455598","name":"4號神木","natural":"tree"},"id":"node/11741455598"},{"type":"Feature","geometry":{"type":"Point","coordinates":[121.0237,24.3147]},"properties":{"@id":"node/12718123266","height":"72.9","name":"南坑溪神木","natural":"tree","species:wikidata":"Q390313"},"id":"node/12718123266"},{"type":"Feature","geometry":{"type":"Point","coordinates":[121.0367,24.3124]},"properties":{"@id":"node/12718123267","ele":"2126","height":"73.7","name":"西施神木","natural":"tree","species:wikidata":"Q390313"},"id":"node/12718123267"},{"type":"Feature","geometry":{"type":"Point","coordinates":[121.3002,24.4583]},"properties":{"@id":"node/12718123299","ele":"2066","height":"79.1","name":"桃山神木","natural":"tree","species:wikidata":"Q390313"},"id":"node/12718123299"},{"type":"Feature","geometry":{"type":"Point","coordinates":[121.1799,23.798]},"properties":{"@id":"node/12734097856","height":"72","name":"丹詩神木","natural":"tree","species:wikidata":"Q390313"},"id":"node/12734097856"}]}