{"type":"FeatureCollection","features":[{"type":"Feature","geometry":{"type":"Point","coordinates":[120.878083,22.322655]},"properties":{"@id":"node/2383146026","ele":"325.7","name":"巴塱衛山","name:en":"Balangweishan","name:zh":"巴塱衛山","name:zh-Bopo":"ㄅㄚㄌㄤˇㄨㄟˋㄕㄢ","natural":"peak"},"id":"node/2383146026"},{"type":"Feature","geometry":{"type":"Point","coordinates":[120.641992,23.820996]},"properties":{"@id":"node/5582286557","alt_name":"松柏坑山","ele":"430","man_made":"survey_point","material":"granite","name":"松柏坑山","natural":"peak","ref":"2-1067 松柏坑;[衛星]2-M367","survey_point":"trig_2nd","survey_point:purpose":"horizontal","survey_point:structure":"block","survey_point:zh":"松柏坑山","name:zh":"松柏坑山","name:en":"Songbokengshan"},"id":"node/5582286557"},{"type":"Feature","geometry":{"type":"Point","coordinates":[120.608099,23.567183]},"properties":{"@id":"node/12468292947","checkpoint":"hiking","checkpoint:type":"photo","description":"小百岳認證 #057 梨子腳山","ele":"1173","man_made":"summit_board","name":"梨子腳山","name:en":"Lizijiaoshan","name:zh":"梨子腳山","name:zh-Bopo":"ㄌㄧˊㄗ˙ㄐㄧㄠˇㄕㄢ","name:zh-Hans":"梨子脚山","name:zh-Hant":"梨子腳山","name:zh-Latn-pinyin":"lízijiǎoshān","natural":"peak","ref":"小百岳#057","url":"https://www.atunas.com.tw/tw/outdoor/mountains/%E6%A2%A8%E5%AD%90%E8%85%B3%E5%B1%B1"},"id":"node/12468292947"},{"type":"Feature","geometry":{"type":"Point","coordinates":[120.909934,22.432075]},"properties":{"@id":"node/2383191303","ele":"779.1","name":"加奈美山","name:en":"Jianaimeishan","name:zh":"加奈美山","name:zh-Bopo":"ㄐㄧㄚㄋㄞˋㄇㄟˇㄕㄢ","natural":"peak"},"id":"node/2383191303"},{"type":"Feature","geometry":{"type":"Point","coordinates":[118.417684,24.465476]},"properties":{"@id":"node/10992302090","ele":"253","name":"太武山","natural":"peak","name:zh":"太武山","name:en":"Taiwushan"},"id":"node/10992302090"},{"type":"Feature","geometry":{"type":"Point","coordinates":[121.534552,22.053031]},"properties":{"@id":"node/2383293859","ele":"548","name":"紅頭山","name:en":"Hongtoushan","name:zh":"紅頭山","natural":"peak"},"id":"node/2383293859"},{"type":"Feature","geometry":{"type":"Point","coordinates":[119.923451,26.150148]},"properties":{"@id":"node/3947428325","ele":"248","name":"雲台山","name:en":"Yuntaishan","name:zh":"雲台山","name:zh-Bopo":"ㄩㄣˊㄊㄞˊㄕㄢ","natural":"peak"},"id":"node/3947428325"},{"type":"Feature","geometry":{"type":"Point","coordinates":[119.548627,23.553537]},"properties":{"@id":"node/4381519227","ele":"20","name":"蛇頭山","name:en":"Shetoushan","name:zh":"蛇頭山","natural":"peak"},"id":"node/4381519227"},{"type":"Feature","geometry":{"type":"Point","coordinates":[121.188299,22.895085]},"properties":{"@id":"node/2383229271","ele":"1189.9","name":"都蘭山","name:en":"Doulanshan","name:zh":"都蘭山","name:zh-Bopo":"ㄉㄡㄌㄢˊㄕㄢ","natural":"peak"},"id":"node/2383229271"},{"type":"Feature","geometry":{"type":"Point","coordinates":[121.488985,23.544722]},"properties":{"@id":"node/2474775996","ele":"921.6","name":"八里灣山","name:en":"Baliwanshan","name:zh":"八里灣山","name:zh-Bopo":"ㄅㄚㄌㄧˇㄨㄢㄕㄢ","natural":"peak"},"id":"node/2474775996"},{"type":"Feature","geometry":{"type":"Point","coordinates":[120.952489,22.643162]},"properties":{"@id":"node/2482530525","ele":"1339.93","name":"太麻里山","name:en":"Taimalishan","name:zh":"太麻里山","name:zh-Bopo":"ㄊㄞˋㄇㄚˊㄌㄧˇㄕㄢ","natural":"peak"},"id":"node/2482530525"},{"type":"Feature","geometry":{"type":"Point","coordinates":[121.316737,23.232412]},"properties":{"@id":"node/5582288254","ele":"880.7","name":"萬人山","name:en":"Wanrenshan","name:zh":"萬人山","name:zh-Bopo":"ㄨㄢˋㄖㄣˊㄕㄢ","natural":"peak"},"id":"node/5582288254"},{"type":"Feature","geometry":{"type":"Point","coordinates":[120.344998,22.841165]},"properties":{"@id":"node/10917660768","ele":"310","name":"大崗山","name:en":"Dagangshan","name:zh":"大崗山","name:zh-Bopo":"ㄉㄚˋㄍㄤˇㄕㄢ","natural":"peak"},"id":"node/10917660768"},{"type":"Feature","geometry":{"type":"Point","coordinates":[121.520656,23.919089]},"properties":{"@id":"node/2268441058","ele":"599.92","name":"鯉魚山","name:en":"Liyushan","name:zh":"鯉魚山","name:zh-Bopo":"ㄌㄧˇㄩˊㄕㄢ","natural":"peak"},"id":"node/2268441058"},{"type":"Feature","geometry":{"type":"Point","coordinates":[121.641896,24.178102]},"properties":{"@id":"node/2385618817","ele":"1275.6","name":"立霧山","name:en":"Liwushan","name:zh":"立霧山","natural":"peak"},"id":"node/2385618817"},{"type":"Feature","geometry":{"type":"Point","coordinates":[120.841757,22.068202]},"properties":{"@id":"node/2474870602","ele":"517.9","name":"萬里得山","name:en":"Wanlideshan","name:zh":"萬里得山","name:zh-Bopo":"ㄨㄢˋㄌㄧˇㄉㄜˊㄕㄢ","natural":"peak"},"id":"node/2474870602"},{"type":"Feature","geometry":{"type":"Point","coordinates":[121.563952,24.50919]},"properties":{"@id":"node/2482523283","ele":"2352.4","name":"三星山","name:en":"Sanxingshan","name:zh":"三星山","name:zh-Bopo":"ㄙㄢㄒㄧㄥㄕㄢ","natural":"peak"},"id":"node/2482523283"},{"type":"Feature","geometry":{"type":"Point","coordinates":[121.552039,23.825487]},"properties":{"@id":"node/2482524900","ele":"612.9","name":"月眉山","name:en":"Yuemeishan","name:zh":"月眉山","name:zh-Bopo":"ㄩㄝˋㄇㄟˊㄕㄢ","natural":"peak"},"id":"node/2482524900"},{"type":"Feature","geometry":{"type":"Point","coordinates":[121.53137,23.970878]},"properties":{"@id":"node/2482534699","ele":"903.9","name":"初音山","name:en":"Chuyinshan","name:zh":"初音山","name:zh-Bopo":"ㄔㄨㄧㄣㄕㄢ","natural":"peak"},"id":"node/2482534699"},{"type":"Feature","geometry":{"type":"Point","coordinates":[121.76733,24.850237]},"properties":{"@id":"node/2482609407","ele":"679.2","name":"鵲子山","name:en":"Quezishan","name:zh":"鵲子山","name:zh-Bopo":"ㄑㄩㄝˋㄗ˙ㄕㄢ","natural":"peak"},"id":"node/2482609407"},{"type":"Feature","geometry":{"type":"Point","coordinates":[121.729687,24.85923]},"properties":{"@id":"node/2313335131","ele":"1027.6","name":"三角崙山","name:en":"Sanjiaolunshan","name:zh":"三角崙山","name:zh-Bopo":"ㄙㄢㄐㄧㄠˇㄌㄨㄣˊㄕㄢ","natural":"peak"},"id":"node/2313335131"},{"type":"Feature","geometry":{"type":"Point","coordinates":[121.910424,24.974561]},"properties":{"@id":"node/2356795872","ele":"616.1","name":"灣坑頭山","name:en":"Wankengtoushan","name:zh":"灣坑頭山","name:zh-Bopo":"ㄨㄢㄎㄥㄊㄡˊㄕㄢ","natural":"peak"},"id":"node/2356795872"},{"type":"Feature","geometry":{"type":"Point","coordinates":[120.732827,22.163899]},"properties":{"@id":"node/2376729675","ele":"1059.4","name":"里龍山","name:en":"Lilongshan","name:zh":"里龍山","name:zh-Bopo":"ㄌㄧˇㄌㄨㄥˊㄕㄢ","natural":"peak"},"id":"node/2376729675"},{"type":"Feature","geometry":{"type":"Point","coordinates":[120.778941,21.968468]},"properties":{"@id":"node/2482530511","ele":"324.9","name":"大山母山","name:en":"Dashanmushan","name:zh":"大山母山","name:zh-Bopo":"ㄉㄚˋㄕㄢㄇㄨˇㄕㄢ","natural":"peak"},"id":"node/2482530511"},{"type":"Feature","geometry":{"type":"Point","coordinates":[120.657533,22.508031]},"properties":{"@id":"node/3801961073","ele":"898.3","name":"棚集山","name:en":"Pengjishan","name:zh":"棚集山","name:zh-Bopo":"ㄆㄥˊㄐㄧˊㄕㄢ","natural":"peak"},"id":"node/3801961073"},{"type":"Feature","geometry":{"type":"Point","coordinates":[120.643958,22.650101]},"properties":{"@id":"node/2482554923","ele":"656.8","name":"笠頂山","name:en":"Lidingshan","name:zh":"笠頂山","natural":"peak"},"id":"node/2482554923"},{"type":"Feature","geometry":{"type":"Point","coordinates":[120.690385,22.955188]},"properties":{"@id":"node/2482555648","ele":"1408","name":"鳴海山","name:en":"Minghaishan","name:zh":"鳴海山","name:zh-Bopo":"ㄇㄧㄥˊㄏㄞˇㄕㄢ","natural":"peak"},"id":"node/2482555648"},{"type":"Feature","geometry":{"type":"Point","coordinates":[120.765265,23.074754]},"properties":{"@id":"node/3929769749","ele":"1803.6","name":"東藤枝山","name:en":"Dongtengzhishan","name:zh":"東藤枝山","name:zh-Bopo":"ㄉㄨㄥㄊㄥˊㄓㄕㄢ","natural":"peak"},"id":"node/3929769749"},{"type":"Feature","geometry":{"type":"Point","coordinates":[120.496935,22.896817]},"properties":{"@id":"node/4128287417","ele":"305.5","name":"旗尾山","name:en":"Qiwei Mountain","name:zh":"旗尾山","name:zh-Bopo":"ㄑㄧˊㄨㄟˇㄕㄢ","natural":"peak"},"id":"node/4128287417"},{"type":"Feature","geometry":{"type":"Point","coordinates":[120.37366,22.727157]},"properties":{"@id":"node/4297448668","ele":"172","name":"大社觀音山","name:en":"Guanyinshan","name:zh":"大社觀音山","name:zh-Bopo":"ㄍㄨㄢㄧㄣㄕㄢ","natural":"peak"},"id":"node/4297448668"},{"type":"Feature","geometry":{"type":"Point","coordinates":[120.265562,22.642019]},"properties":{"@id":"node/4936308096","ele":"330","name":"壽山","name:en":"Shoushan","name:zh":"壽山","natural":"peak"},"id":"node/4936308096"},{"type":"Feature","geometry":{"type":"Point","coordinates":[120.67626,22.857062]},"properties":{"@id":"node/5582288232","ele":"1426.2","name":"尾寮山","name:en":"Weiliaoshan","name:zh":"尾寮山","name:zh-Bopo":"ㄨㄟˇㄌㄧㄠˊㄕㄢ","natural":"peak"},"id":"node/5582288232"},{"type":"Feature","geometry":{"type":"Point","coordinates":[120.523085,23.048471]},"properties":{"@id":"node/5582288235","ele":"798.1","name":"刣牛湖山","name:en":"Zhongniuhushan","name:zh":"刣牛湖山","name:zh-Bopo":"ㄓㄨㄥㄋㄧㄡˊㄏㄨˊㄕㄢ","natural":"peak"},"id":"node/5582288235"},{"type":"Feature","geometry":{"type":"Point","coordinates":[120.784862,22.195337]},"properties":{"@id":"node/5591528724","ele":"804.9","name":"女仍山","name:en":"Nurengshan","name:zh":"女仍山","name:zh-Bopo":"ㄋㄩˇㄖㄥˊㄕㄢ","natural":"peak"},"id":"node/5591528724"},{"type":"Feature","geometry":{"type":"Point","coordinates":[120.641319,23.182983]},"properties":{"@id":"node/2316047802","ele":"970.9","name":"西阿里關山","name:en":"Xialiguanshan","name:zh":"西阿里關山","name:zh-Bopo":"ㄒㄧㄚㄌㄧˇㄍㄨㄢㄕㄢ","natural":"peak"},"id":"node/2316047802"},{"type":"Feature","geometry":{"type":"Point","coordinates":[120.504635,23.266214]},"properties":{"@id":"node/2318615579","ele":"839.6","name":"崁頭山","name:en":"Kantoushan","name:zh":"崁頭山","name:zh-Bopo":"ㄎㄢˋㄊㄡˊㄕㄢ","natural":"peak"},"id":"node/2318615579"},{"type":"Feature","geometry":{"type":"Point","coordinates":[120.565556,23.175919]},"properties":{"@id":"node/2318615582","ele":"1108.8","name":"竹子尖山","name:en":"Zhuzijianshan","name:zh":"竹子尖山","name:zh-Bopo":"ㄓㄨˊㄗ˙ㄐㄧㄢㄕㄢ","natural":"peak"},"id":"node/2318615582"},{"type":"Feature","geometry":{"type":"Point","coordinates":[120.637583,23.48734]},"properties":{"@id":"node/2465722604","ele":"1311","name":"大湖尖山","name:en":"Dahujianshan","name:zh":"大湖尖山","name:zh-Bopo":"ㄉㄚˋㄏㄨˊㄐㄧㄢㄕㄢ","natural":"peak"},"id":"node/2465722604"},{"type":"Feature","geometry":{"type":"Point","coordinates":[120.622564,23.055832]},"properties":{"@id":"node/2482524152","ele":"1042.8","name":"白雲山","name:en":"Baiyunshan","name:zh":"白雲山","natural":"peak"},"id":"node/2482524152"},{"type":"Feature","geometry":{"type":"Point","coordinates":[120.592456,23.240628]},"properties":{"@id":"node/2482533793","ele":"1184.3","name":"三腳南山","name:en":"Sanjiaonanshan","name:zh":"三腳南山","name:zh-Bopo":"ㄙㄢㄐㄧㄠˇㄋㄢˊㄕㄢ","natural":"peak"},"id":"node/2482533793"},{"type":"Feature","geometry":{"type":"Point","coordinates":[120.522627,23.311322]},"properties":{"@id":"node/5247059730","ele":"1236.6","name":"大凍山","name:en":"Dadongshan","name:zh":"大凍山","name:zh-Bopo":"ㄉㄚˋㄉㄨㄥˋㄕㄢ","natural":"peak"},"id":"node/5247059730"},{"type":"Feature","geometry":{"type":"Point","coordinates":[120.738488,23.062057]},"properties":{"@id":"node/5434716513","ele":"1563.3","name":"藤枝山","name:en":"Tengzhishan","name:zh":"藤枝山","name:zh-Bopo":"ㄊㄥˊㄓㄕㄢ","natural":"peak"},"id":"node/5434716513"},{"type":"Feature","geometry":{"type":"Point","coordinates":[120.491942,23.479974]},"properties":{"@id":"node/12468292421","ele":"150","name":"紅毛埤山","name:en":"Hongmaopishan","name:zh":"紅毛埤山","name:zh-Bopo":"ㄏㄨㄥˊㄇㄠˊㄆㄧˊㄕㄢ","natural":"peak"},"id":"node/12468292421"},{"type":"Feature","geometry":{"type":"Point","coordinates":[120.631578,23.889209]},"properties":{"@id":"node/2283843201","ele":"443","name":"橫山","name:en":"Hengshan","name:zh":"橫山","name:zh-Bopo":"ㄏㄥˊㄕㄢ","natural":"peak"},"id":"node/2283843201"},{"type":"Feature","geometry":{"type":"Point","coordinates":[120.607722,23.536884]},"properties":{"@id":"node/2377741632","ele":"840","name":"獨立山","name:en":"Dulishan","name:zh":"獨立山","name:zh-Bopo":"ㄉㄨˊㄌㄧˋㄕㄢ","natural":"peak"},"id":"node/2377741632"},{"type":"Feature","geometry":{"type":"Point","coordinates":[120.813882,23.641118]},"properties":{"@id":"node/2482543708","ele":"2090.63","name":"金柑樹山","name:en":"Jinganshushan","name:zh":"金柑樹山","name:zh-Bopo":"ㄐㄧㄣㄍㄢㄕㄨˋㄕㄢ","natural":"peak"},"id":"node/2482543708"},{"type":"Feature","geometry":{"type":"Point","coordinates":[120.719893,23.497859]},"properties":{"@id":"node/4462742356","ele":"1976","name":"大凍山","name:en":"Dadongshan","name:zh":"大凍山","name:zh-Bopo":"ㄉㄚˋㄉㄨㄥˋㄕㄢ","natural":"peak"},"id":"node/4462742356"},{"type":"Feature","geometry":{"type":"Point","coordinates":[121.303644,24.692638]},"properties":{"@id":"node/1506293185","ele":"1913.1","name":"李崠山","name:en":"Lidongshan","name:zh":"李棟山","natural":"peak"},"id":"node/1506293185"},{"type":"Feature","geometry":{"type":"Point","coordinates":[120.800146,24.179365]},"properties":{"@id":"node/2110803156","ele":"857.6","name":"頭嵙山","name:en":"Toukeshan","name:zh":"頭嵙山","natural":"peak"},"id":"node/2110803156"},{"type":"Feature","geometry":{"type":"Point","coordinates":[120.75261,24.139136]},"properties":{"@id":"node/2112345723","ele":"480","name":"三汀山","name:en":"Santingshan","name:zh":"三汀山","name:zh-Bopo":"ㄙㄢㄊㄧㄥㄕㄢ","natural":"peak"},"id":"node/2112345723"},{"type":"Feature","geometry":{"type":"Point","coordinates":[120.740978,24.173108]},"properties":{"@id":"node/2290100470","ele":"316.71","name":"南觀音山","name:en":"Nanguanyinshan","name:zh":"南觀音山","name:zh-Bopo":"ㄋㄢˊㄍㄨㄢㄧㄣㄕㄢ","natural":"peak"},"id":"node/2290100470"},{"type":"Feature","geometry":{"type":"Point","coordinates":[120.898142,23.814125]},"properties":{"@id":"node/2341498881","ele":"1004.3","name":"後尖山","name:en":"Houjianshan","name:zh":"後尖山","name:zh-Bopo":"ㄏㄡˋㄐㄧㄢㄕㄢ","natural":"peak"},"id":"node/2341498881"},{"type":"Feature","geometry":{"type":"Point","coordinates":[120.837589,23.855219]},"properties":{"@id":"node/2349661219","ele":"1386.2","name":"集集大山","name:en":"Jijidashan","name:zh":"集集大山","name:zh-Bopo":"ㄐㄧˊㄐㄧˊㄉㄚˋㄕㄢ","natural":"peak"},"id":"node/2349661219"},{"type":"Feature","geometry":{"type":"Point","coordinates":[120.713513,24.061251]},"properties":{"@id":"node/2356277010","ele":"249.0","name":"阿罩霧山","name:en":"Azhaowushan","name:zh":"阿罩霧山","name:zh-Bopo":"ㄚㄓㄠˋㄨˋㄕㄢ","natural":"peak"},"id":"node/2356277010"},{"type":"Feature","geometry":{"type":"Point","coordinates":[120.62314,23.590011]},"properties":{"@id":"node/2482523883","ele":"1300.5","name":"大尖山","name:en":"Yunjia Dajianshan","name:zh":"大尖山","name:zh-Bopo":"ㄉㄚˋㄐㄧㄢㄕㄢ","natural":"peak"},"id":"node/2482523883"},{"type":"Feature","geometry":{"type":"Point","coordinates":[120.84163,23.934586]},"properties":{"@id":"node/2482530189","ele":"1173.63","name":"九份二山","name:en":"Jiufenershan","name:zh":"九份二山","name:zh-Bopo":"ㄐㄧㄡˇㄈㄣˋㄦˋㄕㄢ","natural":"peak"},"id":"node/2482530189"},{"type":"Feature","geometry":{"type":"Point","coordinates":[120.806178,23.69169]},"properties":{"@id":"node/2482530193","ele":"1695.6","name":"鳳凰山","name:en":"Fenghuangshan","name:zh":"鳳凰山","name:zh-Bopo":"ㄈㄥˋㄏㄨㄤˊㄕㄢ","natural":"peak"},"id":"node/2482530193"},{"type":"Feature","geometry":{"type":"Point","coordinates":[120.817801,24.137985]},"properties":{"@id":"node/2482543245","ele":"995.2","name":"暗影山","name:en":"Anyingshan","name:zh":"暗影山","name:zh-Bopo":"ㄢˋㄧㄥˇㄕㄢ","natural":"peak"},"id":"node/2482543245"},{"type":"Feature","geometry":{"type":"Point","coordinates":[120.724589,23.60376]},"properties":{"@id":"node/2482543563","ele":"1749.2","name":"石壁山","name:en":"Shibishan","name:zh":"石壁山","name:zh-Bopo":"ㄕˊㄅㄧˋㄕㄢ","natural":"peak"},"id":"node/2482543563"},{"type":"Feature","geometry":{"type":"Point","coordinates":[120.828953,24.074954]},"properties":{"@id":"node/2482625497","ele":"1205.1","name":"大橫屏山","name:en":"Dahengpingshan","name:zh":"大橫屏山","name:zh-Bopo":"ㄉㄚˋㄏㄥˊㄆㄧㄥˊㄕㄢ","natural":"peak"},"id":"node/2482625497"},{"type":"Feature","geometry":{"type":"Point","coordinates":[120.808532,23.535731]},"properties":{"@id":"node/4381460215","ele":"2663","name":"大塔山","name:en":"Datashan","name:zh":"大塔山","name:zh-Bopo":"ㄉㄚˋㄊㄚˇㄕㄢ","natural":"peak"},"id":"node/4381460215"},{"type":"Feature","geometry":{"type":"Point","coordinates":[120.907964,23.881397]},"properties":{"@id":"node/4381460218","ele":"1016","name":"貓囒山","name:en":"Maolanshan","name:zh":"貓囒山","name:zh-Bopo":"ㄇㄠㄌㄢˊㄕㄢ","natural":"peak"},"id":"node/4381460218"},{"type":"Feature","geometry":{"type":"Point","coordinates":[121.418253,24.824981]},"properties":{"@id":"node/1474242645","ele":"1218.3","name":"東眼山","name:en":"Dongyanshan","name:zh":"東眼山","name:zh-Bopo":"ㄉㄨㄥㄧㄢˇㄕㄢ","natural":"peak"},"id":"node/1474242645"},{"type":"Feature","geometry":{"type":"Point","coordinates":[121.012426,24.510806]},"properties":{"@id":"node/1513705302","ele":"2220.1","name":"加里山","name:en":"Jialishan","name:zh":"加里山","natural":"peak"},"id":"node/1513705302"},{"type":"Feature","geometry":{"type":"Point","coordinates":[120.913804,24.367231]},"properties":{"@id":"node/1513715598","ele":"1406.5","name":"馬那邦山","name:en":"Manabangshan","name:zh":"馬那邦山","name:zh-Bopo":"ㄇㄚˇㄋㄚˋㄅㄤㄕㄢ","natural":"peak"},"id":"node/1513715598"},{"type":"Feature","geometry":{"type":"Point","coordinates":[121.075545,24.609983]},"properties":{"@id":"node/1974838911","ele":"1577.7","name":"鵝公髻山","name:en":"Egongjishan","name:zh":"鵝公髻山","name:zh-Bopo":"ㄜˊㄍㄨㄥㄐㄧˋㄕㄢ","natural":"peak"},"id":"node/1974838911"},{"type":"Feature","geometry":{"type":"Point","coordinates":[121.006526,24.644241]},"properties":{"@id":"node/2289242535","ele":"490.3","name":"獅頭山","name:en":"Shitoushan","name:zh":"獅頭山","name:zh-Bopo":"ㄕㄊㄡˊㄕㄢ","natural":"peak"},"id":"node/2289242535"},{"type":"Feature","geometry":{"type":"Point","coordinates":[121.112232,24.765667]},"properties":{"@id":"node/2293771773","ele":"423.9","name":"飛鳳山","name:en":"Feifengshan","name:zh":"飛鳳山","name:zh-Bopo":"ㄈㄟㄈㄥˋㄕㄢ","natural":"peak"},"id":"node/2293771773"},{"type":"Feature","geometry":{"type":"Point","coordinates":[121.229415,24.809995]},"properties":{"@id":"node/2301484960","ele":"550.31","name":"石門山","name:en":"Shimenshan","name:zh":"石門山","name:zh-Bopo":"ㄕˊㄇㄣˊㄕㄢ","natural":"peak"},"id":"node/2301484960"},{"type":"Feature","geometry":{"type":"Point","coordinates":[120.971845,24.23745]},"properties":{"@id":"node/2306474941","ele":"2305","name":"稍來山","name:en":"Shaolaishan","name:zh":"稍來山","natural":"peak"},"id":"node/2306474941"},{"type":"Feature","geometry":{"type":"Point","coordinates":[120.984607,24.792532]},"properties":{"@id":"node/2308379546","ele":"129.91","name":"十八尖山","name:en":"Shibajianshan","name:zh":"十八尖山","name:zh-Bopo":"ㄕˊㄅㄚㄐㄧㄢㄕㄢ","natural":"peak"},"id":"node/2308379546"},{"type":"Feature","geometry":{"type":"Point","coordinates":[121.335443,24.866485]},"properties":{"@id":"node/2313335681","ele":"664.9","name":"金面山","name:en":"Jinmianshan","name:zh":"金面山","name:zh-Bopo":"ㄐㄧㄣㄇㄧㄢˋㄕㄢ","natural":"peak"},"id":"node/2313335681"},{"type":"Feature","geometry":{"type":"Point","coordinates":[120.655117,24.35634]},"properties":{"@id":"node/2365740800","ele":"235.74","name":"鐵砧山","name:en":"Tiezhenshan","name:zh":"鐵砧山","name:zh-Bopo":"ㄊㄧㄝˇㄓㄣㄕㄢ","natural":"peak"},"id":"node/2365740800"},{"type":"Feature","geometry":{"type":"Point","coordinates":[120.811003,24.375372]},"properties":{"@id":"node/2383917979","ele":"888.4","name":"關刀山","name:en":"Guandaoshan","name:zh":"關刀山","name:zh-Bopo":"ㄍㄨㄢㄉㄠㄕㄢ","natural":"peak"},"id":"node/2383917979"},{"type":"Feature","geometry":{"type":"Point","coordinates":[120.74271,24.220222]},"properties":{"@id":"node/2457648791","ele":"500","name":"聚興山","name:en":"Juxingshan","name:zh":"聚興山","natural":"peak"},"id":"node/2457648791"},{"type":"Feature","geometry":{"type":"Point","coordinates":[121.253324,24.793514]},"properties":{"@id":"node/2474785614","ele":"669.65","name":"石牛山","name:en":"Shihnioushan","name:zh":"石牛山","natural":"peak"},"id":"node/2474785614"},{"type":"Feature","geometry":{"type":"Point","coordinates":[121.27719,24.824451]},"properties":{"@id":"node/2482550086","ele":"575.54","name":"溪洲山","name:en":"Xizhoushan","name:zh":"溪洲山","name:zh-Bopo":"ㄒㄧㄓㄡㄕㄢ","natural":"peak"},"id":"node/2482550086"},{"type":"Feature","geometry":{"type":"Point","coordinates":[121.585323,25.108831]},"properties":{"@id":"node/1662377765","ele":"475.27","name":"大崙頭山","name:en":"Daluntoushan","name:zh":"大崙頭山","name:zh-Bopo":"ㄉㄚˋㄌㄨㄣˊㄊㄡˊㄕㄢ","natural":"peak"},"id":"node/1662377765"},{"type":"Feature","geometry":{"type":"Point","coordinates":[121.849214,25.118912]},"properties":{"@id":"node/2079679446","ele":"586.37","name":"基隆山","name:en":"Jilongshan","name:zh":"基隆山","natural":"peak"},"id":"node/2079679446"},{"type":"Feature","geometry":{"type":"Point","coordinates":[121.61964,24.967225]},"properties":{"@id":"node/2268440736","ele":"677.65","name":"二格山","name:en":"Ergeshan","name:zh":"二格山","name:zh-Bopo":"ㄦˋㄍㄜˊㄕㄢ","natural":"peak"},"id":"node/2268440736"},{"type":"Feature","geometry":{"type":"Point","coordinates":[121.730058,25.053264]},"properties":{"@id":"node/2299907364","ele":"728.2","name":"姜子寮山","name:en":"Jiangziliaoshan","name:zh":"姜子寮山","natural":"peak"},"id":"node/2299907364"},{"type":"Feature","geometry":{"type":"Point","coordinates":[121.456085,24.946293]},"properties":{"@id":"node/5585899083","ele":"425.7","name":"天上山","name:en":"Tianshangshan","name:zh":"天上山","name:zh-Bopo":"ㄊㄧㄢㄕㄤˋㄕㄢ","natural":"peak"},"id":"node/5585899083"},{"type":"Feature","geometry":{"type":"Point","coordinates":[121.522191,25.178741]},"properties":{"@id":"node/1519026317","ele":"1093.18","name":"大屯山","name:en":"Datunshan","name:zh":"大屯山","natural":"peak"},"id":"node/1519026317"},{"type":"Feature","geometry":{"type":"Point","coordinates":[121.491168,24.90471]},"properties":{"@id":"node/1871675300","ele":"856.9;857","name":"獅仔頭山","name:en":"Shizitoushan;Shizaitoushan","name:zh":"獅仔頭山","name:zh-Bopo":"ㄕㄗㄞˇㄊㄡˊㄕㄢ","natural":"peak"},"id":"node/1871675300"},{"type":"Feature","geometry":{"type":"Point","coordinates":[121.780662,25.070953]},"properties":{"@id":"node/2268440737","ele":"757.7","name":"五分山","name:en":"Wufenshan","name:zh":"五分山","name:zh-Bopo":"ㄨˇㄈㄣㄕㄢ","natural":"peak"},"id":"node/2268440737"},{"type":"Feature","geometry":{"type":"Point","coordinates":[121.529306,25.084269]},"properties":{"@id":"node/2268440738","ele":"152.74","name":"劍潭山","name:en":"Jiantanshan","name:zh":"劍潭山","natural":"peak"},"id":"node/2268440738"},{"type":"Feature","geometry":{"type":"Point","coordinates":[121.70973,25.158507]},"properties":{"@id":"node/2268440740","ele":"231","name":"大武崙山","name:en":"Dawulunshan","name:zh":"大武崙山","name:zh-Bopo":"ㄉㄚˋㄨˇㄌㄨㄣˊㄕㄢ","natural":"peak"},"id":"node/2268440740"},{"type":"Feature","geometry":{"type":"Point","coordinates":[121.426676,25.135939]},"properties":{"@id":"node/2268440742","ele":"610.8","name":"觀音山","name:en":"Guanyinshan","name:zh":"觀音山","natural":"peak"},"id":"node/2268440742"},{"type":"Feature","geometry":{"type":"Point","coordinates":[121.635512,25.023139]},"properties":{"@id":"node/2299907353","ele":"388.21","name":"土庫岳","name:en":"Tukuyue","name:zh":"土庫岳","name:zh-Bopo":"ㄊㄨˇㄎㄨˋㄩㄝˋ","natural":"peak"},"id":"node/2299907353"},{"type":"Feature","geometry":{"type":"Point","coordinates":[121.668153,25.050904]},"properties":{"@id":"node/2299907396","ele":"461.0","name":"汐止大尖山","name:en":"Xizhidajianshan","name:zh":"汐止大尖山","name:zh-Bopo":"ㄒㄧㄓˇㄉㄚˋㄐㄧㄢㄕㄢ","natural":"peak"},"id":"node/2299907396"},{"type":"Feature","geometry":{"type":"Point","coordinates":[121.345096,24.926599]},"properties":{"@id":"node/2300441179","ele":"321","name":"鳶山","name:en":"Yuanshan","name:zh":"鳶山","name:zh-Bopo":"ㄩㄢㄕㄢ","natural":"peak"},"id":"node/2300441179"},{"type":"Feature","geometry":{"type":"Point","coordinates":[121.775643,25.143129]},"properties":{"@id":"node/2356788687","ele":"161.75","name":"槓子寮山","name:en":"Gangziliaoshan","name:zh":"槓子寮山","name:zh-Bopo":"ㄍㄤˋㄗ˙ㄌㄧㄠˊㄕㄢ","natural":"peak"},"id":"node/2356788687"},{"type":"Feature","geometry":{"type":"Point","coordinates":[121.752033,25.118848]},"properties":{"@id":"node/2356788884","ele":"208.3","name":"紅淡山","name:en":"Hongdanshan","name:zh":"紅淡山","name:zh-Bopo":"ㄏㄨㄥˊㄉㄢˋㄕㄢ","natural":"peak"},"id":"node/2356788884"},{"type":"Feature","geometry":{"type":"Point","coordinates":[121.55344,25.170702]},"properties":{"@id":"node/4254423699","ele":"1118.21","name":"七星山","name:en":"Qixingshan","name:zh":"七星山","natural":"peak"},"id":"node/4254423699"},{"type":"Feature","geometry":{"type":"Point","coordinates":[121.384107,24.995877]},"properties":{"@id":"node/5579557329","ele":"405","name":"大棟山","name:en":"Dadongshan","name:zh":"大棟山","name:zh-Bopo":"ㄉㄚˋㄉㄨㄥˋㄕㄢ","natural":"peak"},"id":"node/5579557329"},{"type":"Feature","geometry":{"type":"Point","coordinates":[121.586236,25.025599]},"properties":{"@id":"node/5585727570","ele":"373.93","name":"南港山","name:en":"Nangangshan","name:zh":"南港山","natural":"peak"},"id":"node/5585727570"},{"type":"Feature","geometry":{"type":"Point","coordinates":[121.495751,24.969276]},"properties":{"@id":"node/5585899084","ele":"304.48","name":"南勢角山","name:en":"Nanshijiaoshan","name:zh":"南勢角山","name:zh-Bopo":"ㄋㄢˊㄕˋㄐㄧㄠˇㄕㄢ","natural":"peak"},"id":"node/5585899084"},{"type":"Feature","geometry":{"type":"Point","coordinates":[121.027012,24.566973]},"properties":{"@id":"node/2482561170","ele":"1252.9","name":"向天湖山","name:en":"Xiangtianhushan","name:zh":"向天湖山","name:zh-Bopo":"ㄒㄧㄤˋㄊㄧㄢㄏㄨˊㄕㄢ","natural":"peak"},"id":"node/2482561170"},{"type":"Feature","geometry":{"type":"Point","coordinates":[120.952974,24.54256]},"properties":{"@id":"node/2659173937","ele":"964.3","name":"仙山","name:en":"Shienshan","name:zh":"仙山","natural":"peak"},"id":"node/2659173937"},{"type":"Feature","geometry":{"type":"Point","coordinates":[121.09616,24.641288]},"properties":{"@id":"node/3008000235","ele":"1061.2","name":"五指山","name:en":"Wuzhishan","name:zh":"五指山","name:zh-Bopo":"ㄨˇㄓˇㄕㄢ","natural":"peak"},"id":"node/3008000235"},{"type":"Feature","geometry":{"type":"Point","coordinates":[120.730975,24.377324]},"properties":{"@id":"node/12031269004","ele":"600.7","name":"火炎山","name:en":"Huoyanshan","natural":"peak","name:zh":"火炎山"},"id":"node/12031269004"}]}